StreetAddress,City,State,Zip,AUTO_UNIQUE_ID_2016-07-07_marky_r_dop_services,Source,TimeTaken,UpdatedGeocoding,Version,ErrorMessage,TransactionId,naaccrQualCode,naaccrQualType,FeatureMatchingResultType,MatchedLocationType,RegionSizeUnits,InterpolationType,RegionSize,InterpolationSubType,FeatureMatchingGeographyType,MatchScore,FeatureMatchingHierarchy,TieHandlingStrategyType,FeatureMatchingResultTypeTieBreakingNotes,GeocodeQualityType,FeatureMatchingHierarchyNotes,FeatureMatchingResultTypeNotes,FeatureMatchingResultCount,Latitude,Longitude,MatchType,CensusYear,CensusPlaceFips,CensusMsaFips,CensusMetDivFips,CensusMcdFips,CensusCbsaMicro,CensusCbsaFips,CensusBlock,CensusBlockGroup,CensusTract,CensusCountyFips,CensusStateFips,naaccrCertCode,naaccrCertType
1550 North Garey Ave,Pomona,CA,91767,1,USCGeocoder,1,1,4.1,,cd33913d-aed3-4f67-8f13-4a6fe1ee34a3,2,Parcel,Success,LOCATION_TYPE_STREET_ADDRESS,Meters,ArealInterpolation,1536.0735728741,ArealInterpolationGeometricCentroid,Parcel,99.4082840237,FeatureClassBased,ReturnAll,,ExactParcelCentroidPoint,,,0,34.0735855454,-117.7518304703,Relaxed,TwoThousandTen,58072,4472,31084,90810,0,31100,5010,5,4026,37,6,1,ResidenceStreetAddress
2010 N. Lincoln Park Ave,Los Angeles,CA,90031,2,USCGeocoder,33,1,4.1,,37b0e7b6-d1b8-4853-b027-bc6ad87ec815,3,StreetSegmentInterpolation,Success,LOCATION_TYPE_STREET_ADDRESS,Meters,LinearInterpolation,3384.8096178933,LinearInterpolationAddressRange,StreetSegment,100,FeatureClassBased,ReturnAll,,AddressRangeInterpolation,,,0,34.0679496765,-118.2023349437,Exact,TwoThousandTen,44000,4472,31084,91750,0,31100,1010,1,1991.2,37,6,1,ResidenceStreetAddress
2010 N. Lincoln Park Ave,Los Angeles,CA,90031,3,USCGeocoder,11,1,4.1,,ae9423b0-6a74-45c3-a640-7633495ba493,3,StreetSegmentInterpolation,Success,LOCATION_TYPE_STREET_ADDRESS,Meters,LinearInterpolation,3384.8096178933,LinearInterpolationAddressRange,StreetSegment,100,FeatureClassBased,ReturnAll,,AddressRangeInterpolation,,,0,34.0679496765,-118.2023349437,Exact,TwoThousandTen,44000,4472,31084,91750,0,31100,1010,1,1991.2,37,6,1,ResidenceStreetAddress
767 N. Hill St,Los Angeles,CA,90012,4,USCGeocoder,41,1,4.1,,cfbf6b83-decd-4291-ae0d-6a5067ce0ac6,2,Parcel,Success,LOCATION_TYPE_STREET_ADDRESS,Meters,ArealInterpolation,1632.381991446,ArealInterpolationGeometricCentroid,Parcel,99.1568047337,FeatureClassBased,ReturnAll,,ExactParcelCentroidPoint,,,0,34.0626689484,-118.2400335656,Relaxed,TwoThousandTen,44000,4472,31084,91750,0,31100,1005,1,2071.02,37,6,1,ResidenceStreetAddress
1012 Citrus Ave,Covina,CA,91722,5,USCGeocoder,21,1,4.1,,c37c7fa8-32b0-4be0-9544-c200038b84a9,3,StreetSegmentInterpolation,Success,LOCATION_TYPE_STREET_ADDRESS,Meters,LinearInterpolation,1434.935053044,LinearInterpolationAddressRange,StreetSegment,97.9289940828,FeatureClassBased,ReturnAll,,AddressRangeInterpolation,,,0,34.0991876669,-117.8901044802,Relaxed,TwoThousandTen,16742,4472,31084,90810,0,31100,3002,3,4037.21,37,6,1,ResidenceStreetAddress
1213 E. Huntington Dr,Duarte,CA,91010,6,USCGeocoder,159,1,4.1,,437aca5d-7240-4558-8e53-e81faf0346a6,9,AddressZIPCentroid,Success,LOCATION_TYPE_STREET_ADDRESS,Meters,ArealInterpolation,0,ArealInterpolationGeometricCentroid,USPSZip,100,FeatureClassBased,ReturnAll,,USPSZipAreaCentroid,,,0,34.138594,-117.963204,Exact,TwoThousandTen,19990,4472,31084,93510,0,31100,2006,2,4300.02,37,6,4,ResidenceZIP
2040 Holt Ave,Pomona,CA,91768,7,USCGeocoder,23,1,4.1,,0e0d10bc-a7c0-4af5-aff3-ceab90e757c6,3,StreetSegmentInterpolation,Success,LOCATION_TYPE_STREET_ADDRESS,Meters,LinearInterpolation,1232.4551852976,LinearInterpolationAddressRange,StreetSegment,97.9289940828,FeatureClassBased,ReturnAll,,AddressRangeInterpolation,,,0,34.0613740269,-117.7867602091,Relaxed,TwoThousandTen,58072,4472,31084,90810,0,31100,1003,1,4024.02,37,6,1,ResidenceStreetAddress
2550 E. Foothill Blvd,Pasadena,CA,91107,8,USCGeocoder,109,1,4.1,,a482fea1-d55f-4b96-873d-64808b5b3eb3,3,StreetSegmentInterpolation,Success,LOCATION_TYPE_STREET_ADDRESS,Meters,LinearInterpolation,2169.9795532776,LinearInterpolationAddressRange,StreetSegment,100,FeatureClassBased,ReturnAll,,AddressRangeInterpolation,,,0,34.1497433907,-118.0976836963,Exact,TwoThousandTen,56000,4472,31084,92400,0,31100,3048,3,4629,37,6,1,ResidenceStreetAddress
4171 N Tyler Ave,El Monte,CA,91731,9,USCGeocoder,101,1,4.1,,6af1eb9d-bd5c-44d6-bd04-ffdd1cc7b515,3,StreetSegmentInterpolation,Success,LOCATION_TYPE_STREET_ADDRESS,Meters,LinearInterpolation,4739.4214439585,LinearInterpolationAddressRange,StreetSegment,97.9289940828,FeatureClassBased,ReturnAll,,AddressRangeInterpolation,,,0,34.0823659446,-118.0317405204,Relaxed,TwoThousandTen,22230,4472,31084,93510,0,31100,2008,2,4324.02,37,6,1,ResidenceStreetAddress
655 N. Palomares St.,Pomona,CA,91767,10,USCGeocoder,64,1,4.1,,924fe615-93c2-4ed4-b37b-ab38fd35ae98,3,StreetSegmentInterpolation,Success,LOCATION_TYPE_STREET_ADDRESS,Meters,LinearInterpolation,2371.2411452532,LinearInterpolationAddressRange,StreetSegment,100,FeatureClassBased,ReturnAll,,AddressRangeInterpolation,,,0,34.0641134022,-117.7460786198,Exact,TwoThousandTen,58072,4472,31084,90810,0,31100,4015,4,4026,37,6,1,ResidenceStreetAddress
955 N. Lake Ave.,Pasadena,CA,91104,11,USCGeocoder,130,1,4.1,,9ee79e48-7f93-457d-98b7-9892fb6a92b9,3,StreetSegmentInterpolation,Success,LOCATION_TYPE_STREET_ADDRESS,Meters,LinearInterpolation,4397.1711843864,LinearInterpolationAddressRange,StreetSegment,100,FeatureClassBased,ReturnAll,,AddressRangeInterpolation,,,0,34.1623685706,-118.1325892032,Exact,TwoThousandTen,56000,4472,31084,92400,0,31100,1008,1,4621,37,6,1,ResidenceStreetAddress
1 E. Regent St,Inglewood,CA,90301,12,USCGeocoder,16,1,4.1,,348707fc-cbfa-4752-a8e5-1201b045c8ec,2,Parcel,Success,LOCATION_TYPE_STREET_ADDRESS,Meters,ArealInterpolation,1393.4650804384,ArealInterpolationGeometricCentroid,Parcel,99.4082840237,FeatureClassBased,ReturnAll,,ExactParcelCentroidPoint,,,0,33.8049982666,-118.3184468025,Relaxed,TwoThousandTen,42468,4472,31084,92360,0,31100,2000,2,6700.01,37,6,1,ResidenceStreetAddress
100 E. Foothill Blvd.,San Dimas,CA,91773,13,USCGeocoder,32,1,4.1,,05edd0eb-b264-4821-ad47-5b564f33adab,2,Parcel,Success,LOCATION_TYPE_STREET_ADDRESS,Meters,ArealInterpolation,5726.8107662174,ArealInterpolationGeometricCentroid,Parcel,98.4023668639,FeatureClassBased,ReturnAll,,ExactParcelCentroidPoint,,,0,34.1242175879,-117.8062333919,Relaxed,TwoThousandTen,66070,4472,31084,90810,0,31100,2004,2,4004.03,37,6,1,ResidenceStreetAddress
100 S. Vincent Ave.,West Covina,CA,91790,14,USCGeocoder,67,1,4.1,,66b9c8bf-2c6d-4fea-8e7f-95a0c1844963,3,StreetSegmentInterpolation,Success,LOCATION_TYPE_STREET_ADDRESS,Meters,LinearInterpolation,598.9595617189,LinearInterpolationAddressRange,StreetSegment,100,FeatureClassBased,ReturnAll,,AddressRangeInterpolation,,,0,34.0721948263,-117.9265115193,Exact,TwoThousandTen,84200,4472,31084,90810,0,31100,4000,4,4067.02,37,6,1,ResidenceStreetAddress
100 W. Clary Ave.,San Gabriel,CA,91776,15,USCGeocoder,51,1,4.1,,4ed12bac-086b-461a-b8dd-c51431e62ced,2,Parcel,Success,LOCATION_TYPE_STREET_ADDRESS,Meters,ArealInterpolation,15224.5949457884,ArealInterpolationGeometricCentroid,Parcel,94.2603550296,FeatureClassBased,ReturnAll,,ExactParcelCentroidPoint,,,0,34.0976567298,-118.1017496207,Relaxed,TwoThousandTen,67042,4472,31084,93200,0,31100,1011,1,4811.01,37,6,1,ResidenceStreetAddress
1000 S. Garfield Ave,Alhambra,CA,91801,16,USCGeocoder,13,1,4.1,,12e512d4-1d83-45a4-913a-723b792b4480,2,Parcel,Success,LOCATION_TYPE_STREET_ADDRESS,Meters,ArealInterpolation,1591.2378170788,ArealInterpolationGeometricCentroid,Parcel,98.4023668639,FeatureClassBased,ReturnAll,,ExactParcelCentroidPoint,,,0,34.0845155361,-118.1226366429,Relaxed,TwoThousandTen,884,4472,31084,93200,0,31100,1008,1,4816.03,37,6,1,ResidenceStreetAddress
10016 Garvey Av.,El Monte,CA,91731,17,USCGeocoder,101,1,4.1,,bdc6f437-57d9-4401-b089-4aba2289f6bc,3,StreetSegmentInterpolation,Success,LOCATION_TYPE_STREET_ADDRESS,Meters,LinearInterpolation,2223.5312344858,LinearInterpolationAddressRange,StreetSegment,96.0059171598,FeatureClassBased,ReturnAll,,AddressRangeInterpolation,,,0,34.062616753,-118.0508843059,Relaxed,TwoThousandTen,22230,4472,31084,93510,0,31100,2000,2,4335.04,37,6,1,ResidenceStreetAddress
1005 E. Las Tunas Dr.,San Gabriel,CA,91776,18,USCGeocoder,83,1,4.1,,e7934bb1-1232-4953-9c08-67b648a13845,3,StreetSegmentInterpolation,Success,LOCATION_TYPE_STREET_ADDRESS,Meters,LinearInterpolation,2541.4101975276,LinearInterpolationAddressRange,StreetSegment,100,FeatureClassBased,ReturnAll,,AddressRangeInterpolation,,,0,34.1035161664,-118.0860133132,Exact,TwoThousandTen,67042,4472,31084,93200,0,31100,2022,2,4801.02,37,6,1,ResidenceStreetAddress
1006 S. Garey Ave.,Pomona,CA,91768,19,USCGeocoder,56,1,4.1,,c8f314d1-29e0-45fa-a544-e4fccea36745,3,StreetSegmentInterpolation,Success,LOCATION_TYPE_STREET_ADDRESS,Meters,LinearInterpolation,2320.2309708702,LinearInterpolationAddressRange,StreetSegment,96.0059171598,FeatureClassBased,ReturnAll,,AddressRangeInterpolation,,,0,34.0505116366,-117.7497779273,Relaxed,TwoThousandTen,58072,4472,31084,90810,0,31100,1006,1,4028.03,37,6,1,ResidenceStreetAddress
101 S. First St.,Alhambra,CA,91801,20,USCGeocoder,143,1,4.1,,cdfbaffe-9a28-4e43-b10d-7f68666ff5f5,3,StreetSegmentInterpolation,Success,LOCATION_TYPE_STREET_ADDRESS,Meters,LinearInterpolation,3989.7824691874,LinearInterpolationAddressRange,StreetSegment,100,FeatureClassBased,ReturnAll,,AddressRangeInterpolation,,,0,34.09377559,-118.1273938404,Exact,TwoThousandTen,884,4472,31084,93200,0,31100,1003,1,4810.01,37,6,1,ResidenceStreetAddress
10155 Colima Rd.,Whittier,CA,90603,21,USCGeocoder,11,1,4.1,,de181df2-203a-4c24-b925-388499062356,2,Parcel,Success,LOCATION_TYPE_STREET_ADDRESS,Meters,ArealInterpolation,3835.202282528,ArealInterpolationGeometricCentroid,Parcel,98.4023668639,FeatureClassBased,ReturnAll,,ExactParcelCentroidPoint,,,0,33.9437036966,-118.0110245397,Relaxed,TwoThousandTen,85292,4472,31084,93730,0,31100,1009,1,5033.01,37,6,1,ResidenceStreetAddress
1020 N. Fair Oaks Ave,Pasadena,CA,91103,22,USCGeocoder,107,1,4.1,,2423f93a-e662-40d7-bf51-bd7c3e636507,3,StreetSegmentInterpolation,Success,LOCATION_TYPE_STREET_ADDRESS,Meters,LinearInterpolation,4950.7891656663,LinearInterpolationAddressRange,StreetSegment,100,FeatureClassBased,ReturnAll,,AddressRangeInterpolation,,,0,34.1636741478,-118.1505381466,Exact,TwoThousandTen,56000,4472,31084,92400,0,31100,1003,1,4620.02,37,6,1,ResidenceStreetAddress
1020 S. Arroyo Pkwy,Pasadena,CA,91105,23,USCGeocoder,113,1,4.1,,6ea7208e-09c2-4e5e-a9b1-429cbc265047,3,StreetSegmentInterpolation,Success,LOCATION_TYPE_STREET_ADDRESS,Meters,LinearInterpolation,12369.6594987204,LinearInterpolationAddressRange,StreetSegment,100,FeatureClassBased,ReturnAll,,AddressRangeInterpolation,,,0,34.1296790746,-118.1471903432,Exact,TwoThousandTen,56000,4472,31084,92400,0,31100,5012,5,4640,37,6,1,ResidenceStreetAddress
10252 Mills Ave,Whittier,CA,90604,24,USCGeocoder,37,1,4.1,,6cac55ed-3148-4e7f-b445-acff464335db,2,Parcel,Success,LOCATION_TYPE_STREET_ADDRESS,Meters,ArealInterpolation,8693.3872493953,ArealInterpolationGeometricCentroid,Parcel,99.3076923077,FeatureClassBased,ReturnAll,,ExactParcelCentroidPoint,,,0,33.9389974575,-118.0337486505,Relaxed,TwoThousandTen,73430,4472,31084,93730,0,31100,1004,1,5032.02,37,6,1,ResidenceStreetAddress
10414 Vacco St.,South El Monte,CA,91733,25,USCGeocoder,38,1,4.1,,64e53bdd-caa5-4bfe-a91d-118196339aa4,2,Parcel,Success,LOCATION_TYPE_STREET_ADDRESS,Meters,ArealInterpolation,6357.2026543617,ArealInterpolationGeometricCentroid,Parcel,98.4023668639,FeatureClassBased,ReturnAll,,ExactParcelCentroidPoint,,,0,34.0468697765,-118.0443749423,Relaxed,TwoThousandTen,72996,4472,31084,93510,0,31100,1011,1,4337,37,6,1,ResidenceStreetAddress
1050 N. Garey Ave,Pomona,CA,91768,26,USCGeocoder,17,1,4.1,,5e35d6ec-163b-40ab-8669-cf001a5d51fb,2,Parcel,Success,LOCATION_TYPE_STREET_ADDRESS,Meters,ArealInterpolation,1405.019555902,ArealInterpolationGeometricCentroid,Parcel,98.875739645,FeatureClassBased,ReturnAll,,ExactParcelCentroidPoint,,,0,34.0684189264,-117.7517191542,Relaxed,TwoThousandTen,58072,4472,31084,90810,0,31100,4003,4,4026,37,6,1,ResidenceStreetAddress
1055 W. 7th St.,Los Angeles,CA,90017,27,USCGeocoder,55,1,4.1,,984ec548-2f92-48bb-b589-b96710fb4c3a,3,StreetSegmentInterpolation,Success,LOCATION_TYPE_STREET_ADDRESS,Meters,LinearInterpolation,3116.934953552,LinearInterpolationAddressRange,StreetSegment,100,FeatureClassBased,ReturnAll,,AddressRangeInterpolation,,,0,34.0506345254,-118.2633339568,Exact,TwoThousandTen,44000,4472,31084,91750,0,31100,1030,1,2092,37,6,1,ResidenceStreetAddress
1055 Wilshire Blvd..,Los Angeles,CA,90017,28,USCGeocoder,2,1,4.1,,70a10b18-14c4-4fce-a6b8-fb1d2b3c9226,2,Parcel,Success,LOCATION_TYPE_STREET_ADDRESS,Meters,ArealInterpolation,3676.6507063657,ArealInterpolationGeometricCentroid,Parcel,99.1568047337,FeatureClassBased,ReturnAll,,ExactParcelCentroidPoint,,,0,34.0525468864,-118.2627374993,Relaxed,TwoThousandTen,44000,4472,31084,91750,0,31100,1013,1,2092,37,6,1,ResidenceStreetAddress
1066 Garey Ave,Pomona,CA,91766,29,USCGeocoder,39,1,4.1,,b95e685b-0ae2-4e4e-8519-2b7732db24c5,3,StreetSegmentInterpolation,Success,LOCATION_TYPE_STREET_ADDRESS,Meters,LinearInterpolation,2320.2309708702,LinearInterpolationAddressRange,StreetSegment,97.9289940828,FeatureClassBased,ReturnAll,,AddressRangeInterpolation,,,0,34.0499637578,-117.7497597455,Relaxed,TwoThousandTen,58072,4472,31084,90810,0,31100,1006,1,4028.03,37,6,1,ResidenceStreetAddress
107 Spring Street,Claremont,CA,91711,30,USCGeocoder,38,1,4.1,,27659a11-ebf8-4d6e-9d65-de480b25f191,3,StreetSegmentInterpolation,Success,LOCATION_TYPE_STREET_ADDRESS,Meters,LinearInterpolation,2437.1148462202,LinearInterpolationAddressRange,StreetSegment,100,FeatureClassBased,ReturnAll,,AddressRangeInterpolation,,,0,34.0930784131,-117.7167466234,Exact,TwoThousandTen,13756,4472,31084,90810,0,31100,2000,2,4020.02,37,6,1,ResidenceStreetAddress
109 W. Sixth St.,Azusa,CA,91702,31,USCGeocoder,65,1,4.1,,81bb4aab-4fcc-432f-bc91-c79babe5d25e,3,StreetSegmentInterpolation,Success,LOCATION_TYPE_STREET_ADDRESS,Meters,LinearInterpolation,1455.8845976323,LinearInterpolationAddressRange,StreetSegment,100,FeatureClassBased,ReturnAll,,AddressRangeInterpolation,,,0,34.1317388725,-117.9076523643,Exact,TwoThousandTen,3386,4472,31084,90810,0,31100,3007,3,4043.01,37,6,1,ResidenceStreetAddress
1095 W. Grand aver,Pomona,CA,91766,32,USCGeocoder,73,1,4.1,,a618445d-529d-4764-b33f-9cc17cdde2ae,9,AddressZIPCentroid,Success,LOCATION_TYPE_STREET_ADDRESS,Meters,ArealInterpolation,0,ArealInterpolationGeometricCentroid,USPSZip,100,FeatureClassBased,ReturnAll,,USPSZipAreaCentroid,,,0,34.041268,-117.761339,Exact,TwoThousandTen,58072,4472,31084,90810,0,31100,3002,3,4030,37,6,4,ResidenceZIP
10953 Ramona Blvd,El Monte,CA,91731,33,USCGeocoder,6,1,4.1,,26b5b11d-4f67-4a93-8233-30f380d054e5,2,Parcel,Success,LOCATION_TYPE_STREET_ADDRESS,Meters,ArealInterpolation,13976.5555065274,ArealInterpolationGeometricCentroid,Parcel,99.4082840237,FeatureClassBased,ReturnAll,,ExactParcelCentroidPoint,,,0,34.0724336703,-118.037224946,Relaxed,TwoThousandTen,22230,4472,31084,93510,0,31100,2034,2,4327,37,6,1,ResidenceStreetAddress
110 E. 3rd St,San Dimas,CA,91733,34,USCGeocoder,67,1,4.1,,e476ba30-1f98-47b3-9430-e3f12c9fab05,3,StreetSegmentInterpolation,Success,LOCATION_TYPE_STREET_ADDRESS,Meters,LinearInterpolation,1476.4438395016,LinearInterpolationAddressRange,StreetSegment,92.0118343195,FeatureClassBased,ReturnAll,,AddressRangeInterpolation,,,0,34.1096008482,-117.806863,Relaxed,TwoThousandTen,66070,4472,31084,90810,0,31100,4010,4,4003.04,37,6,1,ResidenceStreetAddress
1100 E .Holt Ave.,Pomona,CA,91767,35,USCGeocoder,23,1,4.1,,e22fa2bd-27cc-431a-b724-073daad63f27,3,StreetSegmentInterpolation,Success,LOCATION_TYPE_STREET_ADDRESS,Meters,LinearInterpolation,807.3280265694,LinearInterpolationAddressRange,StreetSegment,100,FeatureClassBased,ReturnAll,,AddressRangeInterpolation,,,0,34.0628030791,-117.7292849429,Exact,TwoThousandTen,58072,4472,31084,90810,0,31100,3001,3,4027.02,37,6,1,ResidenceStreetAddress
1100 S. Valley Center Ave.,San Dimas,CA,91773,36,USCGeocoder,43,1,4.1,,0ac5ce46-4ce2-48d4-96cb-e08b63307ba7,2,Parcel,Success,LOCATION_TYPE_STREET_ADDRESS,Meters,ArealInterpolation,6029.1175429225,ArealInterpolationGeometricCentroid,Parcel,98.4023668639,FeatureClassBased,ReturnAll,,ExactParcelCentroidPoint,,,0,34.0895626402,-117.8361238633,Relaxed,TwoThousandTen,66070,4472,31084,90810,0,31100,2011,2,4013.12,37,6,1,ResidenceStreetAddress
11015 Bloomfield Ave,Santa Fe Springs,CA,90670,37,USCGeocoder,13,1,4.1,,e76e4bf0-ff36-42c6-bb46-dd1ca9fdd698,2,Parcel,Success,LOCATION_TYPE_STREET_ADDRESS,Meters,ArealInterpolation,10318.0078181401,ArealInterpolationGeometricCentroid,Parcel,98.4023668639,FeatureClassBased,ReturnAll,,ExactParcelCentroidPoint,,,0,33.9310521384,-118.0645766384,Relaxed,TwoThousandTen,69154,4472,31084,93730,0,31100,2019,2,5028.02,37,6,1,ResidenceStreetAddress
1102 Crenshaw Blvd.,Los Angeles,CA,90019,38,USCGeocoder,2,1,4.1,,70d40904-f6c7-4985-8010-d78a7704ffc5,2,Parcel,Success,LOCATION_TYPE_STREET_ADDRESS,Meters,ArealInterpolation,4096.5861991048,ArealInterpolationGeometricCentroid,Parcel,99.4082840237,FeatureClassBased,ReturnAll,,ExactParcelCentroidPoint,,,0,34.0524795834,-118.3237483045,Relaxed,TwoThousandTen,44000,4472,31084,91750,0,31100,2000,2,2129,37,6,1,ResidenceStreetAddress
11046 Valley Mall,El Monte,CA,91731,39,USCGeocoder,30,1,4.1,,991da2a8-7328-47c6-8886-c961af18462c,2,Parcel,Success,LOCATION_TYPE_STREET_ADDRESS,Meters,ArealInterpolation,633.3998798132,ArealInterpolationGeometricCentroid,Parcel,99.4082840237,FeatureClassBased,ReturnAll,,ExactParcelCentroidPoint,,,0,34.0730652977,-118.0342538546,Relaxed,TwoThousandTen,22230,4472,31084,93510,0,31100,2032,2,4327,37,6,1,ResidenceStreetAddress
11126 Ramona Blvd.,El Monte,CA,91731,40,USCGeocoder,34,1,4.1,,9c8171b1-7095-4c87-9f0a-8d894ce983d3,2,Parcel,Success,LOCATION_TYPE_STREET_ADDRESS,Meters,ArealInterpolation,4719.2231873274,ArealInterpolationGeometricCentroid,Parcel,99.4082840237,FeatureClassBased,ReturnAll,,ExactParcelCentroidPoint,,,0,34.0727734212,-118.0303621222,Relaxed,TwoThousandTen,22230,4472,31084,93510,0,31100,1005,1,4332,37,6,1,ResidenceStreetAddress
1115 S. Sunset Ave.,West Covina,CA,91790,41,USCGeocoder,28,1,4.1,,c6475170-af05-401d-8d9c-37fcb121c174,2,Parcel,Success,LOCATION_TYPE_STREET_ADDRESS,Meters,ArealInterpolation,39327.8402807117,ArealInterpolationGeometricCentroid,Parcel,98.4023668639,FeatureClassBased,ReturnAll,,ExactParcelCentroidPoint,,,0,34.0648654776,-117.9463060968,Relaxed,TwoThousandTen,84200,4472,31084,90810,0,31100,1022,1,4067.02,37,6,1,ResidenceStreetAddress
11234 E Valley Blvd,El Monte,CA,91731,42,USCGeocoder,19,1,4.1,,17d65d23-28f7-423c-b457-78f95037d94c,2,Parcel,Success,LOCATION_TYPE_STREET_ADDRESS,Meters,ArealInterpolation,18297.3878403902,ArealInterpolationGeometricCentroid,Parcel,95.2662721893,FeatureClassBased,ReturnAll,,ExactParcelCentroidPoint,,,0,34.0713826736,-118.0322190838,Relaxed,TwoThousandTen,22230,4472,31084,93510,0,31100,1006,1,4332,37,6,1,ResidenceStreetAddress
11301 Wilshire Blvd.,Los Angeles,CA,90073,43,USCGeocoder,139,1,4.1,,eaab40b4-e481-4543-992c-23e31e1a66a8,10,POBoxZIPCentroid,Success,LOCATION_TYPE_STREET_ADDRESS,Meters,ArealInterpolation,0,ArealInterpolationGeometricCentroid,USPSZip,100,FeatureClassBased,ReturnAll,,USPSZipAreaCentroid,,,0,34.052501,-118.455227,Exact,TwoThousandTen,44000,4472,31084,91750,0,31100,1033,1,7011,37,6,5,POBoxZIP
11411 Valley Blvd,El Monte,CA,91773,44,USCGeocoder,14,1,4.1,,e6ca511a-0fa1-4030-bbbf-44792a445508,2,Parcel,Success,LOCATION_TYPE_STREET_ADDRESS,Meters,ArealInterpolation,5591.4143038094,ArealInterpolationGeometricCentroid,Parcel,98.3431952663,FeatureClassBased,ReturnAll,,ExactParcelCentroidPoint,,,0,34.0702303245,-118.0286267373,Relaxed,TwoThousandTen,22230,4472,31084,93510,0,31100,1013,1,4332,37,6,1,ResidenceStreetAddress
1142 S. Diamond Bar Blvd.,Diamond Bar,CA,91765,45,USCGeocoder,98,1,4.1,,9d6c62c0-72ed-4131-9008-5a51c27a08bf,3,StreetSegmentInterpolation,Success,LOCATION_TYPE_STREET_ADDRESS,Meters,LinearInterpolation,6231.0178053696,LinearInterpolationAddressRange,StreetSegment,100,FeatureClassBased,ReturnAll,,AddressRangeInterpolation,,,0,34.0016841359,-117.8105044956,Exact,TwoThousandTen,19192,4472,31084,90810,0,31100,1014,1,4033.2,37,6,1,ResidenceStreetAddress
11429 Valley Blvd,El Monte,CA,91731,46,USCGeocoder,11,1,4.1,,4e0826f0-463d-4a34-8b56-b8fdfa0d0d28,2,Parcel,Success,LOCATION_TYPE_STREET_ADDRESS,Meters,ArealInterpolation,1794.3557569981,ArealInterpolationGeometricCentroid,Parcel,99.4082840237,FeatureClassBased,ReturnAll,,ExactParcelCentroidPoint,,,0,34.0698816885,-118.0284967404,Relaxed,TwoThousandTen,22230,4472,31084,93510,0,31100,1013,1,4332,37,6,1,ResidenceStreetAddress
11457 East Florence Ave,Santa Fe Springs,CA,90670,47,USCGeocoder,18,1,4.1,,01e62d1f-ea6c-4a5a-b3c5-b52d7450f50a,3,StreetSegmentInterpolation,Success,LOCATION_TYPE_STREET_ADDRESS,Meters,LinearInterpolation,2183.3777851365,LinearInterpolationAddressRange,StreetSegment,97.9289940828,FeatureClassBased,ReturnAll,,AddressRangeInterpolation,,,0,33.9353399486,-118.0887134228,Relaxed,TwoThousandTen,69154,4472,31084,93730,0,31100,4022,4,5028.01,37,6,1,ResidenceStreetAddress
1150 W. Holt Ave,Pomona,CA,91768,48,USCGeocoder,33,1,4.1,,792d8b8e-603f-4f70-baff-4e48c313347d,3,StreetSegmentInterpolation,Success,LOCATION_TYPE_STREET_ADDRESS,Meters,LinearInterpolation,2567.3279418324,LinearInterpolationAddressRange,StreetSegment,100,FeatureClassBased,ReturnAll,,AddressRangeInterpolation,,,0,34.0618333621,-117.7688489642,Exact,TwoThousandTen,58072,4472,31084,90810,0,31100,1000,1,4024.02,37,6,1,ResidenceStreetAddress
1150 West Holt Ave,Pomona,CA,91768,49,USCGeocoder,6,1,4.1,,d3e29a6b-ab02-4e68-b40e-2f63b0a39d4a,3,StreetSegmentInterpolation,Success,LOCATION_TYPE_STREET_ADDRESS,Meters,LinearInterpolation,2567.3279418324,LinearInterpolationAddressRange,StreetSegment,100,FeatureClassBased,ReturnAll,,AddressRangeInterpolation,,,0,34.0618333621,-117.7688489642,Exact,TwoThousandTen,58072,4472,31084,90810,0,31100,1000,1,4024.02,37,6,1,ResidenceStreetAddress
1160 S Grand,Glendora,CA,91740,50,USCGeocoder,46,1,4.1,,38714daf-043a-47fe-ae0a-6ba4ab64e678,3,StreetSegmentInterpolation,Success,LOCATION_TYPE_STREET_ADDRESS,Meters,LinearInterpolation,2222.2428060088,LinearInterpolationAddressRange,StreetSegment,97.0414201183,FeatureClassBased,ReturnAll,,AddressRangeInterpolation,,,0,34.1176049036,-117.8724679719,Relaxed,TwoThousandTen,30014,4472,31084,90810,0,31100,1000,1,4039.02,37,6,1,ResidenceStreetAddress
11601 S Western Ave,Los Angeles,CA,90047,51,USCGeocoder,18,1,4.1,,3a4b984b-0e7f-48d9-9f9b-898b10d02026,3,StreetSegmentInterpolation,Success,LOCATION_TYPE_STREET_ADDRESS,Meters,LinearInterpolation,5503.5509521696,LinearInterpolationAddressRange,StreetSegment,98.9940828402,FeatureClassBased,ReturnAll,,AddressRangeInterpolation,,,0,33.9285995706,-118.3090525516,Relaxed,TwoThousandTen,84116,4472,31084,91400,0,31100,1021,1,6027,37,6,1,ResidenceStreetAddress
11635 E. Valley Blvd.,El Monte,CA,91732,52,USCGeocoder,36,1,4.1,,4fa8bb7d-a490-4e85-8f74-714f308ba2dc,3,StreetSegmentInterpolation,Success,LOCATION_TYPE_STREET_ADDRESS,Meters,LinearInterpolation,8056.1810919461,LinearInterpolationAddressRange,StreetSegment,97.9289940828,FeatureClassBased,ReturnAll,,AddressRangeInterpolation,,,0,34.0674068199,-118.0258653506,Relaxed,TwoThousandTen,22230,4472,31084,93510,0,31100,1008,1,4333.02,37,6,1,ResidenceStreetAddress
11640 West Slauson Ave,Whittier,CA,90606,53,USCGeocoder,11,1,4.1,,cc5c975c-ce7d-4f4b-99a8-c6221b903629,2,Parcel,Success,LOCATION_TYPE_STREET_ADDRESS,Meters,ArealInterpolation,5869.3200175911,ArealInterpolationGeometricCentroid,Parcel,94.2603550296,FeatureClassBased,ReturnAll,,ExactParcelCentroidPoint,,,0,33.9642800716,-118.0673287932,Relaxed,TwoThousandTen,69154,4472,31084,93730,0,31100,1018,1,5023.02,37,6,1,ResidenceStreetAddress
11643 GLENOAKS BLVD,Pacoima,CA,91331,54,USCGeocoder,36,1,4.1,,47d6b032-986e-4b03-a271-36a5b922df59,2,Parcel,Success,LOCATION_TYPE_STREET_ADDRESS,Meters,ArealInterpolation,5344.3270571828,ArealInterpolationGeometricCentroid,Parcel,98.4023668639,FeatureClassBased,ReturnAll,,ExactParcelCentroidPoint,,,0,34.2809838146,-118.4202674899,Relaxed,TwoThousandTen,44000,4472,31084,92785,0,31100,1008,1,1043.1,37,6,1,ResidenceStreetAddress
11721 Telegraph Road,Sante Fe Springs,CA,90670,55,USCGeocoder,16,1,4.1,,185ad7a2-b2b6-4fcc-97b5-957fae4e3026,2,Parcel,Success,LOCATION_TYPE_STREET_ADDRESS,Meters,ArealInterpolation,13639.0645847023,ArealInterpolationGeometricCentroid,Parcel,98.4023668639,FeatureClassBased,ReturnAll,,ExactParcelCentroidPoint,,,0,33.9471040166,-118.082804002,Relaxed,TwoThousandTen,69154,4472,31084,93730,0,31100,3021,3,5027,37,6,1,ResidenceStreetAddress
118 South Oak Knoll Ave,Pasadena,CA,91101,56,USCGeocoder,24,1,4.1,,962aab6c-dc1c-4aeb-a514-33bb66a2e8db,2,Parcel,Success,LOCATION_TYPE_STREET_ADDRESS,Meters,ArealInterpolation,1560.8570292294,ArealInterpolationGeometricCentroid,Parcel,98.4023668639,FeatureClassBased,ReturnAll,,ExactParcelCentroidPoint,,,0,34.1437849439,-118.1346982257,Relaxed,TwoThousandTen,56000,4472,31084,92400,0,31100,3004,3,4636.01,37,6,1,ResidenceStreetAddress
1180 N. Lincoln Ave,Pasadena,CA,91103,57,USCGeocoder,12,1,4.1,,a0cf7e19-b9fd-4e9f-b95b-3ca128a45ed2,2,Parcel,Success,LOCATION_TYPE_STREET_ADDRESS,Meters,ArealInterpolation,2935.0738690496,ArealInterpolationGeometricCentroid,Parcel,94.2603550296,FeatureClassBased,ReturnAll,,ExactParcelCentroidPoint,,,0,34.1665067892,-118.1592011242,Relaxed,TwoThousandTen,56000,4472,31084,92400,0,31100,2000,2,4616,37,6,1,ResidenceStreetAddress
119 E. Washington Blvd,Pasadena,CA,91103,58,USCGeocoder,28,1,4.1,,439b70b9-5d32-4cb0-80d5-b4fae063c8f1,3,StreetSegmentInterpolation,Success,LOCATION_TYPE_STREET_ADDRESS,Meters,LinearInterpolation,1879.5536930072,LinearInterpolationAddressRange,StreetSegment,100,FeatureClassBased,ReturnAll,,AddressRangeInterpolation,,,0,34.168955371,-118.1478632587,Exact,TwoThousandTen,56000,4472,31084,92400,0,31100,2016,2,4615.02,37,6,1,ResidenceStreetAddress
11927 Elliot Ave,Pomona,CA,91732,59,USCGeocoder,78,1,4.1,,f11883d2-ccb4-44ff-a9ca-3528e0dbd621,3,StreetSegmentInterpolation,Success,LOCATION_TYPE_STREET_ADDRESS,Meters,LinearInterpolation,499.2347117744,LinearInterpolationAddressRange,StreetSegment,94.5562130178,FeatureClassBased,ReturnAll,,AddressRangeInterpolation,,,0,34.0579721705,-118.0258332151,Relaxed;Soundex,TwoThousandTen,22230,4472,31084,93510,0,31100,3001,3,4339.01,37,6,1,ResidenceStreetAddress
1200 E Washington Blvd,Santa Fe,CA,90606,60,USCGeocoder,57,1,4.1,,d355997f-4a66-43c4-8aa9-e07611143ea9,9,AddressZIPCentroid,Success,LOCATION_TYPE_STREET_ADDRESS,Meters,ArealInterpolation,0,ArealInterpolationGeometricCentroid,USPSZip,100,FeatureClassBased,ReturnAll,,USPSZipAreaCentroid,,,0,33.980225,-118.066303,Exact,TwoThousandTen,84921,4472,31084,93730,0,31100,3005,3,5010.02,37,6,4,ResidenceZIP
1200 Wilshire Blvd.,Los Angeles,CA,90017,61,USCGeocoder,57,1,4.1,,13721882-8da5-4009-b9bc-9ae9e448d937,2,Parcel,Success,LOCATION_TYPE_STREET_ADDRESS,Meters,ArealInterpolation,1394.2551932484,ArealInterpolationGeometricCentroid,Parcel,97.8106508876,FeatureClassBased,ReturnAll,,ExactParcelCentroidPoint,,,0,34.025073036,-118.4900053656,Relaxed,TwoThousandTen,70000,4472,31084,92920,0,31100,2006,2,7015.02,37,6,1,ResidenceStreetAddress
1205 N. Baker St.,Ontario,CA,NA,62,USCGeocoder,13,1,4.1,,59082a51-294a-48e4-aa28-a324264b25d9,2,Parcel,Success,LOCATION_TYPE_STREET_ADDRESS,Meters,ArealInterpolation,7366.0570160341,ArealInterpolationGeometricCentroid,Parcel,90.8284023669,FeatureClassBased,ReturnAll,,ExactParcelCentroidPoint,,,0,34.0799447479,-117.6203605126,Relaxed,TwoThousandTen,53896,4472,,92260,0,40140,1005,1,13.05,71,6,1,ResidenceStreetAddress
121 E. F St,Ontario,CA,91701,63,USCGeocoder,873,1,4.1,,0f95bacc-00d9-4e48-9c70-0175c92b8284,3,StreetSegmentInterpolation,Success,LOCATION_TYPE_STREET_ADDRESS,Meters,LinearInterpolation,2904.387433378,LinearInterpolationAddressRange,StreetSegment,92.0118343195,FeatureClassBased,ReturnAll,,AddressRangeInterpolation,,,0,34.0695371827,-117.6507255034,Relaxed,TwoThousandTen,53896,4472,,92260,0,40140,1006,1,14,71,6,1,ResidenceStreetAddress
12141 Lewis St.,Garden Grove,CA,92640,64,USCGeocoder,67,1,4.1,,859cc38b-6136-4207-94a0-cf95767decad,11,CityCentroid,Success,LOCATION_TYPE_STREET_ADDRESS,Meters,ArealInterpolation,46513187.3774934,ArealInterpolationGeometricCentroid,City,100,FeatureClassBased,ReturnAll,,CityCentroid,,,0,33.7786940487,-117.9601111278,Exact,TwoThousandTen,29000,4472,42044,90050,0,31100,4009,4,887.01,59,6,9,Missing
1215 W. West Covina Pkwy,West Covina,CA,91790,65,USCGeocoder,119,1,4.1,,8d9c0fc8-1524-4521-ab08-d99007bd9df5,9,AddressZIPCentroid,Success,LOCATION_TYPE_STREET_ADDRESS,Meters,ArealInterpolation,0,ArealInterpolationGeometricCentroid,USPSZip,100,FeatureClassBased,ReturnAll,,USPSZipAreaCentroid,,,0,34.065225,-117.938282,Exact,TwoThousandTen,84200,4472,31084,90810,0,31100,3002,3,4067.02,37,6,4,ResidenceZIP
123 W. Maple Ave,Orange,CA,92856,66,USCGeocoder,123,1,4.1,,d1be88f7-0520-4112-8d66-a3276dadf613,3,StreetSegmentInterpolation,Success,LOCATION_TYPE_STREET_ADDRESS,Meters,LinearInterpolation,2328.0383293252,LinearInterpolationAddressRange,StreetSegment,92.0118343195,FeatureClassBased,ReturnAll,,AddressRangeInterpolation,,,0,33.7897762011,-117.8533343814,Relaxed,TwoThousandTen,53980,4472,42044,90050,0,31100,3022,3,759.01,59,6,1,ResidenceStreetAddress
12401 Washington Blvd,Whittier,CA,90602,67,USCGeocoder,1,1,4.1,,f1644212-2d35-4daa-9a0a-b2a8dffd43b5,2,Parcel,Success,LOCATION_TYPE_STREET_ADDRESS,Meters,ArealInterpolation,102597.414201498,ArealInterpolationGeometricCentroid,Parcel,99.3076923077,FeatureClassBased,ReturnAll,,ExactParcelCentroidPoint,,,0,33.9697936147,-118.0493598533,Relaxed,TwoThousandTen,85292,4472,31084,93730,0,31100,2000,2,5021,37,6,1,ResidenceStreetAddress
1241 S. Soto Street,Los Angeles,CA,90023,68,USCGeocoder,18,1,4.1,,12d65f79-27a2-4f69-bb7f-675c87876cb5,2,Parcel,Success,LOCATION_TYPE_STREET_ADDRESS,Meters,ArealInterpolation,6674.7127819061,ArealInterpolationGeometricCentroid,Parcel,99.1568047337,FeatureClassBased,ReturnAll,,ExactParcelCentroidPoint,,,0,34.0271231361,-118.2199792133,Relaxed,TwoThousandTen,44000,4472,31084,91750,0,31100,1079,1,2060.5,37,6,1,ResidenceStreetAddress
12426 Whittier Blvd.,Whittier,CA,90602,69,USCGeocoder,20,1,4.1,,54aa8526-af10-427b-a2f5-e6079b92d727,2,Parcel,Success,LOCATION_TYPE_STREET_ADDRESS,Meters,ArealInterpolation,1847.6507974863,ArealInterpolationGeometricCentroid,Parcel,99.3076923077,FeatureClassBased,ReturnAll,,ExactParcelCentroidPoint,,,0,33.9721089076,-118.0455526656,Relaxed,TwoThousandTen,85292,4472,31084,93730,0,31100,2010,2,5021,37,6,1,ResidenceStreetAddress
1255 San Gabriel Blvd,Rosemead,CA,91770,70,USCGeocoder,38,1,4.1,,7150b368-9120-43a7-b25b-40e4dc163fe5,2,Parcel,Success,LOCATION_TYPE_STREET_ADDRESS,Meters,ArealInterpolation,5130.086160481,ArealInterpolationGeometricCentroid,Parcel,99.4082840237,FeatureClassBased,ReturnAll,,ExactParcelCentroidPoint,,,0,34.0420163178,-118.0888896753,Relaxed,TwoThousandTen,62896,4472,31084,93200,0,31100,1010,1,4825.22,37,6,1,ResidenceStreetAddress
1277 North Wilcox Ave,Los Angeles,CA,90038,71,USCGeocoder,81,1,4.1,,16718e31-a0ad-4489-a3f6-56daa9836b17,3,StreetSegmentInterpolation,Success,LOCATION_TYPE_STREET_ADDRESS,Meters,LinearInterpolation,2310.7546252259,LinearInterpolationAddressRange,StreetSegment,97.9289940828,FeatureClassBased,ReturnAll,,AddressRangeInterpolation,,,0,34.0940498238,-118.3310753815,Relaxed,TwoThousandTen,44000,4472,31084,91750,0,31100,1003,1,1908.02,37,6,1,ResidenceStreetAddress
12860 Crossroads Pkwy South,City of Industry,CA,91746,72,USCGeocoder,20,1,4.1,,33440388-6f8f-40c4-80dd-a0e8efcc091b,2,Parcel,Success,LOCATION_TYPE_STREET_ADDRESS,Meters,ArealInterpolation,9206.19519246,ArealInterpolationGeometricCentroid,Parcel,96.0355029586,FeatureClassBased,ReturnAll,,ExactParcelCentroidPoint,,,0,34.0282557293,-118.0243490101,Relaxed,TwoThousandTen,36490,4472,31084,90810,0,31100,3040,3,4084.02,37,6,1,ResidenceStreetAddress
12900 Park Plaza Dr.,Cerritos,CA,90703,73,USCGeocoder,47,1,4.1,,69c15372-d9ec-4f7c-afcc-3fba1eac2c57,2,Parcel,Success,LOCATION_TYPE_STREET_ADDRESS,Meters,ArealInterpolation,31761.7260614932,ArealInterpolationGeometricCentroid,Parcel,98.4023668639,FeatureClassBased,ReturnAll,,ExactParcelCentroidPoint,,,0,33.8670047209,-118.0563878691,Relaxed,TwoThousandTen,12552,4472,31084,90730,0,31100,2017,2,5545.12,37,6,1,ResidenceStreetAddress
13001 Ramona Blvd.,Irwindale,CA,91706,74,USCGeocoder,115,1,4.1,,40d035e0-af25-4876-ad1c-74e366cedd0d,3,StreetSegmentInterpolation,Success,LOCATION_TYPE_STREET_ADDRESS,Meters,LinearInterpolation,4779.8895500302,LinearInterpolationAddressRange,StreetSegment,98.9940828402,FeatureClassBased,ReturnAll,,AddressRangeInterpolation,,,0,34.0797051703,-117.9890602771,Relaxed,TwoThousandTen,3666,4472,31084,90810,0,31100,4003,4,4048.01,37,6,1,ResidenceStreetAddress
13010 Valley Blvd ( Valley Inn),La Puente,CA,91746,75,USCGeocoder,129,1,4.1,,68714841-8dcd-4c41-a001-8f5d63e56433,9,AddressZIPCentroid,Success,LOCATION_TYPE_STREET_ADDRESS,Meters,ArealInterpolation,0,ArealInterpolationGeometricCentroid,USPSZip,100,FeatureClassBased,ReturnAll,,USPSZipAreaCentroid,,,0,34.049002,-117.979948,Exact,TwoThousandTen,40340,4472,31084,90810,0,31100,1002,1,4071.02,37,6,4,ResidenceZIP
13020 Francisquito Ave,Baldwin Park,CA,90706,76,USCGeocoder,142,1,4.1,,d5d78a0f-5d80-4c82-b3d6-969626884bc2,9,AddressZIPCentroid,Success,LOCATION_TYPE_STREET_ADDRESS,Meters,ArealInterpolation,0,ArealInterpolationGeometricCentroid,USPSZip,100,FeatureClassBased,ReturnAll,,USPSZipAreaCentroid,,,0,33.888756,-118.128543,Exact,TwoThousandTen,4982,4472,31084,90730,0,31100,1004,1,5540.02,37,6,4,ResidenceZIP
1311 Las Tunas Dr.,San Gabriel,CA,91770,77,USCGeocoder,40,1,4.1,,75a54d32-7f4d-4e91-ba94-0d39f7d703ad,3,StreetSegmentInterpolation,Success,LOCATION_TYPE_STREET_ADDRESS,Meters,LinearInterpolation,4002.7839428247,LinearInterpolationAddressRange,StreetSegment,93.9349112426,FeatureClassBased,ReturnAll,,AddressRangeInterpolation,,,0,34.103555871,-118.0792956671,Relaxed,TwoThousandTen,67042,4472,31084,93200,0,31100,2021,2,4801.02,37,6,1,ResidenceStreetAddress
1345 Turnbull Canyon Rd,Hacienda Heights,CA,91745,78,USCGeocoder,41,1,4.1,,47a0506c-c25f-4758-ba9d-731c62c82365,2,Parcel,Success,LOCATION_TYPE_STREET_ADDRESS,Meters,ArealInterpolation,25387.9323233977,ArealInterpolationGeometricCentroid,Parcel,99.4082840237,FeatureClassBased,ReturnAll,,ExactParcelCentroidPoint,,,0,34.0112314983,-117.9805611912,Relaxed,TwoThousandTen,31596,4472,31084,90810,0,31100,1007,1,4084.02,37,6,1,ResidenceStreetAddress
135 N Mission Road,Los Angeles,CA,90033,79,USCGeocoder,21,1,4.1,,3b3687cc-6159-493c-a00b-b15064951a81,2,Parcel,Success,LOCATION_TYPE_STREET_ADDRESS,Meters,ArealInterpolation,1386.6142800823,ArealInterpolationGeometricCentroid,Parcel,99.1568047337,FeatureClassBased,ReturnAll,,ExactParcelCentroidPoint,,,0,34.048956816,-118.2279832326,Relaxed,TwoThousandTen,44000,4472,31084,91750,0,31100,3011,3,2060.32,37,6,1,ResidenceStreetAddress
135 N. Oakland Ave,Pasadena,CA,91102,80,USCGeocoder,85,1,4.1,,c00703ec-b69d-4538-aa0f-6c62c7744b4e,3,StreetSegmentInterpolation,Success,LOCATION_TYPE_STREET_ADDRESS,Meters,LinearInterpolation,2501.3529455084,LinearInterpolationAddressRange,StreetSegment,96.0059171598,FeatureClassBased,ReturnAll,,AddressRangeInterpolation,,,0,34.1489334581,-118.1400460733,Relaxed,TwoThousandTen,56000,4472,31084,92400,0,31100,2007,2,4622.02,37,6,1,ResidenceStreetAddress
1350 Arrow Hwy,Pomona,CA,91767,81,USCGeocoder,79,1,4.1,,94e7ad76-05d8-4681-941f-21663caf0fca,9,AddressZIPCentroid,Success,LOCATION_TYPE_STREET_ADDRESS,Meters,ArealInterpolation,0,ArealInterpolationGeometricCentroid,USPSZip,100,FeatureClassBased,ReturnAll,,USPSZipAreaCentroid,,,0,34.081648,-117.740882,Exact,TwoThousandTen,58072,4472,31084,90810,0,31100,1016,1,4021.02,37,6,4,ResidenceZIP
1350 Third St.,La Verne,CA,91750,82,USCGeocoder,27,1,4.1,,6c7e81b8-ed57-4beb-99ea-dd9f06e24363,2,Parcel,Success,LOCATION_TYPE_STREET_ADDRESS,Meters,ArealInterpolation,61582.1798406765,ArealInterpolationGeometricCentroid,Parcel,98.4023668639,FeatureClassBased,ReturnAll,,ExactParcelCentroidPoint,,,0,34.1029302889,-117.7854112774,Relaxed;Soundex,TwoThousandTen,40830,4472,31084,90810,0,31100,3005,3,4015,37,6,1,ResidenceStreetAddress
1360 Mission Street,San Francisco,CA,94103,83,USCGeocoder,13,1,4.1,,0af650da-a656-4ede-b8da-acd6bf79c7d7,2,Parcel,Success,LOCATION_TYPE_STREET_ADDRESS,Meters,ArealInterpolation,868.7703256607,ArealInterpolationGeometricCentroid,Parcel,99.4082840237,FeatureClassBased,ReturnAll,,ExactParcelCentroidPoint,,,0,37.7758715399,-122.4156224981,Relaxed,TwoThousandTen,67000,7362,41884,92790,0,41860,4004,4,176.01,75,6,1,ResidenceStreetAddress
13965 E. Ramona Pkwy,Baldwin Park,CA,91706,84,USCGeocoder,34,1,4.1,,7ac479cd-75db-45e1-a210-b4febb9178b9,2,Parcel,Success,LOCATION_TYPE_STREET_ADDRESS,Meters,ArealInterpolation,7126.921951443,ArealInterpolationGeometricCentroid,Parcel,94.2603550296,FeatureClassBased,ReturnAll,,ExactParcelCentroidPoint,,,0,34.0853233678,-117.9695456115,Relaxed,TwoThousandTen,3666,4472,31084,90810,0,31100,2008,2,4049.03,37,6,1,ResidenceStreetAddress
1403 N. Garey Ave.,Pomona,CA,91767,85,USCGeocoder,116,1,4.1,,2272acf0-d0e5-4911-9e2a-4d8505240a31,3,StreetSegmentInterpolation,Success,LOCATION_TYPE_STREET_ADDRESS,Meters,LinearInterpolation,2302.9629250965,LinearInterpolationAddressRange,StreetSegment,100,FeatureClassBased,ReturnAll,,AddressRangeInterpolation,,,0,34.0717888063,-117.7522580304,Exact,TwoThousandTen,58072,4472,31084,90810,0,31100,1003,1,4023.03,37,6,1,ResidenceStreetAddress
14101 E. Nelson Ave,La Puente,CA,91746,86,USCGeocoder,52,1,4.1,,81620c62-07f5-47aa-817b-02f6ead19c72,2,Parcel,Success,LOCATION_TYPE_STREET_ADDRESS,Meters,ArealInterpolation,1444.8596165776,ArealInterpolationGeometricCentroid,Parcel,94.2603550296,FeatureClassBased,ReturnAll,,ExactParcelCentroidPoint,,,0,34.0434145759,-117.9803052443,Relaxed,TwoThousandTen,40340,4472,31084,90810,0,31100,2001,2,4071.02,37,6,1,ResidenceStreetAddress
14125 Telephone Ave.,Chino,CA,91710,87,USCGeocoder,2,1,4.1,,947b2fb4-f8e2-4885-9bc4-776f1310ec3d,2,Parcel,Success,LOCATION_TYPE_STREET_ADDRESS,Meters,ArealInterpolation,12656.0238831043,ArealInterpolationGeometricCentroid,Parcel,99.4082840237,FeatureClassBased,ReturnAll,,ExactParcelCentroidPoint,,,0,33.9965589834,-117.6927519974,Relaxed,TwoThousandTen,13210,4472,,92260,0,40140,1027,1,5.04,71,6,1,ResidenceStreetAddress
1418 Arrow Hwy,Irwindale,CA,91706,88,USCGeocoder,41,1,4.1,,07c266d4-279e-48ee-bf6e-56387316694a,3,StreetSegmentInterpolation,Success,LOCATION_TYPE_STREET_ADDRESS,Meters,LinearInterpolation,922.8467450081,LinearInterpolationAddressRange,StreetSegment,100,FeatureClassBased,ReturnAll,,AddressRangeInterpolation,,,0,34.1149386195,-117.976478749,Exact,TwoThousandTen,36826,4472,31084,90810,0,31100,2114,2,4046,37,6,1,ResidenceStreetAddress
1420 S. Garey Ave.,Pomona,CA,91766,89,USCGeocoder,28,1,4.1,,7b52bcb2-c4fa-49bd-8284-e90e3dbf923c,2,Parcel,Success,LOCATION_TYPE_STREET_ADDRESS,Meters,ArealInterpolation,3483.6177213788,ArealInterpolationGeometricCentroid,Parcel,98.4023668639,FeatureClassBased,ReturnAll,,ExactParcelCentroidPoint,,,0,34.0458530604,-117.7490784384,Relaxed,TwoThousandTen,58072,4472,31084,90810,0,31100,1011,1,4028.03,37,6,1,ResidenceStreetAddress
1427 W Covina Parkway,West Covina,CA,91790,90,USCGeocoder,32,1,4.1,,32201d60-7ff1-4bf3-9990-b98928f3f6ee,9,AddressZIPCentroid,Success,LOCATION_TYPE_STREET_ADDRESS,Meters,ArealInterpolation,0,ArealInterpolationGeometricCentroid,USPSZip,100,FeatureClassBased,ReturnAll,,USPSZipAreaCentroid,,,0,34.065225,-117.938282,Exact,TwoThousandTen,84200,4472,31084,90810,0,31100,3002,3,4067.02,37,6,4,ResidenceZIP
1427 W. Covina Pkwy,West Covina,CA,91790,91,USCGeocoder,6,1,4.1,,910e9509-c8cf-42d6-9015-fd04a52de8d0,9,AddressZIPCentroid,Success,LOCATION_TYPE_STREET_ADDRESS,Meters,ArealInterpolation,0,ArealInterpolationGeometricCentroid,USPSZip,100,FeatureClassBased,ReturnAll,,USPSZipAreaCentroid,,,0,34.065225,-117.938282,Exact,TwoThousandTen,84200,4472,31084,90810,0,31100,3002,3,4067.02,37,6,4,ResidenceZIP
1441 Santa Anita Ave,South El Monte,CA,91733,92,USCGeocoder,142,1,4.1,,40dd5503-ee62-4887-9251-538d152a785e,3,StreetSegmentInterpolation,Success,LOCATION_TYPE_STREET_ADDRESS,Meters,LinearInterpolation,8869.0805613464,LinearInterpolationAddressRange,StreetSegment,100,FeatureClassBased,ReturnAll,,AddressRangeInterpolation,,,0,34.0445774751,-118.0456694852,Exact,TwoThousandTen,72996,4472,31084,93510,0,31100,1013,1,4337,37,6,1,ResidenceStreetAddress
145 S. Fairfax Ave,Los Angeles,CA,91606,93,USCGeocoder,59,1,4.1,,cfab21bc-2720-4de4-bc5c-8647c026ce16,9,AddressZIPCentroid,Success,LOCATION_TYPE_STREET_ADDRESS,Meters,ArealInterpolation,0,ArealInterpolationGeometricCentroid,USPSZip,100,FeatureClassBased,ReturnAll,,USPSZipAreaCentroid,,,0,34.186265,-118.391357,Exact,TwoThousandTen,44000,4472,31084,92785,0,31100,1004,1,1239.01,37,6,4,ResidenceZIP
14530 Pacific Ave.,Baldwin Park,CA,91706,94,USCGeocoder,33,1,4.1,,d5767892-d166-4fcd-bd9b-1a7557761579,2,Parcel,Success,LOCATION_TYPE_STREET_ADDRESS,Meters,ArealInterpolation,669.1418109685,ArealInterpolationGeometricCentroid,Parcel,98.4023668639,FeatureClassBased,ReturnAll,,ExactParcelCentroidPoint,,,0,34.0834517614,-117.9586008871,Relaxed,TwoThousandTen,3666,4472,31084,90810,0,31100,2012,2,4052.02,37,6,1,ResidenceStreetAddress
14545 Leffingwell Rd,Whittier,CA,90604,95,USCGeocoder,78,1,4.1,,07818508-34cf-4f7c-95c4-f80463325681,3,StreetSegmentInterpolation,Success,LOCATION_TYPE_STREET_ADDRESS,Meters,LinearInterpolation,2029.5934089422,LinearInterpolationAddressRange,StreetSegment,99.899408284,FeatureClassBased,ReturnAll,,AddressRangeInterpolation,,,0,33.9245662699,-118.0220670951,Relaxed,TwoThousandTen,73430,4472,31084,93730,0,31100,3011,3,5035.01,37,6,1,ResidenceStreetAddress
1460 E. Holt Ave.,Pomona,CA,91767,96,USCGeocoder,14,1,4.1,,dd874a18-f8d4-4e70-bdf7-0b7cd169309c,2,Parcel,Success,LOCATION_TYPE_STREET_ADDRESS,Meters,ArealInterpolation,81883.937210083,ArealInterpolationGeometricCentroid,Parcel,99.4082840237,FeatureClassBased,ReturnAll,,ExactParcelCentroidPoint,,,0,34.0614617438,-117.7207476236,Relaxed,TwoThousandTen,58072,4472,31084,90810,0,31100,1005,1,4027.02,37,6,1,ResidenceStreetAddress
1460 Holt Ave,Pomona,CA,91767,97,USCGeocoder,1,1,4.1,,857e3abc-5303-4aaf-84f1-83aa4066d8ce,2,Parcel,Success,LOCATION_TYPE_STREET_ADDRESS,Meters,ArealInterpolation,81883.937210083,ArealInterpolationGeometricCentroid,Parcel,95.2662721893,FeatureClassBased,ReturnAll,,ExactParcelCentroidPoint,,,0,34.0614617438,-117.7207476236,Relaxed,TwoThousandTen,58072,4472,31084,90810,0,31100,1005,1,4027.02,37,6,1,ResidenceStreetAddress
1460 N Lake,Pasadena,CA,91104,98,USCGeocoder,435,1,4.1,,d2291da4-6e12-43d0-9bac-554d3ac6e1c8,9,AddressZIPCentroid,Success,LOCATION_TYPE_STREET_ADDRESS,Meters,ArealInterpolation,0,ArealInterpolationGeometricCentroid,USPSZip,100,FeatureClassBased,ReturnAll,,USPSZipAreaCentroid,,,0,34.166482,-118.120445,Exact,TwoThousandTen,56000,4472,31084,92400,0,31100,1004,1,4624,37,6,4,ResidenceZIP
1460 N. Lake Avenue,Pasadena,CA,91104,99,USCGeocoder,175,1,4.1,,c95fe072-0cc5-4838-b3ab-b577c47951b3,3,StreetSegmentInterpolation,Success,LOCATION_TYPE_STREET_ADDRESS,Meters,LinearInterpolation,2172.1942511485,LinearInterpolationAddressRange,StreetSegment,100,FeatureClassBased,ReturnAll,,AddressRangeInterpolation,,,0,34.1710578765,-118.132055058,Exact,TwoThousandTen,56000,4472,31084,92400,0,31100,3009,3,4614,37,6,1,ResidenceStreetAddress
14832 Valley Blvd,La Puente,CA,91744,100,USCGeocoder,148,1,4.1,,92f83eec-8b8d-45d3-a622-4a13a3619c2c,9,AddressZIPCentroid,Success,LOCATION_TYPE_STREET_ADDRESS,Meters,ArealInterpolation,0,ArealInterpolationGeometricCentroid,USPSZip,100,FeatureClassBased,ReturnAll,,USPSZipAreaCentroid,,,0,34.028223,-117.937998,Exact,TwoThousandTen,36490,4472,31084,90810,0,31100,1016,1,4078.02,37,6,4,ResidenceZIP
150 W Commonwealth Ave,Alhambra,CA,91801,101,USCGeocoder,15,1,4.1,,21a60e82-727c-4f96-9a70-8d7bbb9fcb9b,2,Parcel,Success,LOCATION_TYPE_STREET_ADDRESS,Meters,ArealInterpolation,10662.2257995307,ArealInterpolationGeometricCentroid,Parcel,98.4023668639,FeatureClassBased,ReturnAll,,ExactParcelCentroidPoint,,,0,34.0908712935,-118.1259459896,Relaxed,TwoThousandTen,884,4472,31084,93200,0,31100,1010,1,4810.01,37,6,1,ResidenceStreetAddress
1500 S. Grand Ave.,Los Angeles,CA,90015,102,USCGeocoder,32,1,4.1,,e5ea0712-739e-4167-89f5-86a9508e8b87,2,Parcel,Success,LOCATION_TYPE_STREET_ADDRESS,Meters,ArealInterpolation,4080.6164637208,ArealInterpolationGeometricCentroid,Parcel,99.4082840237,FeatureClassBased,ReturnAll,,ExactParcelCentroidPoint,,,0,34.0359524041,-118.2656941851,Relaxed,TwoThousandTen,44000,4472,31084,91750,0,31100,1014,1,2240.1,37,6,1,ResidenceStreetAddress
1500 S. Hyacinth Ave,San Gabriel/Pomona,CA,91791,103,USCGeocoder,76,1,4.1,,70cae1e0-79c3-4268-93a3-e793fbb21ed4,3,StreetSegmentInterpolation,Success,LOCATION_TYPE_STREET_ADDRESS,Meters,LinearInterpolation,1986.7036332178,LinearInterpolationAddressRange,StreetSegment,98.9940828402,FeatureClassBased,ReturnAll,,AddressRangeInterpolation,,,0,34.047321569,-117.9148058376,Relaxed,TwoThousandTen,81638,4472,31084,90810,0,31100,2010,2,4080.03,37,6,1,ResidenceStreetAddress
1501 Del Norte St.,West Covina,CA,91016,104,USCGeocoder,162,1,4.1,,3a5e8826-f704-420d-a44d-baa4c309ddd6,9,AddressZIPCentroid,Success,LOCATION_TYPE_STREET_ADDRESS,Meters,ArealInterpolation,0,ArealInterpolationGeometricCentroid,USPSZip,100,FeatureClassBased,ReturnAll,,USPSZipAreaCentroid,,,0,34.143769,-117.999476,Exact,TwoThousandTen,48648,4472,31084,93510,0,31100,3006,3,4311,37,6,4,ResidenceZIP
1501 W. 9th St,Upland,CA,91786,105,USCGeocoder,60,1,4.1,,996fce6b-bae9-4d54-84cd-9e33760223b8,2,Parcel,Success,LOCATION_TYPE_STREET_ADDRESS,Meters,ArealInterpolation,4040.7204304934,ArealInterpolationGeometricCentroid,Parcel,99.4082840237,FeatureClassBased,ReturnAll,,ExactParcelCentroidPoint,,,0,34.0963777228,-117.6797762216,Relaxed,TwoThousandTen,81344,4472,,92260,0,40140,3016,3,8.23,71,6,1,ResidenceStreetAddress
1501 W. Cameron Ave.,West Covina,CA,91790,106,USCGeocoder,87,1,4.1,,ebd9280a-416f-4fb5-9d1c-4e761625517f,3,StreetSegmentInterpolation,Success,LOCATION_TYPE_STREET_ADDRESS,Meters,LinearInterpolation,3639.2730479604,LinearInterpolationAddressRange,StreetSegment,100,FeatureClassBased,ReturnAll,,AddressRangeInterpolation,,,0,34.0679054968,-117.9411445181,Exact,TwoThousandTen,84200,4472,31084,90810,0,31100,1010,1,4067.02,37,6,1,ResidenceStreetAddress
1506 North Lake Ave,Pasadena,CA,91104,107,USCGeocoder,28,1,4.1,,aaf74a75-90dc-4fb5-bd4d-81541cf5fafb,3,StreetSegmentInterpolation,Success,LOCATION_TYPE_STREET_ADDRESS,Meters,LinearInterpolation,1610.3455065566,LinearInterpolationAddressRange,StreetSegment,100,FeatureClassBased,ReturnAll,,AddressRangeInterpolation,,,0,34.171844001,-118.1320210331,Exact,TwoThousandTen,56000,4472,31084,92400,0,31100,3009,3,4614,37,6,1,ResidenceStreetAddress
151 E. Second St.,Pomona,CA,91766,108,USCGeocoder,16,1,4.1,,06400162-eda0-4f3a-8c01-ec5f7f712544,2,Parcel,Success,LOCATION_TYPE_STREET_ADDRESS,Meters,ArealInterpolation,263.9574059844,ArealInterpolationGeometricCentroid,Parcel,98.4023668639,FeatureClassBased,ReturnAll,,ExactParcelCentroidPoint,,,0,34.0581075021,-117.7495576594,Relaxed;Soundex,TwoThousandTen,58072,4472,31084,90810,0,31100,2024,2,4088,37,6,1,ResidenceStreetAddress
15135 Fair Grove Ave,La Puente,CA,91744,109,USCGeocoder,24,1,4.1,,b04d19c4-3ccb-4e06-9848-6021a46fa9e7,2,Parcel,Success,LOCATION_TYPE_STREET_ADDRESS,Meters,ArealInterpolation,1004.1218626499,ArealInterpolationGeometricCentroid,Parcel,98.4023668639,FeatureClassBased,ReturnAll,,ExactParcelCentroidPoint,,,0,34.0440415576,-117.9515515278,Relaxed;Soundex,TwoThousandTen,40340,4472,31084,90810,0,31100,1020,1,4075.01,37,6,1,ResidenceStreetAddress
1515 W. Mission Blvd.,Pomona,CA,91766,110,USCGeocoder,139,1,4.1,,6213fa14-9957-46e4-8e48-5601bce146e5,3,StreetSegmentInterpolation,Success,LOCATION_TYPE_STREET_ADDRESS,Meters,LinearInterpolation,7823.9802884329,LinearInterpolationAddressRange,StreetSegment,100,FeatureClassBased,ReturnAll,,AddressRangeInterpolation,,,0,34.0546028519,-117.7728215113,Exact,TwoThousandTen,58072,4472,31084,90810,0,31100,1014,1,4024.02,37,6,1,ResidenceStreetAddress
1520 W. Cameron Ave.,West Covina,CA,91790,111,USCGeocoder,52,1,4.1,,538cabba-f9ec-417b-af9f-213d410ba09f,2,Parcel,Success,LOCATION_TYPE_STREET_ADDRESS,Meters,ArealInterpolation,6542.1833424568,ArealInterpolationGeometricCentroid,Parcel,98.4023668639,FeatureClassBased,ReturnAll,,ExactParcelCentroidPoint,,,0,34.0678394423,-117.9421078695,Relaxed,TwoThousandTen,84200,4472,31084,90810,0,31100,1012,1,4067.02,37,6,1,ResidenceStreetAddress
1524 Fremont Ave,South Pasadena,CA,91030,112,USCGeocoder,23,1,4.1,,8b478a42-667b-49dc-9f17-cbb10659330e,2,Parcel,Success,LOCATION_TYPE_STREET_ADDRESS,Meters,ArealInterpolation,5390.6359456182,ArealInterpolationGeometricCentroid,Parcel,99.4082840237,FeatureClassBased,ReturnAll,,ExactParcelCentroidPoint,,,0,34.1082388897,-118.1526726403,Relaxed,TwoThousandTen,73220,4472,31084,92400,0,31100,2000,2,4807.04,37,6,1,ResidenceStreetAddress
1550 W. 8th S.,Los Angeles,CA,90017,113,USCGeocoder,62,1,4.1,,e9920437-a6e4-42c4-abb2-bc571c54fbb2,2,Parcel,Success,LOCATION_TYPE_STREET_ADDRESS,Meters,ArealInterpolation,1147.4065717161,ArealInterpolationGeometricCentroid,Parcel,90.8727810651,FeatureClassBased,ReturnAll,,ExactParcelCentroidPoint,,,0,34.0519585238,-118.2720604377,Relaxed,TwoThousandTen,44000,4472,31084,91750,0,31100,1006,1,2093,37,6,1,ResidenceStreetAddress
1555 S Garey Ave,Pomona,CA,91767,114,USCGeocoder,20,1,4.1,,cea70a57-bddb-40f1-8241-60ad8f189561,3,StreetSegmentInterpolation,Success,LOCATION_TYPE_STREET_ADDRESS,Meters,LinearInterpolation,4363.7893477986,LinearInterpolationAddressRange,StreetSegment,96.0059171598,FeatureClassBased,ReturnAll,,AddressRangeInterpolation,,,0,34.0435390343,-117.7497127379,Relaxed,TwoThousandTen,58072,4472,31084,90810,0,31100,1000,1,4030,37,6,1,ResidenceStreetAddress
1570 Colorado Blvd,Pasadena,CA,91107,115,USCGeocoder,158,1,4.1,,2d8eab94-968c-4f95-a1d0-6861441faa96,9,AddressZIPCentroid,Success,LOCATION_TYPE_STREET_ADDRESS,Meters,ArealInterpolation,0,ArealInterpolationGeometricCentroid,USPSZip,100,FeatureClassBased,ReturnAll,,USPSZipAreaCentroid,,,0,34.152009,-118.088972,Exact,TwoThousandTen,56000,4472,31084,92400,0,31100,1016,1,4629,37,6,4,ResidenceZIP
15701 Hill St,La Puente,CA,91744,116,USCGeocoder,19,1,4.1,,2bc3836d-c9f0-4b6b-a7b0-1cf4f2253d11,2,Parcel,Success,LOCATION_TYPE_STREET_ADDRESS,Meters,ArealInterpolation,2904.5009746056,ArealInterpolationGeometricCentroid,Parcel,98.4023668639,FeatureClassBased,ReturnAll,,ExactParcelCentroidPoint,,,0,34.026363293,-117.9505361574,Relaxed,TwoThousandTen,40340,4472,31084,90810,0,31100,3017,3,4077.02,37,6,1,ResidenceStreetAddress
1575 N. White Ave.,Pomona,CA,91767,117,USCGeocoder,75,1,4.1,,b670a82b-287b-4d34-9c1e-d65510248677,3,StreetSegmentInterpolation,Success,LOCATION_TYPE_STREET_ADDRESS,Meters,LinearInterpolation,14219.0539119539,LinearInterpolationAddressRange,StreetSegment,96.0059171598,FeatureClassBased,ReturnAll,,AddressRangeInterpolation,,,0,34.0772902872,-117.7596783427,Relaxed,TwoThousandTen,58072,4472,31084,90810,0,31100,2006,2,4022,37,6,1,ResidenceStreetAddress
15942 Amar Rd.,City of Industry,CA,91744,118,USCGeocoder,50,1,4.1,,b8eb1ceb-958a-4f00-9285-e378058bab3b,3,StreetSegmentInterpolation,Success,LOCATION_TYPE_STREET_ADDRESS,Meters,LinearInterpolation,6771.074823661,LinearInterpolationAddressRange,StreetSegment,98.9940828402,FeatureClassBased,ReturnAll,,AddressRangeInterpolation,,,0,34.0361998926,-117.9373000914,Relaxed,TwoThousandTen,36490,4472,31084,90810,0,31100,1000,1,4078.02,37,6,1,ResidenceStreetAddress
160 East Holt Ave.,Pomona,CA,91767,119,USCGeocoder,38,1,4.1,,34a0bc2a-9836-401a-9d3b-fc23cf6bb598,3,StreetSegmentInterpolation,Success,LOCATION_TYPE_STREET_ADDRESS,Meters,LinearInterpolation,4440.7545007244,LinearInterpolationAddressRange,StreetSegment,100,FeatureClassBased,ReturnAll,,AddressRangeInterpolation,,,0,34.0623210628,-117.7489726867,Exact,TwoThousandTen,58072,4472,31084,90810,0,31100,1003,1,4088,37,6,1,ResidenceStreetAddress
1660 W. Mission Rd,Pomona,CA,91766,120,USCGeocoder,25,1,4.1,,51b196df-c384-4dbe-b09d-585448dc34ae,3,StreetSegmentInterpolation,Success,LOCATION_TYPE_STREET_ADDRESS,Meters,LinearInterpolation,4433.1996498727,LinearInterpolationAddressRange,StreetSegment,94.0828402367,FeatureClassBased,ReturnAll,,AddressRangeInterpolation,,,0,34.0536789478,-117.7788703325,Relaxed,TwoThousandTen,58072,4472,31084,90810,0,31100,1015,1,4024.02,37,6,1,ResidenceStreetAddress
1660 West Mission Blvd,Pomona,CA,91768,121,USCGeocoder,8,1,4.1,,5b8309e8-2d0c-4aa9-849f-c696082edbfc,3,StreetSegmentInterpolation,Success,LOCATION_TYPE_STREET_ADDRESS,Meters,LinearInterpolation,4433.1996498727,LinearInterpolationAddressRange,StreetSegment,96.0059171598,FeatureClassBased,ReturnAll,,AddressRangeInterpolation,,,0,34.0536789478,-117.7788703325,Relaxed,TwoThousandTen,58072,4472,31084,90810,0,31100,1015,1,4024.02,37,6,1,ResidenceStreetAddress
1671 Beverly Blvd.,Los Angeles,CA,90026,122,USCGeocoder,91,1,4.1,,1913802f-e233-4bde-9885-d161291b017a,3,StreetSegmentInterpolation,Success,LOCATION_TYPE_STREET_ADDRESS,Meters,LinearInterpolation,4207.1398223178,LinearInterpolationAddressRange,StreetSegment,100,FeatureClassBased,ReturnAll,,AddressRangeInterpolation,,,0,34.0644011832,-118.265032258,Exact,TwoThousandTen,44000,4472,31084,91750,0,31100,1005,1,2083.02,37,6,1,ResidenceStreetAddress
1690 S. White Ave.,Pomona,CA,91766,123,USCGeocoder,53,1,4.1,,d242f93a-6717-43ad-a8b4-afe053e9b1e9,3,StreetSegmentInterpolation,Success,LOCATION_TYPE_STREET_ADDRESS,Meters,LinearInterpolation,2031.9564872258,LinearInterpolationAddressRange,StreetSegment,100,FeatureClassBased,ReturnAll,,AddressRangeInterpolation,,,0,34.0407437224,-117.7581750945,Exact,TwoThousandTen,58072,4472,31084,90810,0,31100,3000,3,4030,37,6,1,ResidenceStreetAddress
171 S Gless Street,Los Angeles,CA,90033,124,USCGeocoder,63,1,4.1,,8d0da397-98d2-40a1-b5d9-d51f2e20a51b,3,StreetSegmentInterpolation,Success,LOCATION_TYPE_STREET_ADDRESS,Meters,LinearInterpolation,5241.8771112203,LinearInterpolationAddressRange,StreetSegment,100,FeatureClassBased,ReturnAll,,AddressRangeInterpolation,,,0,34.0466484364,-118.2230339923,Exact,TwoThousandTen,44000,4472,31084,91750,0,31100,1000,1,2060.32,37,6,1,ResidenceStreetAddress
1725 Main St,Santa Monica,CA,90401,125,USCGeocoder,43,1,4.1,,4d287d41-2a60-40ea-988e-9659bcb4da29,3,StreetSegmentInterpolation,Success,LOCATION_TYPE_STREET_ADDRESS,Meters,LinearInterpolation,18085.0072391487,LinearInterpolationAddressRange,StreetSegment,100,FeatureClassBased,ReturnAll,,AddressRangeInterpolation,,,0,34.0111500032,-118.4916076838,Exact,TwoThousandTen,70000,4472,31084,92920,0,31100,3010,3,7019.02,37,6,1,ResidenceStreetAddress
1727 S. Garey Ave.,Pomona,CA,NA,126,USCGeocoder,50,1,4.1,,367f7e14-53e4-4579-93ce-be5f61cfd19b,98,Unknown,Success,LOCATION_TYPE_STREET_ADDRESS,Kilometers,ArealInterpolation,423966.987,ArealInterpolationGeometricCentroid,State,100,FeatureClassBased,ReturnAll,,StateCentroid,,,0,37.2400490281,-119.5032355358,Exact,TwoThousandTen,,680,,92220,0,31460,3044,3,1.02,39,6,9,Missing
1730 W. Olympic Blvd,Los Angeles,CA,90015,127,USCGeocoder,94,1,4.1,,b4f32e3c-33a2-4fc6-8410-e46db91a0a70,3,StreetSegmentInterpolation,Success,LOCATION_TYPE_STREET_ADDRESS,Meters,LinearInterpolation,1503.2868517109,LinearInterpolationAddressRange,StreetSegment,100,FeatureClassBased,ReturnAll,,AddressRangeInterpolation,,,0,34.049903107,-118.2760010521,Exact,TwoThousandTen,44000,4472,31084,91750,0,31100,1005,1,2095.2,37,6,1,ResidenceStreetAddress
17328 Amar Rd,La Puente,CA,91746,128,USCGeocoder,6,1,4.1,,1c0a024f-4aaf-4137-8ea5-213d49912bf1,9,AddressZIPCentroid,Success,LOCATION_TYPE_STREET_ADDRESS,Meters,ArealInterpolation,0,ArealInterpolationGeometricCentroid,USPSZip,100,FeatureClassBased,ReturnAll,,USPSZipAreaCentroid,,,0,34.049002,-117.979948,Exact,TwoThousandTen,40340,4472,31084,90810,0,31100,1002,1,4071.02,37,6,4,ResidenceZIP
1750 W. Holt Ave.,Pomona,CA,91768,129,USCGeocoder,38,1,4.1,,81bcb19e-0ee5-4591-9f3b-9e45d4ba3d2d,3,StreetSegmentInterpolation,Success,LOCATION_TYPE_STREET_ADDRESS,Meters,LinearInterpolation,5839.0743483165,LinearInterpolationAddressRange,StreetSegment,100,FeatureClassBased,ReturnAll,,AddressRangeInterpolation,,,0,34.0615445025,-117.7801651491,Exact,TwoThousandTen,58072,4472,31084,90810,0,31100,1002,1,4024.02,37,6,1,ResidenceStreetAddress
1753 N. Park Ave.,Pomona,CA,91768,130,USCGeocoder,150,1,4.1,,3b8756f3-0bcc-46a2-9d63-0572dee64d0d,3,StreetSegmentInterpolation,Success,LOCATION_TYPE_STREET_ADDRESS,Meters,LinearInterpolation,3172.0502037746,LinearInterpolationAddressRange,StreetSegment,100,FeatureClassBased,ReturnAll,,AddressRangeInterpolation,,,0,34.0774274423,-117.7528065888,Exact,TwoThousandTen,58072,4472,31084,90810,0,31100,2002,2,4022,37,6,1,ResidenceStreetAddress
1754 Taft Ave,Los Angeles,CA,90028,131,USCGeocoder,15,1,4.1,,8817c5b2-a34c-465d-915f-001d302a7776,2,Parcel,Success,LOCATION_TYPE_STREET_ADDRESS,Meters,ArealInterpolation,752.1186695099,ArealInterpolationGeometricCentroid,Parcel,99.1568047337,FeatureClassBased,ReturnAll,,ExactParcelCentroidPoint,,,0,34.1032684854,-118.3144071482,Relaxed,TwoThousandTen,44000,4472,31084,91750,0,31100,2001,2,1903.01,37,6,1,ResidenceStreetAddress
1760 W. Cameron,West Covina,CA,91790,132,USCGeocoder,75,1,4.1,,34bcfa0c-1c40-4422-9f27-35632df05aeb,3,StreetSegmentInterpolation,Success,LOCATION_TYPE_STREET_ADDRESS,Meters,LinearInterpolation,6138.8742727242,LinearInterpolationAddressRange,StreetSegment,97.0414201183,FeatureClassBased,ReturnAll,,AddressRangeInterpolation,,,0,34.0701019914,-117.9443730275,Relaxed,TwoThousandTen,84200,4472,31084,90810,0,31100,1012,1,4067.02,37,6,1,ResidenceStreetAddress
1760 West Cameron Ave,West Covina,CA,91790,133,USCGeocoder,6,1,4.1,,228f0284-1019-4460-bc56-495c61179c13,3,StreetSegmentInterpolation,Success,LOCATION_TYPE_STREET_ADDRESS,Meters,LinearInterpolation,6138.8742727242,LinearInterpolationAddressRange,StreetSegment,100,FeatureClassBased,ReturnAll,,AddressRangeInterpolation,,,0,34.0701019914,-117.9443730275,Exact,TwoThousandTen,84200,4472,31084,90810,0,31100,1012,1,4067.02,37,6,1,ResidenceStreetAddress
1770 Summer Ave.,Claremont,CA,NA,134,USCGeocoder,144,1,4.1,,ddfe4e9d-a1fa-430d-beaf-2c1a34da0294,11,CityCentroid,Success,LOCATION_TYPE_STREET_ADDRESS,Meters,ArealInterpolation,35717627.7147696,ArealInterpolationGeometricCentroid,City,100,FeatureClassBased,ReturnAll,,CityCentroid,,,0,34.1259523388,-117.7155292863,Exact,TwoThousandTen,13756,4472,31084,90810,0,31100,2025,2,4002.06,37,6,9,Missing
17800 E. Renault St.,La Puente,CA,91744,135,USCGeocoder,76,1,4.1,,968bf0c8-cbd5-4de6-a2df-499125904ede,3,StreetSegmentInterpolation,Success,LOCATION_TYPE_STREET_ADDRESS,Meters,LinearInterpolation,1909.9322399609,LinearInterpolationAddressRange,StreetSegment,96.9230769231,FeatureClassBased,ReturnAll,,AddressRangeInterpolation,,,0,34.0140394661,-117.9137618373,Relaxed,TwoThousandTen,73290,4472,31084,90810,0,31100,1009,1,4081.39,37,6,1,ResidenceStreetAddress
1801 Huntington Dr.,Duarte,CA,91010,136,USCGeocoder,41,1,4.1,,b1a833a2-3f65-48cb-9b9f-6941dfaaddc3,3,StreetSegmentInterpolation,Success,LOCATION_TYPE_STREET_ADDRESS,Meters,LinearInterpolation,4387.2683498384,LinearInterpolationAddressRange,StreetSegment,97.9289940828,FeatureClassBased,ReturnAll,,AddressRangeInterpolation,,,0,34.1396619056,-117.9665977702,Relaxed,TwoThousandTen,19990,4472,31084,93510,0,31100,3011,3,4300.02,37,6,1,ResidenceStreetAddress
18047 Valley Blvd,City of Industry,CA,91744,137,USCGeocoder,28,1,4.1,,a537670c-1b6a-4619-b879-05cf50009758,2,Parcel,Success,LOCATION_TYPE_STREET_ADDRESS,Meters,ArealInterpolation,896.2082047015,ArealInterpolationGeometricCentroid,Parcel,98.4023668639,FeatureClassBased,ReturnAll,,ExactParcelCentroidPoint,,,0,34.0067776711,-117.9088128276,Relaxed,TwoThousandTen,36490,4472,31084,90810,0,31100,1011,1,4081.4,37,6,1,ResidenceStreetAddress
1818 N. Orange Grove Ste 205,Pomona,CA,91768,138,USCGeocoder,135,1,4.1,,bdc4f179-94a9-4e67-b971-c77193e5d49e,3,StreetSegmentInterpolation,Success,LOCATION_TYPE_STREET_ADDRESS,Meters,LinearInterpolation,2289.1538710669,LinearInterpolationAddressRange,StreetSegment,90.0887573964,FeatureClassBased,ReturnAll,,AddressRangeInterpolation,,,0,34.0770867441,-117.7488034811,Relaxed;Soundex,TwoThousandTen,58072,4472,31084,90810,0,31100,3004,3,4021.02,37,6,1,ResidenceStreetAddress
1824 4th Ave.,Los Angeles,CA,90019,139,USCGeocoder,427,1,4.1,,21f2333c-97bd-4c63-aeae-c065d18db1ba,3,StreetSegmentInterpolation,Success,LOCATION_TYPE_STREET_ADDRESS,Meters,LinearInterpolation,4557.9153976964,LinearInterpolationAddressRange,StreetSegment,100,FeatureClassBased,ReturnAll,,AddressRangeInterpolation,,,0,34.0406165032,-118.3211754686,Exact,TwoThousandTen,44000,4472,31084,91750,0,31100,3003,3,2181.2,37,6,1,ResidenceStreetAddress
1851 Tyburn St,Glendale,CA,91204,140,USCGeocoder,126,1,4.1,,5ef68dfd-c22a-4c22-bad9-e53fa1afa5a3,9,AddressZIPCentroid,Success,LOCATION_TYPE_STREET_ADDRESS,Meters,ArealInterpolation,0,ArealInterpolationGeometricCentroid,USPSZip,100,FeatureClassBased,ReturnAll,,USPSZipAreaCentroid,,,0,34.13345,-118.262119,Exact,TwoThousandTen,30000,4472,31084,92785,0,31100,2007,2,3024.01,37,6,4,ResidenceZIP
18555 Fajardo St,Rowland Heights,CA,91748,141,USCGeocoder,53,1,4.1,,6f847e89-c2c2-4479-8ff9-330cf5c0564e,9,AddressZIPCentroid,Success,LOCATION_TYPE_STREET_ADDRESS,Meters,ArealInterpolation,0,ArealInterpolationGeometricCentroid,USPSZip,100,FeatureClassBased,ReturnAll,,USPSZipAreaCentroid,,,0,33.979568,-117.898437,Exact,TwoThousandTen,63218,4472,31084,90810,0,31100,1016,1,4087.23,37,6,4,ResidenceZIP
18821 Arrow Highway,Covina,CA,91722,142,USCGeocoder,18,1,4.1,,10145f3c-a3db-4e77-8fe7-a93e1645d985,2,Parcel,Success,LOCATION_TYPE_STREET_ADDRESS,Meters,ArealInterpolation,8724.619115388,ArealInterpolationGeometricCentroid,Parcel,94.2603550296,FeatureClassBased,ReturnAll,,ExactParcelCentroidPoint,,,0,34.1073613626,-117.8830204606,Relaxed,TwoThousandTen,13560,4472,31084,90810,0,31100,4000,4,4040,37,6,1,ResidenceStreetAddress
1890 N. Garey Ave.,Pomona,CA,91767,143,USCGeocoder,44,1,4.1,,5399a655-fae2-45e9-93b8-b70c7b756fce,2,Parcel,Success,LOCATION_TYPE_STREET_ADDRESS,Meters,ArealInterpolation,2270.4190558195,ArealInterpolationGeometricCentroid,Parcel,99.4082840237,FeatureClassBased,ReturnAll,,ExactParcelCentroidPoint,,,0,34.0802115307,-117.752223142,Relaxed,TwoThousandTen,58072,4472,31084,90810,0,31100,3011,3,4021.02,37,6,1,ResidenceStreetAddress
1901 S. San Gabriel Blvd,San Gabriel,CA,91776,144,USCGeocoder,1,1,4.1,,506c3fd3-b3c6-40bc-9cd0-4b5a89acad97,2,Parcel,Success,LOCATION_TYPE_STREET_ADDRESS,Meters,ArealInterpolation,485.1480377316,ArealInterpolationGeometricCentroid,Parcel,98.4023668639,FeatureClassBased,ReturnAll,,ExactParcelCentroidPoint,,,0,34.0746903322,-118.0910227292,Relaxed,TwoThousandTen,67042,4472,31084,93200,0,31100,1004,1,4823.01,37,6,1,ResidenceStreetAddress
1905 LINCOLN AVE,Pasadena,CA,91103,145,USCGeocoder,18,1,4.1,,5206d65e-4d78-4de2-ab0b-d0d94072ad97,2,Parcel,Success,LOCATION_TYPE_STREET_ADDRESS,Meters,ArealInterpolation,73078.6535955668,ArealInterpolationGeometricCentroid,Parcel,98.4023668639,FeatureClassBased,ReturnAll,,ExactParcelCentroidPoint,,,0,34.1779488331,-118.1615392335,Relaxed,TwoThousandTen,56000,4472,31084,92400,0,31100,4024,4,4609,37,6,1,ResidenceStreetAddress
191 N. Oak Ave,Pasadena,CA,91107,146,USCGeocoder,140,1,4.1,,fd24f60e-a60b-4d1e-b6ad-2710da4b169c,3,StreetSegmentInterpolation,Success,LOCATION_TYPE_STREET_ADDRESS,Meters,LinearInterpolation,1744.9296832327,LinearInterpolationAddressRange,StreetSegment,100,FeatureClassBased,ReturnAll,,AddressRangeInterpolation,,,0,34.1497351409,-118.1077397893,Exact,TwoThousandTen,56000,4472,31084,92400,0,31100,2008,2,4627,37,6,1,ResidenceStreetAddress
1921 Arroyo Avenue,Pomona,CA,NA,147,USCGeocoder,134,1,4.1,,301c83db-ac2b-4660-8432-fd04f9c4d64d,98,Unknown,Success,LOCATION_TYPE_STREET_ADDRESS,Kilometers,ArealInterpolation,423966.987,ArealInterpolationGeometricCentroid,State,100,FeatureClassBased,ReturnAll,,StateCentroid,,,0,37.2400490281,-119.5032355358,Exact,TwoThousandTen,,680,,92220,0,31460,3044,3,1.02,39,6,9,Missing
1921 N. Garey Ave,Pomona,CA,NA,148,USCGeocoder,13,1,4.1,,b1edc6d1-cc15-4fa6-9364-1046861c4e3a,2,Parcel,Success,LOCATION_TYPE_STREET_ADDRESS,Meters,ArealInterpolation,1681.7358887619,ArealInterpolationGeometricCentroid,Parcel,96.7455621302,FeatureClassBased,ReturnAll,,ExactParcelCentroidPoint,,,0,34.0812573342,-117.7530580735,Relaxed,TwoThousandTen,58072,4472,31084,90810,0,31100,1020,1,4022,37,6,1,ResidenceStreetAddress
1930 Wilshire Blvd.,Los Angeles,CA,90057,149,USCGeocoder,20,1,4.1,,0e03c373-7ee9-4dd4-abb3-fe7d7b836282,2,Parcel,Success,LOCATION_TYPE_STREET_ADDRESS,Meters,ArealInterpolation,3135.5580157638,ArealInterpolationGeometricCentroid,Parcel,99.4082840237,FeatureClassBased,ReturnAll,,ExactParcelCentroidPoint,,,0,34.056866983,-118.2746235717,Relaxed,TwoThousandTen,44000,4472,31084,91750,0,31100,1003,1,2089.02,37,6,1,ResidenceStreetAddress
20 Hidden Valley Rd,Pomona,CA,91769,150,USCGeocoder,79,1,4.1,,d3e9cf2e-47b4-4fa9-9ade-9d8aa65bcba4,3,StreetSegmentInterpolation,Success,LOCATION_TYPE_STREET_ADDRESS,Meters,LinearInterpolation,2132.6839172826,LinearInterpolationAddressRange,StreetSegment,96.0059171598,FeatureClassBased,ReturnAll,,AddressRangeInterpolation,,,0,34.0276281731,-117.7749013464,Relaxed,TwoThousandTen,58072,4472,31084,90810,0,31100,2004,2,4033.17,37,6,1,ResidenceStreetAddress
200 Drake St.,Pomona,CA,NA,151,USCGeocoder,24,1,4.1,,01094c5a-148a-4562-bc99-c46d5ae4e224,2,Parcel,Success,LOCATION_TYPE_STREET_ADDRESS,Meters,ArealInterpolation,18472.1820342317,ArealInterpolationGeometricCentroid,Parcel,96.7455621302,FeatureClassBased,ReturnAll,,ExactParcelCentroidPoint,,,0,34.1053002348,-117.7513349693,Relaxed,TwoThousandTen,58072,4472,31084,90810,0,31100,1004,1,4017.03,37,6,1,ResidenceStreetAddress
200 North Second Ave,Covina,CA,91723,152,USCGeocoder,15,1,4.1,,7bd6ab31-8e58-4ed9-a90b-baad58df096e,2,Parcel,Success,LOCATION_TYPE_STREET_ADDRESS,Meters,ArealInterpolation,8231.7813265073,ArealInterpolationGeometricCentroid,Parcel,99.4082840237,FeatureClassBased,ReturnAll,,ExactParcelCentroidPoint,,,0,34.0877744851,-117.8869282052,Relaxed;Soundex,TwoThousandTen,16742,4472,31084,90810,0,31100,2025,2,4061.01,37,6,1,ResidenceStreetAddress
2008 N. Garey Ave.,Pomona,CA,91767,153,USCGeocoder,40,1,4.1,,48318a50-fe3d-442c-86e6-cd3ccaee82a7,2,Parcel,Success,LOCATION_TYPE_STREET_ADDRESS,Meters,ArealInterpolation,3861.2381197214,ArealInterpolationGeometricCentroid,Parcel,99.4082840237,FeatureClassBased,ReturnAll,,ExactParcelCentroidPoint,,,0,34.082754963,-117.7523349956,Relaxed,TwoThousandTen,58072,4472,31084,90810,0,31100,2006,2,4021.02,37,6,1,ResidenceStreetAddress
201470A Yellow brick Rd.,Walnut,CA,91789,154,USCGeocoder,111,1,4.1,,52329810-507a-4cce-8ecc-7eb4bfb3e67f,9,AddressZIPCentroid,Success,LOCATION_TYPE_STREET_ADDRESS,Meters,ArealInterpolation,0,ArealInterpolationGeometricCentroid,USPSZip,100,FeatureClassBased,ReturnAll,,USPSZipAreaCentroid,,,0,34.014965,-117.856127,Exact,TwoThousandTen,83332,4472,31084,90810,0,31100,1013,1,4034.02,37,6,4,ResidenceZIP
2040 N. Garey Ave,Pomona,CA,91767,155,USCGeocoder,12,1,4.1,,22e1b44b-a813-47bc-a7b0-d4915d522764,2,Parcel,Success,LOCATION_TYPE_STREET_ADDRESS,Meters,ArealInterpolation,2016.4228339195,ArealInterpolationGeometricCentroid,Parcel,99.4082840237,FeatureClassBased,ReturnAll,,ExactParcelCentroidPoint,,,0,34.0836287768,-117.7518275913,Relaxed,TwoThousandTen,58072,4472,31084,90810,0,31100,2006,2,4021.02,37,6,1,ResidenceStreetAddress
2040 W. Holt Ave.,Pomona,CA,91768,156,USCGeocoder,5,1,4.1,,24764449-b2c3-4d5b-953d-39eb9dc96789,3,StreetSegmentInterpolation,Success,LOCATION_TYPE_STREET_ADDRESS,Meters,LinearInterpolation,1232.4551852976,LinearInterpolationAddressRange,StreetSegment,100,FeatureClassBased,ReturnAll,,AddressRangeInterpolation,,,0,34.0613740269,-117.7867602091,Exact,TwoThousandTen,58072,4472,31084,90810,0,31100,1003,1,4024.02,37,6,1,ResidenceStreetAddress
20470A Yellowbrick Rd.,Walnut,CA,91789,157,USCGeocoder,28,1,4.1,,1b638387-ef9c-402d-bd99-b50f229c727e,2,Parcel,Success,LOCATION_TYPE_STREET_ADDRESS,Meters,ArealInterpolation,2262.3687170222,ArealInterpolationGeometricCentroid,Parcel,99.4082840237,FeatureClassBased,ReturnAll,,ExactParcelCentroidPoint,,,0,33.9994481467,-117.8575209771,Relaxed;Soundex,TwoThousandTen,19192,4472,31084,90810,0,31100,1070,1,4033.03,37,6,1,ResidenceStreetAddress
206 W. Las Tunas,San Gabriel Valley,CA,91776,158,USCGeocoder,96,1,4.1,,5508dcab-0e79-4e66-b3ae-9aae48e4959c,3,StreetSegmentInterpolation,Success,LOCATION_TYPE_STREET_ADDRESS,Meters,LinearInterpolation,1831.4629181861,LinearInterpolationAddressRange,StreetSegment,96.0355029586,FeatureClassBased,ReturnAll,,AddressRangeInterpolation,,,0,34.1024239404,-118.1021318137,Relaxed,TwoThousandTen,67042,4472,31084,93200,0,31100,2000,2,4811.01,37,6,1,ResidenceStreetAddress
207 N. Garfield Ave.,Pasadena,CA,91107,159,USCGeocoder,116,1,4.1,,eaf35964-6074-4fd9-bffe-8ebd0e7f2414,3,StreetSegmentInterpolation,Success,LOCATION_TYPE_STREET_ADDRESS,Meters,LinearInterpolation,2905.2288413176,LinearInterpolationAddressRange,StreetSegment,96.0059171598,FeatureClassBased,ReturnAll,,AddressRangeInterpolation,,,0,34.1494489348,-118.1443776116,Relaxed,TwoThousandTen,56000,4472,31084,92400,0,31100,1008,1,4619.02,37,6,1,ResidenceStreetAddress
"209 W. Pearl, St.",Pomona,CA,91766,160,USCGeocoder,86,1,4.1,,5e525aba-0957-4c30-a340-7c40169613e6,3,StreetSegmentInterpolation,Success,LOCATION_TYPE_STREET_ADDRESS,Meters,LinearInterpolation,2836.0757802136,LinearInterpolationAddressRange,StreetSegment,96.0059171598,FeatureClassBased,ReturnAll,,AddressRangeInterpolation,,,0,34.0646454603,-117.7525732241,Relaxed,TwoThousandTen,58072,4472,31084,90810,0,31100,1007,1,4023.03,37,6,1,ResidenceStreetAddress
210 E. Foothill Blvd.,Pomona,CA,NA,161,USCGeocoder,32,1,4.1,,c65158fe-ab4e-4ea5-aa27-0dc1e237b701,2,Parcel,Success,LOCATION_TYPE_STREET_ADDRESS,Meters,ArealInterpolation,4749.9053907394,ArealInterpolationGeometricCentroid,Parcel,96.7455621302,FeatureClassBased,ReturnAll,,ExactParcelCentroidPoint,,,0,34.1065907872,-117.7462037633,Relaxed,TwoThousandTen,58072,4472,31084,90810,0,31100,1006,1,4017.04,37,6,1,ResidenceStreetAddress
210 N. Citrus Ave.,Azusa,CA,91702,162,USCGeocoder,19,1,4.1,,64ba7652-6d46-47d0-bb4a-907827a66def,2,Parcel,Success,LOCATION_TYPE_STREET_ADDRESS,Meters,ArealInterpolation,2203.0364852228,ArealInterpolationGeometricCentroid,Parcel,98.4023668639,FeatureClassBased,ReturnAll,,ExactParcelCentroidPoint,,,0,34.1241879015,-117.8896159535,Relaxed,TwoThousandTen,3386,4472,31084,90810,0,31100,2009,2,4042.02,37,6,1,ResidenceStreetAddress
21329 Cienega Ave,Covina,CA,91724,163,USCGeocoder,32,1,4.1,,06634df8-bc13-45d8-b2c2-6039912ef0a1,2,Parcel,Success,LOCATION_TYPE_STREET_ADDRESS,Meters,ArealInterpolation,1985.3516101632,ArealInterpolationGeometricCentroid,Parcel,94.2603550296,FeatureClassBased,ReturnAll,,ExactParcelCentroidPoint,,,0,34.1033531183,-117.838035234,Relaxed,TwoThousandTen,12734,4472,31084,90810,0,31100,3002,3,4038.02,37,6,1,ResidenceStreetAddress
2151 S. Diamond Bar Blvd,Diamond Bar,CA,91765,164,USCGeocoder,104,1,4.1,,4e705722-1ab4-43eb-8973-1c7ff9802894,3,StreetSegmentInterpolation,Success,LOCATION_TYPE_STREET_ADDRESS,Meters,LinearInterpolation,5877.7220323214,LinearInterpolationAddressRange,StreetSegment,100,FeatureClassBased,ReturnAll,,AddressRangeInterpolation,,,0,33.9859896795,-117.8257440324,Exact,TwoThousandTen,19192,4472,31084,90810,0,31100,1023,1,4033.22,37,6,1,ResidenceStreetAddress
21540 Plummer Street,Chatsworth,CA,91311,165,USCGeocoder,149,1,4.1,,a493916b-985d-4cde-b02a-ca5571d2f9bd,3,StreetSegmentInterpolation,Success,LOCATION_TYPE_STREET_ADDRESS,Meters,LinearInterpolation,8630.6013791382,LinearInterpolationAddressRange,StreetSegment,98.9940828402,FeatureClassBased,ReturnAll,,AddressRangeInterpolation,,,0,34.2426159711,-118.5997300472,Relaxed,TwoThousandTen,44000,4472,31084,92785,0,31100,1029,1,1132.37,37,6,1,ResidenceStreetAddress
2180 W. Valley Blvd.,Pomona,CA,91768,166,USCGeocoder,26,1,4.1,,4972c526-4687-46cf-8c34-df614f154404,3,StreetSegmentInterpolation,Success,LOCATION_TYPE_STREET_ADDRESS,Meters,LinearInterpolation,3529.4453940734,LinearInterpolationAddressRange,StreetSegment,89.9408284024,FeatureClassBased,ReturnAll,,AddressRangeInterpolation,,,0,34.0612971979,-117.7898984064,Relaxed,TwoThousandTen,58072,4472,31084,90810,0,31100,4006,4,4024.02,37,6,1,ResidenceStreetAddress
2232 S. Garey Ave.,Pomona,CA,91766,167,USCGeocoder,31,1,4.1,,d68929d9-ebb4-44ff-a82f-fba6ddc6dad6,3,StreetSegmentInterpolation,Success,LOCATION_TYPE_STREET_ADDRESS,Meters,LinearInterpolation,8421.7098690895,LinearInterpolationAddressRange,StreetSegment,100,FeatureClassBased,ReturnAll,,AddressRangeInterpolation,,,0,34.0308916407,-117.7490693072,Exact,TwoThousandTen,58072,4472,31084,90810,0,31100,2001,2,4029.02,37,6,1,ResidenceStreetAddress
225 W Broadway,Glendora,CA,91740,168,USCGeocoder,222,1,4.1,,714a514e-15cd-45d4-8abe-d76b1dd1679c,9,AddressZIPCentroid,Success,LOCATION_TYPE_STREET_ADDRESS,Meters,ArealInterpolation,0,ArealInterpolationGeometricCentroid,USPSZip,100,FeatureClassBased,ReturnAll,,USPSZipAreaCentroid,,,0,34.115217,-117.85934,Exact,TwoThousandTen,30014,4472,31084,90810,0,31100,1002,1,4012.03,37,6,4,ResidenceZIP
233 Harrison Ave,Claremont,CA,91711,169,USCGeocoder,71,1,4.1,,12adf740-5683-42d2-b1de-ad2ca7df257c,3,StreetSegmentInterpolation,Success,LOCATION_TYPE_STREET_ADDRESS,Meters,LinearInterpolation,1297.5760952602,LinearInterpolationAddressRange,StreetSegment,97.9289940828,FeatureClassBased,ReturnAll,,AddressRangeInterpolation,,,0,34.0987161518,-117.7178679776,Relaxed,TwoThousandTen,13756,4472,31084,90810,0,31100,1027,1,4019.02,37,6,1,ResidenceStreetAddress
2330 Beverly Blvd.,Los Angeles,CA,90057,170,USCGeocoder,27,1,4.1,,1b3a5d12-14c9-48b5-9eed-82f725577819,2,Parcel,Success,LOCATION_TYPE_STREET_ADDRESS,Meters,ArealInterpolation,1265.5821296424,ArealInterpolationGeometricCentroid,Parcel,99.4082840237,FeatureClassBased,ReturnAll,,ExactParcelCentroidPoint,,,0,34.0678847881,-118.2739305087,Relaxed,TwoThousandTen,44000,4472,31084,91750,0,31100,2000,2,2085.02,37,6,1,ResidenceStreetAddress
2343 N San Antonio Ave,Pomona,CA,91767,171,USCGeocoder,132,1,4.1,,858d337b-28fe-4812-8771-e099980246bf,3,StreetSegmentInterpolation,Success,LOCATION_TYPE_STREET_ADDRESS,Meters,LinearInterpolation,1922.4121414311,LinearInterpolationAddressRange,StreetSegment,100,FeatureClassBased,ReturnAll,,AddressRangeInterpolation,,,0,34.0856821984,-117.7368606821,Exact,TwoThousandTen,58072,4472,31084,90810,0,31100,3010,3,4021.01,37,6,1,ResidenceStreetAddress
2343 San Antonio,Pomona,CA,91767,172,USCGeocoder,7,1,4.1,,74b3e201-57c0-4410-9cb8-219b71e79d79,3,StreetSegmentInterpolation,Success,LOCATION_TYPE_STREET_ADDRESS,Meters,LinearInterpolation,1922.4121414311,LinearInterpolationAddressRange,StreetSegment,94.9704142012,FeatureClassBased,ReturnAll,,AddressRangeInterpolation,,,0,34.0856821984,-117.7368606821,Relaxed,TwoThousandTen,58072,4472,31084,90810,0,31100,3010,3,4021.01,37,6,1,ResidenceStreetAddress
2355 Westwood Blvd.,Los Angeles,CA,90064,173,USCGeocoder,70,1,4.1,,ea6965b0-6f9b-46b6-a623-87f455c27cc8,3,StreetSegmentInterpolation,Success,LOCATION_TYPE_STREET_ADDRESS,Meters,LinearInterpolation,6540.2450220343,LinearInterpolationAddressRange,StreetSegment,100,FeatureClassBased,ReturnAll,,AddressRangeInterpolation,,,0,34.041081976,-118.4294399824,Exact,TwoThousandTen,44000,4472,31084,91750,0,31100,2007,2,2678,37,6,1,ResidenceStreetAddress
240 E. Monterey,Pomona,CA,91767,174,USCGeocoder,98,1,4.1,,3dc40f87-20ef-4091-b160-7e780c7d921d,3,StreetSegmentInterpolation,Success,LOCATION_TYPE_STREET_ADDRESS,Meters,LinearInterpolation,4331.9084921561,LinearInterpolationAddressRange,StreetSegment,97.0414201183,FeatureClassBased,ReturnAll,,AddressRangeInterpolation,,,0,34.0605411965,-117.7471628655,Relaxed,TwoThousandTen,58072,4472,31084,90810,0,31100,2004,2,4088,37,6,1,ResidenceStreetAddress
240 N. Breed St.,Los Angeles,CA,90033,175,USCGeocoder,168,1,4.1,,b781eb95-d688-408a-b544-419568413eda,3,StreetSegmentInterpolation,Success,LOCATION_TYPE_STREET_ADDRESS,Meters,LinearInterpolation,4717.3915630248,LinearInterpolationAddressRange,StreetSegment,100,FeatureClassBased,ReturnAll,,AddressRangeInterpolation,,,0,34.0462396485,-118.2095407044,Exact,TwoThousandTen,44000,4472,31084,91750,0,31100,1002,1,2044.2,37,6,1,ResidenceStreetAddress
241 N. Figueroa St.,Los Angeles,CA,90012,176,USCGeocoder,50,1,4.1,,12ad2e6d-253b-4ee4-b442-945140936559,3,StreetSegmentInterpolation,Success,LOCATION_TYPE_STREET_ADDRESS,Meters,LinearInterpolation,6124.8873825353,LinearInterpolationAddressRange,StreetSegment,100,FeatureClassBased,ReturnAll,,AddressRangeInterpolation,,,0,34.0587972112,-118.2508199926,Exact,TwoThousandTen,44000,4472,31084,91750,0,31100,1004,1,2074,37,6,1,ResidenceStreetAddress
2453 Troy Ave.,South El Monte,CA,91733,177,USCGeocoder,61,1,4.1,,ed4a7306-25d7-4026-8e82-f8eb2923f17d,3,StreetSegmentInterpolation,Success,LOCATION_TYPE_STREET_ADDRESS,Meters,LinearInterpolation,9001.0806106022,LinearInterpolationAddressRange,StreetSegment,100,FeatureClassBased,ReturnAll,,AddressRangeInterpolation,,,0,34.0563845737,-118.0658882981,Exact,TwoThousandTen,72996,4472,31084,93510,0,31100,1019,1,4335.01,37,6,1,ResidenceStreetAddress
248 E. Monterey Ave.,Pomona,CA,91768,178,USCGeocoder,48,1,4.1,,c0a47198-3c89-4c5f-8227-8d0c5e5ada92,3,StreetSegmentInterpolation,Success,LOCATION_TYPE_STREET_ADDRESS,Meters,LinearInterpolation,4331.9084921561,LinearInterpolationAddressRange,StreetSegment,96.0059171598,FeatureClassBased,ReturnAll,,AddressRangeInterpolation,,,0,34.0605458026,-117.7469871079,Relaxed,TwoThousandTen,58072,4472,31084,90810,0,31100,2004,2,4088,37,6,1,ResidenceStreetAddress
248 Monterey,Pomona,CA,91767,179,USCGeocoder,8,1,4.1,,b3d56e8c-313d-425e-bf9a-ef606b00d202,3,StreetSegmentInterpolation,Success,LOCATION_TYPE_STREET_ADDRESS,Meters,LinearInterpolation,4331.9084921561,LinearInterpolationAddressRange,StreetSegment,94.9704142012,FeatureClassBased,ReturnAll,,AddressRangeInterpolation,,,0,34.0605458026,-117.7469871079,Relaxed,TwoThousandTen,58072,4472,31084,90810,0,31100,2004,2,4088,37,6,1,ResidenceStreetAddress
2500 E. Foothill Blvd,Pasadena,CA,91107,180,USCGeocoder,44,1,4.1,,53883966-f0f7-494b-a577-8dcc6b4a219c,3,StreetSegmentInterpolation,Success,LOCATION_TYPE_STREET_ADDRESS,Meters,LinearInterpolation,2169.9795532776,LinearInterpolationAddressRange,StreetSegment,100,FeatureClassBased,ReturnAll,,AddressRangeInterpolation,,,0,34.1497270271,-118.0985982418,Exact,TwoThousandTen,56000,4472,31084,92400,0,31100,3048,3,4629,37,6,1,ResidenceStreetAddress
2500 Wilshire Ave,Los Angeles,CA,90057,181,USCGeocoder,2,1,4.1,,93a948bf-190f-41c9-946d-1e507bfbc796,2,Parcel,Success,LOCATION_TYPE_STREET_ADDRESS,Meters,ArealInterpolation,3353.2142516971,ArealInterpolationGeometricCentroid,Parcel,93.4911242604,FeatureClassBased,ReturnAll,,ExactParcelCentroidPoint,,,0,34.0599809918,-118.2811923046,Relaxed,TwoThousandTen,44000,4472,31084,91750,0,31100,2003,2,2088.02,37,6,1,ResidenceStreetAddress
2512 River Plaza Drive,Sacramento,CA,95833,182,USCGeocoder,150,1,4.1,,a7396d59-2a62-4e80-a447-2903a5f06de7,9,AddressZIPCentroid,Success,LOCATION_TYPE_STREET_ADDRESS,Meters,ArealInterpolation,0,ArealInterpolationGeometricCentroid,USPSZip,100,FeatureClassBased,ReturnAll,,USPSZipAreaCentroid,,,0,38.6172,-121.497424,Exact,TwoThousandTen,64000,6922,,92690,0,40900,4005,4,70.14,67,6,4,ResidenceZIP
254 1/2 S. Santa Anita St.,San Gabriel,CA,91786,183,USCGeocoder,45,1,4.1,,ded7ab2a-540b-4cf8-9c6e-f91ee3e616a4,3,StreetSegmentInterpolation,Success,LOCATION_TYPE_STREET_ADDRESS,Meters,LinearInterpolation,3730.714744376,LinearInterpolationAddressRange,StreetSegment,92.0118343195,FeatureClassBased,ReturnAll,,AddressRangeInterpolation,,,0,34.0984173395,-118.1075703841,Relaxed,TwoThousandTen,67042,4472,31084,93200,0,31100,1003,1,4811.01,37,6,1,ResidenceStreetAddress
255 East Bonita Ave.,Pomona,CA,91769,184,USCGeocoder,23,1,4.1,,728ec186-b948-45ad-a63e-f559734172e6,3,StreetSegmentInterpolation,Success,LOCATION_TYPE_STREET_ADDRESS,Meters,LinearInterpolation,7395.6763646668,LinearInterpolationAddressRange,StreetSegment,100,FeatureClassBased,ReturnAll,,AddressRangeInterpolation,,,0,34.0963201508,-117.7456481757,Exact,TwoThousandTen,58072,4472,31084,90810,0,31100,3007,3,4017.04,37,6,1,ResidenceStreetAddress
2550 E. Foothill Blvd,Pasadena,CA,91107,185,USCGeocoder,8,1,4.1,,7dbcc692-bf74-43e4-ba3b-28d51d21a2ca,3,StreetSegmentInterpolation,Success,LOCATION_TYPE_STREET_ADDRESS,Meters,LinearInterpolation,2169.9795532776,LinearInterpolationAddressRange,StreetSegment,100,FeatureClassBased,ReturnAll,,AddressRangeInterpolation,,,0,34.1497433907,-118.0976836963,Exact,TwoThousandTen,56000,4472,31084,92400,0,31100,3048,3,4629,37,6,1,ResidenceStreetAddress
2555 East Colorado Blvd.,Pasadena,CA,91107,186,USCGeocoder,18,1,4.1,,b2ece8f1-bf0a-42eb-a355-e0da7751012c,2,Parcel,Success,LOCATION_TYPE_STREET_ADDRESS,Meters,ArealInterpolation,8134.132207036,ArealInterpolationGeometricCentroid,Parcel,98.4023668639,FeatureClassBased,ReturnAll,,ExactParcelCentroidPoint,,,0,34.1466159066,-118.0979829659,Relaxed,TwoThousandTen,56000,4472,31084,92400,0,31100,3057,3,4629,37,6,1,ResidenceStreetAddress
2615 S. Grand Ave.,Los Angeles,CA,90007,187,USCGeocoder,51,1,4.1,,180df969-bf03-44f6-b608-8f6b14d41093,3,StreetSegmentInterpolation,Success,LOCATION_TYPE_STREET_ADDRESS,Meters,LinearInterpolation,2940.3825748833,LinearInterpolationAddressRange,StreetSegment,100,FeatureClassBased,ReturnAll,,AddressRangeInterpolation,,,0,34.0263672175,-118.2724455918,Exact,TwoThousandTen,44000,4472,31084,91750,0,31100,2000,2,2246,37,6,1,ResidenceStreetAddress
2618 Loma St,South El Monte,CA,91733,188,USCGeocoder,135,1,4.1,,afbe7861-19f7-446e-80a4-38b20677c985,3,StreetSegmentInterpolation,Success,LOCATION_TYPE_STREET_ADDRESS,Meters,LinearInterpolation,3411.1185398374,LinearInterpolationAddressRange,StreetSegment,94.0828402367,FeatureClassBased,ReturnAll,,AddressRangeInterpolation,,,0,34.0593138152,-118.068687801,Relaxed,TwoThousandTen,72996,4472,31084,93510,0,31100,1013,1,4335.01,37,6,1,ResidenceStreetAddress
264 E. Monterey Ave.,Pomona,CA,91769,189,USCGeocoder,39,1,4.1,,3476f538-eb62-4f0a-b891-909e1af0ecde,3,StreetSegmentInterpolation,Success,LOCATION_TYPE_STREET_ADDRESS,Meters,LinearInterpolation,4331.9084921561,LinearInterpolationAddressRange,StreetSegment,96.0059171598,FeatureClassBased,ReturnAll,,AddressRangeInterpolation,,,0,34.0605550147,-117.7466355927,Relaxed,TwoThousandTen,58072,4472,31084,90810,0,31100,2004,2,4088,37,6,1,ResidenceStreetAddress
267 N. Belmont Ave.,Los Angeles,CA,90026,190,USCGeocoder,31,1,4.1,,927f48c3-56a7-4173-8729-bd3792d2b46f,2,Parcel,Success,LOCATION_TYPE_STREET_ADDRESS,Meters,ArealInterpolation,985.1270898879,ArealInterpolationGeometricCentroid,Parcel,95.2662721893,FeatureClassBased,ReturnAll,,ExactParcelCentroidPoint,,,0,34.0665775611,-118.2634600494,Relaxed,TwoThousandTen,44000,4472,31084,91750,0,31100,2006,2,2083.02,37,6,1,ResidenceStreetAddress
2670 Griffin Ave.,Los Angeles,CA,90031,191,USCGeocoder,109,1,4.1,,cdb98873-8cb4-4bbc-bafd-cc7d96d2c601,3,StreetSegmentInterpolation,Success,LOCATION_TYPE_STREET_ADDRESS,Meters,LinearInterpolation,6322.2097030683,LinearInterpolationAddressRange,StreetSegment,100,FeatureClassBased,ReturnAll,,AddressRangeInterpolation,,,0,34.0779314209,-118.2117583859,Exact,TwoThousandTen,44000,4472,31084,91750,0,31100,2000,2,1992.01,37,6,1,ResidenceStreetAddress
2700 E. Foothill Blvd.,Pasadena,CA,91107,192,USCGeocoder,1,1,4.1,,a8fa3119-4bae-4c21-a9ff-0d67f56f0b97,2,Parcel,Success,LOCATION_TYPE_STREET_ADDRESS,Meters,ArealInterpolation,4840.1229678569,ArealInterpolationGeometricCentroid,Parcel,98.4023668639,FeatureClassBased,ReturnAll,,ExactParcelCentroidPoint,,,0,34.1493893643,-118.0947731662,Relaxed,TwoThousandTen,56000,4472,31084,92400,0,31100,3054,3,4629,37,6,1,ResidenceStreetAddress
2703 Walnut Grove Ave,Rosemead,CA,91770,193,USCGeocoder,57,1,4.1,,e677a6ea-a8e3-426d-b6a5-1aa9d4dc37c6,3,StreetSegmentInterpolation,Success,LOCATION_TYPE_STREET_ADDRESS,Meters,LinearInterpolation,1964.6929882122,LinearInterpolationAddressRange,StreetSegment,100,FeatureClassBased,ReturnAll,,AddressRangeInterpolation,,,0,34.0611456711,-118.0820344389,Exact,TwoThousandTen,62896,4472,31084,93200,0,31100,1000,1,4824.02,37,6,1,ResidenceStreetAddress
2740 Mountain View Rd,El Monte,CA,91732,194,USCGeocoder,13,1,4.1,,f1db44a3-ec98-4d65-8080-2f812cc279ac,2,Parcel,Success,LOCATION_TYPE_STREET_ADDRESS,Meters,ArealInterpolation,4072.3266969323,ArealInterpolationGeometricCentroid,Parcel,98.4023668639,FeatureClassBased,ReturnAll,,ExactParcelCentroidPoint,,,0,34.060133755,-118.023841976,Relaxed,TwoThousandTen,22230,4472,31084,93510,0,31100,3000,3,4339.01,37,6,1,ResidenceStreetAddress
275 E. Foothill Blvd.,Pomona,CA,91767,195,USCGeocoder,109,1,4.1,,ee9fe68e-247e-41a4-9ba0-36ff065afe9b,3,StreetSegmentInterpolation,Success,LOCATION_TYPE_STREET_ADDRESS,Meters,LinearInterpolation,3739.1634761586,LinearInterpolationAddressRange,StreetSegment,100,FeatureClassBased,ReturnAll,,AddressRangeInterpolation,,,0,34.1072784843,-117.743909333,Exact,TwoThousandTen,58072,4472,31084,90810,0,31100,2032,2,4017.01,37,6,1,ResidenceStreetAddress
27716 Vista Delgado Dr.,Santa Clarita,CA,91354,196,USCGeocoder,89,1,4.1,,995cb654-f8ac-49fb-b06b-26cad54b25ef,9,AddressZIPCentroid,Success,LOCATION_TYPE_STREET_ADDRESS,Meters,ArealInterpolation,0,ArealInterpolationGeometricCentroid,USPSZip,100,FeatureClassBased,ReturnAll,,USPSZipAreaCentroid,,,0,34.44512,-118.546414,Exact,TwoThousandTen,69088,4472,31084,92110,0,31100,1014,1,9201.1,37,6,4,ResidenceZIP
286 Beaver Ct.,Pomona,CA,NA,197,USCGeocoder,101,1,4.1,,e9df4d15-f390-4a32-9e43-60a56507e9cf,98,Unknown,Success,LOCATION_TYPE_STREET_ADDRESS,Kilometers,ArealInterpolation,423966.987,ArealInterpolationGeometricCentroid,State,100,FeatureClassBased,ReturnAll,,StateCentroid,,,0,37.2400490281,-119.5032355358,Exact,TwoThousandTen,,680,,92220,0,31460,3044,3,1.02,39,6,9,Missing
300 E Walnut Street,Pasadena,CA,91101,198,USCGeocoder,293,1,4.1,,a5b714b3-4d5e-4bf1-adbd-9a309bafe1c3,3,StreetSegmentInterpolation,Success,LOCATION_TYPE_STREET_ADDRESS,Meters,LinearInterpolation,2774.4566448513,LinearInterpolationAddressRange,StreetSegment,100,FeatureClassBased,ReturnAll,,AddressRangeInterpolation,,,0,34.1494388318,-118.1441238556,Exact,TwoThousandTen,56000,4472,31084,92400,0,31100,1007,1,4619.02,37,6,1,ResidenceStreetAddress
300 S. Park Ave.,Pomona,CA,NA,199,USCGeocoder,180,1,4.1,,47c8ec3c-449e-4968-b5eb-f30a3fa97a56,98,Unknown,Success,LOCATION_TYPE_STREET_ADDRESS,Kilometers,ArealInterpolation,423966.987,ArealInterpolationGeometricCentroid,State,100,FeatureClassBased,ReturnAll,,StateCentroid,,,0,37.2400490281,-119.5032355358,Exact,TwoThousandTen,,680,,92220,0,31460,3044,3,1.02,39,6,9,Missing
301 E. Foothill Blvd,Arcadia,CA,91006,200,USCGeocoder,42,1,4.1,,065cd815-cb8d-4a85-95c8-500cd37267e0,3,StreetSegmentInterpolation,Success,LOCATION_TYPE_STREET_ADDRESS,Meters,LinearInterpolation,2697.2164788898,LinearInterpolationAddressRange,StreetSegment,100,FeatureClassBased,ReturnAll,,AddressRangeInterpolation,,,0,34.1511704326,-118.0230254171,Exact,TwoThousandTen,2462,4472,31084,93510,0,31100,1017,1,4304,37,6,1,ResidenceStreetAddress
303 S. Park,Pomona,CA,NA,201,USCGeocoder,1639,1,4.1,,38fef185-cd2e-4343-bfd6-668988709617,98,Unknown,Success,LOCATION_TYPE_STREET_ADDRESS,Kilometers,ArealInterpolation,423966.987,ArealInterpolationGeometricCentroid,State,100,FeatureClassBased,ReturnAll,,StateCentroid,,,0,37.2400490281,-119.5032355358,Exact,TwoThousandTen,,680,,92220,0,31460,3044,3,1.02,39,6,9,Missing
310 North Second Ave,Covina,CA,91723,202,USCGeocoder,152,1,4.1,,067f3361-ef64-47b6-8a07-5eb32e5b18a0,3,StreetSegmentInterpolation,Success,LOCATION_TYPE_STREET_ADDRESS,Meters,LinearInterpolation,2182.5259987491,LinearInterpolationAddressRange,StreetSegment,100,FeatureClassBased,ReturnAll,,AddressRangeInterpolation,,,0,34.088563712,-117.887806145,Exact,TwoThousandTen,16742,4472,31084,90810,0,31100,2015,2,4061.01,37,6,1,ResidenceStreetAddress
310 Winston St.,Los Angeles,CA,90013,203,USCGeocoder,79,1,4.1,,0ca12ee8-0671-4cf7-b2e9-6581898ed42d,3,StreetSegmentInterpolation,Success,LOCATION_TYPE_STREET_ADDRESS,Meters,LinearInterpolation,3855.1258620089,LinearInterpolationAddressRange,StreetSegment,100,FeatureClassBased,ReturnAll,,AddressRangeInterpolation,,,0,34.0453951208,-118.2450409368,Exact,TwoThousandTen,44000,4472,31084,91750,0,31100,1005,1,2062,37,6,1,ResidenceStreetAddress
315 W. 9th St.,Los Angeles,CA,90015,204,USCGeocoder,103,1,4.1,,99f0913a-6705-41c8-b5b7-72cd9092f87c,2,Parcel,Success,LOCATION_TYPE_STREET_ADDRESS,Meters,ArealInterpolation,693.9530466199,ArealInterpolationGeometricCentroid,Parcel,93.6686390533,FeatureClassBased,ReturnAll,,ExactParcelCentroidPoint,,,0,34.0331064405,-118.5049313701,Relaxed,TwoThousandTen,70000,4472,31084,92920,0,31100,1042,1,7013.04,37,6,1,ResidenceStreetAddress
320 S. Garfield Ave,Alhambra,CA,91801,205,USCGeocoder,3,1,4.1,,c59c8f9a-6090-4482-89f4-c88794710ff3,2,Parcel,Success,LOCATION_TYPE_STREET_ADDRESS,Meters,ArealInterpolation,3008.8064510226,ArealInterpolationGeometricCentroid,Parcel,98.4023668639,FeatureClassBased,ReturnAll,,ExactParcelCentroidPoint,,,0,34.0919620346,-118.1241748928,Relaxed,TwoThousandTen,884,4472,31084,93200,0,31100,2005,2,4810.02,37,6,1,ResidenceStreetAddress
325 Azusa Ave,Azusa,CA,91702,206,USCGeocoder,30,1,4.1,,7c4c91f8-ae46-43fa-bf86-04d3c30caee2,2,Parcel,Success,LOCATION_TYPE_STREET_ADDRESS,Meters,ArealInterpolation,8972.7108409405,ArealInterpolationGeometricCentroid,Parcel,94.2603550296,FeatureClassBased,ReturnAll,,ExactParcelCentroidPoint,,,0,34.1171075482,-117.908329052,Relaxed,TwoThousandTen,3386,4472,31084,90810,0,31100,4001,4,4044.02,37,6,1,ResidenceStreetAddress
3255 Wilshire Blvd,"Los Angeles,",CA,90010,207,USCGeocoder,23,1,4.1,,481dc104-7f71-4c83-af58-6b220327d835,2,Parcel,Success,LOCATION_TYPE_STREET_ADDRESS,Meters,ArealInterpolation,3115.8989573717,ArealInterpolationGeometricCentroid,Parcel,98.6538461538,FeatureClassBased,ReturnAll,,ExactParcelCentroidPoint,,,0,34.0622348692,-118.2932673099,Relaxed,TwoThousandTen,44000,4472,31084,91750,0,31100,2002,2,2121.01,37,6,1,ResidenceStreetAddress
330 W. Maple Ave.,Monrovia,CA,91016,208,USCGeocoder,185,1,4.1,,9066be80-f044-4c03-b166-0c10bc6fd433,3,StreetSegmentInterpolation,Success,LOCATION_TYPE_STREET_ADDRESS,Meters,LinearInterpolation,1354.5995085957,LinearInterpolationAddressRange,StreetSegment,100,FeatureClassBased,ReturnAll,,AddressRangeInterpolation,,,0,34.1413436645,-118.0075611776,Exact,TwoThousandTen,48648,4472,31084,93510,0,31100,1012,1,4309.01,37,6,1,ResidenceStreetAddress
3320 Gilman Rd.,El Monte,CA,91732,209,USCGeocoder,67,1,4.1,,dfb55a1d-862a-4567-9111-b7fcb7dcce4d,3,StreetSegmentInterpolation,Success,LOCATION_TYPE_STREET_ADDRESS,Meters,LinearInterpolation,1931.0889108907,LinearInterpolationAddressRange,StreetSegment,100,FeatureClassBased,ReturnAll,,AddressRangeInterpolation,,,0,34.0618042201,-118.0099290214,Exact,TwoThousandTen,22230,4472,31084,93510,0,31100,1019,1,4333.02,37,6,1,ResidenceStreetAddress
333 E. Walnut Ave,Pasadena,CA,91101,210,USCGeocoder,102,1,4.1,,803b39cc-20a2-4b0d-95f9-08f9fc29090f,3,StreetSegmentInterpolation,Success,LOCATION_TYPE_STREET_ADDRESS,Meters,LinearInterpolation,2774.4566448513,LinearInterpolationAddressRange,StreetSegment,94.0828402367,FeatureClassBased,ReturnAll,,AddressRangeInterpolation,,,0,34.1496217426,-118.1436893711,Relaxed,TwoThousandTen,56000,4472,31084,92400,0,31100,1005,1,4619.02,37,6,1,ResidenceStreetAddress
3350 Aerojet Ave,El Monte,CA,91731,211,USCGeocoder,9,1,4.1,,ec0fad50-a180-4447-a532-a2b3c2ffcb08,2,Parcel,Success,LOCATION_TYPE_STREET_ADDRESS,Meters,ArealInterpolation,6363.7617145026,ArealInterpolationGeometricCentroid,Parcel,99.4082840237,FeatureClassBased,ReturnAll,,ExactParcelCentroidPoint,,,0,34.0693733871,-118.0683196709,Relaxed;Soundex,TwoThousandTen,22230,4472,31084,93510,0,31100,2020,2,4331.01,37,6,1,ResidenceStreetAddress
340 N. Madison Ave.,Los Angeles,CA,90004,212,USCGeocoder,24,1,4.1,,e243f2d6-b56a-4825-a3a5-c2a5f1d1baa1,2,Parcel,Success,LOCATION_TYPE_STREET_ADDRESS,Meters,ArealInterpolation,3485.6313414574,ArealInterpolationGeometricCentroid,Parcel,99.4082840237,FeatureClassBased,ReturnAll,,ExactParcelCentroidPoint,,,0,34.0774727655,-118.2886154674,Relaxed,TwoThousandTen,44000,4472,31084,91750,0,31100,2010,2,1927,37,6,1,ResidenceStreetAddress
350 N. Garey Ave.,Pomona,CA,NA,213,USCGeocoder,51,1,4.1,,90dce199-cf49-4d7e-843a-e466f0683014,98,Unknown,Success,LOCATION_TYPE_STREET_ADDRESS,Kilometers,ArealInterpolation,423966.987,ArealInterpolationGeometricCentroid,State,100,FeatureClassBased,ReturnAll,,StateCentroid,,,0,37.2400490281,-119.5032355358,Exact,TwoThousandTen,,680,,92220,0,31460,3044,3,1.02,39,6,9,Missing
3505 N. Hart Ave,Rosemead,CA,91770,214,USCGeocoder,32,1,4.1,,57efb69f-d723-46cd-98d7-1cf9d94306b9,2,Parcel,Success,LOCATION_TYPE_STREET_ADDRESS,Meters,ArealInterpolation,3781.3765508235,ArealInterpolationGeometricCentroid,Parcel,95.2662721893,FeatureClassBased,ReturnAll,,ExactParcelCentroidPoint,,,0,34.0728572419,-118.0692310987,Relaxed,TwoThousandTen,62896,4472,31084,93200,0,31100,2001,2,4329.01,37,6,1,ResidenceStreetAddress
3560 Santa Anita Ave,El Monte,CA,91731,215,USCGeocoder,37,1,4.1,,8cccdc7f-dfc7-48dd-b1a5-b193283a40fc,3,StreetSegmentInterpolation,Success,LOCATION_TYPE_STREET_ADDRESS,Meters,LinearInterpolation,8462.3496357475,LinearInterpolationAddressRange,StreetSegment,100,FeatureClassBased,ReturnAll,,AddressRangeInterpolation,,,0,34.0734198016,-118.041832652,Exact,TwoThousandTen,22230,4472,31084,93510,0,31100,2019,2,4327,37,6,1,ResidenceStreetAddress
357 S. Westlake Ave.,Los Angeles,CA,NA,216,USCGeocoder,14,1,4.1,,8e52fc70-f464-443c-a750-821b53e25c76,2,Parcel,Success,LOCATION_TYPE_STREET_ADDRESS,Meters,ArealInterpolation,1726.4459942579,ArealInterpolationGeometricCentroid,Parcel,92.6035502959,FeatureClassBased,ReturnAll,,ExactParcelCentroidPoint,,,0,34.0611028413,-118.2727661827,Relaxed,TwoThousandTen,44000,4472,31084,91750,0,31100,2000,2,2089.03,37,6,1,ResidenceStreetAddress
360 E. Holt Ave.,Pomona,CA,NA,217,USCGeocoder,22,1,4.1,,70513540-6938-43df-b5aa-2fa1f6af91a8,2,Parcel,Success,LOCATION_TYPE_STREET_ADDRESS,Meters,ArealInterpolation,711.0713365078,ArealInterpolationGeometricCentroid,Parcel,96.7455621302,FeatureClassBased,ReturnAll,,ExactParcelCentroidPoint,,,0,34.0621820467,-117.7444687482,Relaxed,TwoThousandTen,58072,4472,31084,90810,0,31100,1005,1,4088,37,6,1,ResidenceStreetAddress
360 W. 3rd St,Pomona,CA,91766,218,USCGeocoder,45,1,4.1,,d14c5c3a-ab16-4de9-a623-a94a094eaa67,3,StreetSegmentInterpolation,Success,LOCATION_TYPE_STREET_ADDRESS,Meters,LinearInterpolation,2316.4353399191,LinearInterpolationAddressRange,StreetSegment,100,FeatureClassBased,ReturnAll,,AddressRangeInterpolation,,,0,34.0567669844,-117.7529412827,Exact,TwoThousandTen,58072,4472,31084,90810,0,31100,2031,2,4088,37,6,1,ResidenceStreetAddress
360 West 3rd St.,Pomona,CA,NA,219,USCGeocoder,62,1,4.1,,688d8b63-45d5-49e3-b3a5-f87acb9e1261,98,Unknown,Success,LOCATION_TYPE_STREET_ADDRESS,Kilometers,ArealInterpolation,423966.987,ArealInterpolationGeometricCentroid,State,100,FeatureClassBased,ReturnAll,,StateCentroid,,,0,37.2400490281,-119.5032355358,Exact,TwoThousandTen,,680,,92220,0,31460,3044,3,1.02,39,6,9,Missing
3629 Cypress Ave.,El Monte,CA,91731,220,USCGeocoder,114,1,4.1,,7e9f16df-9e4e-4d01-806e-4d4905d8594e,3,StreetSegmentInterpolation,Success,LOCATION_TYPE_STREET_ADDRESS,Meters,LinearInterpolation,2707.9022293841,LinearInterpolationAddressRange,StreetSegment,100,FeatureClassBased,ReturnAll,,AddressRangeInterpolation,,,0,34.0740688184,-118.0305371136,Exact,TwoThousandTen,22230,4472,31084,93510,0,31100,2003,2,4327,37,6,1,ResidenceStreetAddress
3642 N. Garey Ave.,Pomona,CA,NA,221,USCGeocoder,65,1,4.1,,99225f73-f5a6-46e5-bd9a-1fb3907308b9,98,Unknown,Success,LOCATION_TYPE_STREET_ADDRESS,Kilometers,ArealInterpolation,423966.987,ArealInterpolationGeometricCentroid,State,100,FeatureClassBased,ReturnAll,,StateCentroid,,,0,37.2400490281,-119.5032355358,Exact,TwoThousandTen,,680,,92220,0,31460,3044,3,1.02,39,6,9,Missing
370 E Holt Ave,Pomona,CA,91767,222,USCGeocoder,14,1,4.1,,43a38db4-521a-4f85-ba42-30dcd3d1e82c,2,Parcel,Success,LOCATION_TYPE_STREET_ADDRESS,Meters,ArealInterpolation,671.3681678772,ArealInterpolationGeometricCentroid,Parcel,99.4082840237,FeatureClassBased,ReturnAll,,ExactParcelCentroidPoint,,,0,34.0621956601,-117.7442970625,Relaxed,TwoThousandTen,58072,4472,31084,90810,0,31100,1005,1,4088,37,6,1,ResidenceStreetAddress
3700 East Sierra Madre Blvd,Pasadena,CA,91104,223,USCGeocoder,127,1,4.1,,937f9840-98b0-47ea-b8fa-2fdd1ab078b2,3,StreetSegmentInterpolation,Success,LOCATION_TYPE_STREET_ADDRESS,Meters,LinearInterpolation,10619.1496622134,LinearInterpolationAddressRange,StreetSegment,96.0059171598,FeatureClassBased,ReturnAll,,AddressRangeInterpolation,,,0,34.161636073,-118.0731789828,Relaxed,TwoThousandTen,56000,4472,31084,92400,0,31100,2000,2,4630,37,6,1,ResidenceStreetAddress
3701 Wilshire Blvd.,Los Angeles,CA,90010,224,USCGeocoder,30,1,4.1,,8a73454a-43a9-4085-aa18-34b57d5eb7c8,3,StreetSegmentInterpolation,Success,LOCATION_TYPE_STREET_ADDRESS,Meters,LinearInterpolation,2612.6789722787,LinearInterpolationAddressRange,StreetSegment,100,FeatureClassBased,ReturnAll,,AddressRangeInterpolation,,,0,34.0617970482,-118.3066075408,Exact,TwoThousandTen,44000,4472,31084,91750,0,31100,1005,1,2118.02,37,6,1,ResidenceStreetAddress
3739 North Monterey Ave,Baldwin Park,CA,91706,225,USCGeocoder,50,1,4.1,,965e823b-2d13-4a8c-a058-411985ffa647,2,Parcel,Success,LOCATION_TYPE_STREET_ADDRESS,Meters,ArealInterpolation,7319.4254764915,ArealInterpolationGeometricCentroid,Parcel,94.2603550296,FeatureClassBased,ReturnAll,,ExactParcelCentroidPoint,,,0,34.0801169519,-117.9768353564,Relaxed,TwoThousandTen,3666,4472,31084,90810,0,31100,2001,2,4048.01,37,6,1,ResidenceStreetAddress
376 W. Huntington Dr.,Arcadia,CA,91007,226,USCGeocoder,119,1,4.1,,38f23e9e-ae71-446b-b891-c0e09923d005,3,StreetSegmentInterpolation,Success,LOCATION_TYPE_STREET_ADDRESS,Meters,LinearInterpolation,11190.4868224114,LinearInterpolationAddressRange,StreetSegment,100,FeatureClassBased,ReturnAll,,AddressRangeInterpolation,,,0,34.1324353969,-118.0446333146,Exact,TwoThousandTen,2462,4472,31084,93510,0,31100,1015,1,4307.21,37,6,1,ResidenceStreetAddress
3881 S Western Ave,Los Angeles,CA,90062,227,USCGeocoder,32,1,4.1,,83b850c0-58cb-4a13-9d5f-7afd527bb4d5,3,StreetSegmentInterpolation,Success,LOCATION_TYPE_STREET_ADDRESS,Meters,LinearInterpolation,2332.7727417245,LinearInterpolationAddressRange,StreetSegment,100,FeatureClassBased,ReturnAll,,AddressRangeInterpolation,,,0,34.0150548648,-118.3089932037,Exact,TwoThousandTen,44000,4472,31084,91750,0,31100,1007,1,2314,37,6,1,ResidenceStreetAddress
3940 Tiden Ave,Culver City,CA,90230,228,USCGeocoder,143,1,4.1,,06f776b3-de03-40b4-a395-924e340369eb,9,AddressZIPCentroid,Success,LOCATION_TYPE_STREET_ADDRESS,Meters,ArealInterpolation,0,ArealInterpolationGeometricCentroid,USPSZip,100,FeatureClassBased,ReturnAll,,USPSZipAreaCentroid,,,0,34.001758,-118.394799,Exact,TwoThousandTen,44000,4472,31084,91750,0,31100,4014,4,7027,37,6,4,ResidenceZIP
"4 Village Loop Road Pomona, CA 91766",Pomona,CA,91766,229,USCGeocoder,29,1,4.1,,6b44559c-a73b-4798-b262-6d937a913a39,2,Parcel,Success,LOCATION_TYPE_STREET_ADDRESS,Meters,ArealInterpolation,2828.2134940922,ArealInterpolationGeometricCentroid,Parcel,92.4852071006,FeatureClassBased,ReturnAll,,ExactParcelCentroidPoint,,,0,34.0317349446,-117.77262496,Relaxed;Soundex,TwoThousandTen,58072,4472,31084,90810,0,31100,3006,3,4033.18,37,6,1,ResidenceStreetAddress
400 Civic Center Plaza,Pomona,CA,91766,230,USCGeocoder,29,1,4.1,,d89e0152-3282-458b-9e14-19dca22456ec,2,Parcel,Success,LOCATION_TYPE_STREET_ADDRESS,Meters,ArealInterpolation,3219.0924845934,ArealInterpolationGeometricCentroid,Parcel,98.4023668639,FeatureClassBased,ReturnAll,,ExactParcelCentroidPoint,,,0,34.0543126251,-117.7527407401,Relaxed,TwoThousandTen,58072,4472,31084,90810,0,31100,2057,2,4088,37,6,1,ResidenceStreetAddress
401 E. Corto St.,Alhambra,CA,91801,231,USCGeocoder,110,1,4.1,,212758cd-f4bf-4070-8642-90fc5b3099ab,3,StreetSegmentInterpolation,Success,LOCATION_TYPE_STREET_ADDRESS,Meters,LinearInterpolation,3140.0910828956,LinearInterpolationAddressRange,StreetSegment,97.9289940828,FeatureClassBased,ReturnAll,,AddressRangeInterpolation,,,0,34.0905205648,-118.1182667159,Relaxed,TwoThousandTen,884,4472,31084,93200,0,31100,3002,3,4815,37,6,1,ResidenceStreetAddress
405 N. Azusa Ave,Azusa,CA,91702,232,USCGeocoder,28,1,4.1,,df40e05b-948d-407f-aeee-c5b32d92049d,2,Parcel,Success,LOCATION_TYPE_STREET_ADDRESS,Meters,ArealInterpolation,9574.6310858888,ArealInterpolationGeometricCentroid,Parcel,94.2603550296,FeatureClassBased,ReturnAll,,ExactParcelCentroidPoint,,,0,34.1157744292,-117.9083116746,Relaxed,TwoThousandTen,3386,4472,31084,90810,0,31100,4010,4,4044.02,37,6,1,ResidenceStreetAddress
415 W. Chestnut Ave.,Monrovia,CA,91016,233,USCGeocoder,16,1,4.1,,d84f6289-be4e-40de-9509-8b3a29729b29,2,Parcel,Success,LOCATION_TYPE_STREET_ADDRESS,Meters,ArealInterpolation,801.0488497019,ArealInterpolationGeometricCentroid,Parcel,98.4023668639,FeatureClassBased,ReturnAll,,ExactParcelCentroidPoint,,,0,34.1428384182,-118.0081378351,Relaxed,TwoThousandTen,48648,4472,31084,93510,0,31100,1007,1,4309.01,37,6,1,ResidenceStreetAddress
415 W. Ocean Blvd.,Long Beach,CA,90802,234,USCGeocoder,15,1,4.1,,9641d535-be61-4ae9-83c3-816654ab535e,2,Parcel,Success,LOCATION_TYPE_STREET_ADDRESS,Meters,ArealInterpolation,15341.7336375685,ArealInterpolationGeometricCentroid,Parcel,99.4082840237,FeatureClassBased,ReturnAll,,ExactParcelCentroidPoint,,,0,33.7679444415,-118.1971025196,Relaxed,TwoThousandTen,43000,4472,31084,91730,0,31100,2010,2,5760.01,37,6,1,ResidenceStreetAddress
417 S. Azusa Ave.,La Puente,CA,91744,235,USCGeocoder,124,1,4.1,,c8bc1a3c-b2df-4db7-8142-3c9d366f20a5,3,StreetSegmentInterpolation,Success,LOCATION_TYPE_STREET_ADDRESS,Meters,LinearInterpolation,651.4256702506,LinearInterpolationAddressRange,StreetSegment,98.9940828402,FeatureClassBased,ReturnAll,,AddressRangeInterpolation,,,0,34.0154016304,-117.9216581127,Relaxed,TwoThousandTen,36490,4472,31084,90810,0,31100,1008,1,4081.38,37,6,1,ResidenceStreetAddress
420 N. Reservoir St.,Pomona,CA,91767,236,USCGeocoder,24,1,4.1,,a1cbb446-6c77-445c-8c2d-4ba8b4b0cecc,2,Parcel,Success,LOCATION_TYPE_STREET_ADDRESS,Meters,ArealInterpolation,742.6307783872,ArealInterpolationGeometricCentroid,Parcel,99.4082840237,FeatureClassBased,ReturnAll,,ExactParcelCentroidPoint,,,0,34.0620809498,-117.7325224023,Relaxed,TwoThousandTen,58072,4472,31084,90810,0,31100,3003,3,4027.02,37,6,1,ResidenceStreetAddress
420 S. Glendora Ave.,West Covina,CA,91790,237,USCGeocoder,80,1,4.1,,6b90ee76-0693-4b3a-a565-9ce233d666c0,3,StreetSegmentInterpolation,Success,LOCATION_TYPE_STREET_ADDRESS,Meters,LinearInterpolation,2775.781490576,LinearInterpolationAddressRange,StreetSegment,100,FeatureClassBased,ReturnAll,,AddressRangeInterpolation,,,0,34.0669443204,-117.9257242089,Exact,TwoThousandTen,84200,4472,31084,90810,0,31100,4008,4,4065,37,6,1,ResidenceStreetAddress
42011 4th Street,Lancaster,CA,93534,238,USCGeocoder,40,1,4.1,,9375ea86-92cd-4218-8e7b-2ba7f682dc3c,3,StreetSegmentInterpolation,Success,LOCATION_TYPE_STREET_ADDRESS,Meters,LinearInterpolation,5138.0513267973,LinearInterpolationAddressRange,StreetSegment,93.6390532544,FeatureClassBased,ReturnAll,,AddressRangeInterpolation,,,0,34.6460336967,-118.1232843274,Relaxed,TwoThousandTen,40130,4472,31084,92140,0,31100,1058,1,9005.04,37,6,1,ResidenceStreetAddress
4239 Maine Ave.,Baldwin Park,CA,91706,239,USCGeocoder,23,1,4.1,,a5a2118d-b5a7-4002-b1dc-2d27224b7e25,3,StreetSegmentInterpolation,Success,LOCATION_TYPE_STREET_ADDRESS,Meters,LinearInterpolation,3291.55765269,LinearInterpolationAddressRange,StreetSegment,100,FeatureClassBased,ReturnAll,,AddressRangeInterpolation,,,0,34.0896636738,-117.9604881903,Exact,TwoThousandTen,3666,4472,31084,90810,0,31100,1008,1,4051.02,37,6,1,ResidenceStreetAddress
426 South Alexandria St.,Los Angeles,CA,90020,240,USCGeocoder,29,1,4.1,,f79ea2c2-291a-40da-b7a5-a7a3a5ea13f8,2,Parcel,Success,LOCATION_TYPE_STREET_ADDRESS,Meters,ArealInterpolation,864.0255242437,ArealInterpolationGeometricCentroid,Parcel,93.4911242604,FeatureClassBased,ReturnAll,,ExactParcelCentroidPoint,,,0,34.0663050977,-118.2975457702,Relaxed,TwoThousandTen,44000,4472,31084,91750,0,31100,3000,3,2119.1,37,6,1,ResidenceStreetAddress
4316 Peck Rd.,El Monte,CA,91732,241,USCGeocoder,34,1,4.1,,bc1d8282-96b4-4388-925e-8cf92ff3fc7a,2,Parcel,Success,LOCATION_TYPE_STREET_ADDRESS,Meters,ArealInterpolation,4200.7192679346,ArealInterpolationGeometricCentroid,Parcel,98.4023668639,FeatureClassBased,ReturnAll,,ExactParcelCentroidPoint,,,0,34.0825914378,-118.0180338317,Relaxed,TwoThousandTen,22230,4472,31084,93510,0,31100,3005,3,4326.01,37,6,1,ResidenceStreetAddress
436 W. Fourth St.,Pomona,CA,NA,242,USCGeocoder,93,1,4.1,,d83ee975-e87a-43ff-8165-c3acbd940fcf,98,Unknown,Success,LOCATION_TYPE_STREET_ADDRESS,Kilometers,ArealInterpolation,423966.987,ArealInterpolationGeometricCentroid,State,100,FeatureClassBased,ReturnAll,,StateCentroid,,,0,37.2400490281,-119.5032355358,Exact,TwoThousandTen,,680,,92220,0,31460,3044,3,1.02,39,6,9,Missing
4368 Santa Anita Ave,El Monte,CA,91731,243,USCGeocoder,22,1,4.1,,d105f2b6-8770-48c1-b1aa-84e949832112,3,StreetSegmentInterpolation,Success,LOCATION_TYPE_STREET_ADDRESS,Meters,LinearInterpolation,2422.2296127202,LinearInterpolationAddressRange,StreetSegment,100,FeatureClassBased,ReturnAll,,AddressRangeInterpolation,,,0,34.0857111672,-118.0293043937,Exact,TwoThousandTen,22230,4472,31084,93510,0,31100,3005,3,4324.02,37,6,1,ResidenceStreetAddress
437 W. San Bernardino Rd.,Covina,CA,91723,244,USCGeocoder,118,1,4.1,,e041b247-913d-4c60-a163-d90a9e5c3270,3,StreetSegmentInterpolation,Success,LOCATION_TYPE_STREET_ADDRESS,Meters,LinearInterpolation,2782.8185425072,LinearInterpolationAddressRange,StreetSegment,100,FeatureClassBased,ReturnAll,,AddressRangeInterpolation,,,0,34.0897956493,-117.8977801578,Exact,TwoThousandTen,16742,4472,31084,90810,0,31100,1007,1,4061.01,37,6,1,ResidenceStreetAddress
444 E. Washington Blvd.,Pasadena,CA,91114,245,USCGeocoder,41,1,4.1,,03aa46bf-e150-4fa4-b3bb-8cd2af07f7d0,3,StreetSegmentInterpolation,Success,LOCATION_TYPE_STREET_ADDRESS,Meters,LinearInterpolation,6102.4920726637,LinearInterpolationAddressRange,StreetSegment,92.0118343195,FeatureClassBased,ReturnAll,,AddressRangeInterpolation,,,0,34.1688288227,-118.1411731988,Relaxed,TwoThousandTen,56000,4472,31084,92400,0,31100,3000,3,4621,37,6,1,ResidenceStreetAddress
444 East Washington Blvd,Pasadena,CA,91104,246,USCGeocoder,8,1,4.1,,cb5e012d-bbe7-470e-8103-42d9348e9a91,3,StreetSegmentInterpolation,Success,LOCATION_TYPE_STREET_ADDRESS,Meters,LinearInterpolation,6102.4920726637,LinearInterpolationAddressRange,StreetSegment,100,FeatureClassBased,ReturnAll,,AddressRangeInterpolation,,,0,34.1688288227,-118.1411731988,Exact,TwoThousandTen,56000,4472,31084,92400,0,31100,3000,3,4621,37,6,1,ResidenceStreetAddress
4501 Santa Anita Ave,El Monte,CA,91731,247,USCGeocoder,33,1,4.1,,f717d794-b7a9-46e0-af72-7eb6826c053f,2,Parcel,Success,LOCATION_TYPE_STREET_ADDRESS,Meters,ArealInterpolation,834.7384995893,ArealInterpolationGeometricCentroid,Parcel,99.4082840237,FeatureClassBased,ReturnAll,,ExactParcelCentroidPoint,,,0,34.0879458822,-118.0281245805,Relaxed,TwoThousandTen,22230,4472,31084,93510,0,31100,2003,2,4324.02,37,6,1,ResidenceStreetAddress
462 N. Indian Hill Blvd.,Claremont,CA,91711,248,USCGeocoder,106,1,4.1,,96b17cdd-3c33-416c-b1a8-70bd505b5e48,3,StreetSegmentInterpolation,Success,LOCATION_TYPE_STREET_ADDRESS,Meters,LinearInterpolation,1852.9284086768,LinearInterpolationAddressRange,StreetSegment,100,FeatureClassBased,ReturnAll,,AddressRangeInterpolation,,,0,34.0985381989,-117.7196700264,Exact,TwoThousandTen,13756,4472,31084,90810,0,31100,1032,1,4019.02,37,6,1,ResidenceStreetAddress
464 E. Walnut St,Pasadena,CA,91101,249,USCGeocoder,44,1,4.1,,47d35ea2-04e0-4d68-a952-5919621b6bdd,3,StreetSegmentInterpolation,Success,LOCATION_TYPE_STREET_ADDRESS,Meters,LinearInterpolation,3215.1552649755,LinearInterpolationAddressRange,StreetSegment,100,FeatureClassBased,ReturnAll,,AddressRangeInterpolation,,,0,34.1494543591,-118.1409390433,Exact,TwoThousandTen,56000,4472,31084,92400,0,31100,2007,2,4622.02,37,6,1,ResidenceStreetAddress
464 W. Woodbury,Altadena,CA,91001,250,USCGeocoder,11,1,4.1,,94e6e009-93ad-42bc-a0bd-2622890eb804,2,Parcel,Success,LOCATION_TYPE_STREET_ADDRESS,Meters,ArealInterpolation,5493.8819043559,ArealInterpolationGeometricCentroid,Parcel,93.4911242604,FeatureClassBased,ReturnAll,,ExactParcelCentroidPoint,,,0,34.1824692382,-118.1606442296,Relaxed,TwoThousandTen,1290,4472,31084,92400,0,31100,3010,3,4610,37,6,1,ResidenceStreetAddress
4650 Sunset Blvd,Los Angeles,CA,90027,251,USCGeocoder,46,1,4.1,,fc30295a-5c8d-439b-a26d-3360ca0e6ffb,3,StreetSegmentInterpolation,Success,LOCATION_TYPE_STREET_ADDRESS,Meters,LinearInterpolation,4337.2469824911,LinearInterpolationAddressRange,StreetSegment,100,FeatureClassBased,ReturnAll,,AddressRangeInterpolation,,,0,34.0980652979,-118.2906898134,Exact,TwoThousandTen,44000,4472,31084,91750,0,31100,2003,2,1913.02,37,6,1,ResidenceStreetAddress
4740 North Grand Ave,Covina,CA,91723,252,USCGeocoder,68,1,4.1,,4c8b77e1-7880-491b-81fb-9bf78262bf0c,9,AddressZIPCentroid,Success,LOCATION_TYPE_STREET_ADDRESS,Meters,ArealInterpolation,0,ArealInterpolationGeometricCentroid,USPSZip,100,FeatureClassBased,ReturnAll,,USPSZipAreaCentroid,,,0,34.087728,-117.886449,Exact,TwoThousandTen,16742,4472,31084,90810,0,31100,2025,2,4061.01,37,6,4,ResidenceZIP
480 W. Monterey St.,Pomona,CA,91768,253,USCGeocoder,42,1,4.1,,23225532-221b-4f50-98c5-0b05f3187bb2,3,StreetSegmentInterpolation,Success,LOCATION_TYPE_STREET_ADDRESS,Meters,LinearInterpolation,2329.2715452532,LinearInterpolationAddressRange,StreetSegment,94.0828402367,FeatureClassBased,ReturnAll,,AddressRangeInterpolation,,,0,34.0603066893,-117.756368944,Relaxed,TwoThousandTen,58072,4472,31084,90810,0,31100,2012,2,4088,37,6,1,ResidenceStreetAddress
490 E. La Verne Ave.,Pomona,CA,91767,254,USCGeocoder,20,1,4.1,,24a6f1d7-ae9c-4126-a2f9-b3e3e4da4c0d,2,Parcel,Success,LOCATION_TYPE_STREET_ADDRESS,Meters,ArealInterpolation,11411.9544823534,ArealInterpolationGeometricCentroid,Parcel,99.4082840237,FeatureClassBased,ReturnAll,,ExactParcelCentroidPoint,,,0,34.0804763479,-117.7435261251,Relaxed,TwoThousandTen,58072,4472,31084,90810,0,31100,3000,3,4021.02,37,6,1,ResidenceStreetAddress
500 W. Temple St.,Los Angeles,CA,90012,255,USCGeocoder,88,1,4.1,,73e7c76c-7f29-4af6-b7a8-3acd1b0a091c,3,StreetSegmentInterpolation,Success,LOCATION_TYPE_STREET_ADDRESS,Meters,LinearInterpolation,5514.937926027,LinearInterpolationAddressRange,StreetSegment,100,FeatureClassBased,ReturnAll,,AddressRangeInterpolation,,,0,34.0564333664,-118.2445549859,Exact,TwoThousandTen,44000,4472,31084,91750,0,31100,1016,1,2074,37,6,1,ResidenceStreetAddress
505 S. Garey Ave.,Pomona,CA,NA,256,USCGeocoder,66,1,4.1,,e3a2dde3-f220-4073-97f2-3c92e47b75fb,98,Unknown,Success,LOCATION_TYPE_STREET_ADDRESS,Kilometers,ArealInterpolation,423966.987,ArealInterpolationGeometricCentroid,State,100,FeatureClassBased,ReturnAll,,StateCentroid,,,0,37.2400490281,-119.5032355358,Exact,TwoThousandTen,,680,,92220,0,31460,3044,3,1.02,39,6,9,Missing
506 S. Main Street,Los Angeles,CA,90013,257,USCGeocoder,35,1,4.1,,562cd9fb-5632-45a2-9037-2497d21dd8fd,3,StreetSegmentInterpolation,Success,LOCATION_TYPE_STREET_ADDRESS,Meters,LinearInterpolation,4674.4840679569,LinearInterpolationAddressRange,StreetSegment,100,FeatureClassBased,ReturnAll,,AddressRangeInterpolation,,,0,34.0464308409,-118.2486527516,Exact,TwoThousandTen,44000,4472,31084,91750,0,31100,1002,1,2073.02,37,6,1,ResidenceStreetAddress
510 W. Monterey Ave,Pomona,CA,91768,258,USCGeocoder,24,1,4.1,,3c440077-6c61-413b-af6d-e88067431b80,3,StreetSegmentInterpolation,Success,LOCATION_TYPE_STREET_ADDRESS,Meters,LinearInterpolation,2286.8891317877,LinearInterpolationAddressRange,StreetSegment,100,FeatureClassBased,ReturnAll,,AddressRangeInterpolation,,,0,34.0602923762,-117.7569587216,Exact,TwoThousandTen,58072,4472,31084,90810,0,31100,2013,2,4088,37,6,1,ResidenceStreetAddress
5116 N Rosemead Blvd,San Gabriel,CA,91766,259,USCGeocoder,124,1,4.1,,7cf894da-3583-4686-b86c-6e2412467e15,9,AddressZIPCentroid,Success,LOCATION_TYPE_STREET_ADDRESS,Meters,ArealInterpolation,0,ArealInterpolationGeometricCentroid,USPSZip,100,FeatureClassBased,ReturnAll,,USPSZipAreaCentroid,,,0,34.041268,-117.761339,Exact,TwoThousandTen,58072,4472,31084,90810,0,31100,3002,3,4030,37,6,4,ResidenceZIP
522 S. San Pedro St.,Los Angeles,CA,90013,260,USCGeocoder,88,1,4.1,,384555fb-f112-45b7-973a-3cdf5e01e528,3,StreetSegmentInterpolation,Success,LOCATION_TYPE_STREET_ADDRESS,Meters,LinearInterpolation,5526.7127175783,LinearInterpolationAddressRange,StreetSegment,100,FeatureClassBased,ReturnAll,,AddressRangeInterpolation,,,0,34.0437020929,-118.244112104,Exact,TwoThousandTen,44000,4472,31084,91750,0,31100,1006,1,2063,37,6,1,ResidenceStreetAddress
528 W. Almond St.,Compton,CA,90220,261,USCGeocoder,18,1,4.1,,1efea548-7d03-42ee-99b8-5ad844d833b4,2,Parcel,Success,LOCATION_TYPE_STREET_ADDRESS,Meters,ArealInterpolation,580.7721916437,ArealInterpolationGeometricCentroid,Parcel,98.4023668639,FeatureClassBased,ReturnAll,,ExactParcelCentroidPoint,,,0,33.8939059449,-118.232219849,Relaxed,TwoThousandTen,15044,4472,31084,90560,0,31100,4006,4,5425.02,37,6,1,ResidenceStreetAddress
536 S. Second Ave,Covina,CA,91723,262,USCGeocoder,2,1,4.1,,5746b49a-0600-4bee-9060-1b3ede076c99,2,Parcel,Success,LOCATION_TYPE_STREET_ADDRESS,Meters,ArealInterpolation,4559.249383667,ArealInterpolationGeometricCentroid,Parcel,99.4082840237,FeatureClassBased,ReturnAll,,ExactParcelCentroidPoint,,,0,34.0799415603,-117.8873095539,Relaxed;Soundex,TwoThousandTen,16742,4472,31084,90810,0,31100,1007,1,4061.02,37,6,1,ResidenceStreetAddress
5400 E. Olympic Blvd,Commerce,CA,90022,263,USCGeocoder,24,1,4.1,,2f6c4cab-81f1-4839-a397-1746793fac4d,2,Parcel,Success,LOCATION_TYPE_STREET_ADDRESS,Meters,ArealInterpolation,12234.8577669263,ArealInterpolationGeometricCentroid,Parcel,98.4023668639,FeatureClassBased,ReturnAll,,ExactParcelCentroidPoint,,,0,34.0150600043,-118.1551954461,Relaxed,TwoThousandTen,14974,4472,31084,93155,0,31100,3011,3,5323.03,37,6,1,ResidenceStreetAddress
"5446 N. Citrus Ave West Covina, CA",West Covina,CA,91790,264,USCGeocoder,7,1,4.1,,0ce39b5a-975e-449c-b87c-1bf3bdc8304f,9,AddressZIPCentroid,Success,LOCATION_TYPE_STREET_ADDRESS,Meters,ArealInterpolation,0,ArealInterpolationGeometricCentroid,USPSZip,100,FeatureClassBased,ReturnAll,,USPSZipAreaCentroid,,,0,34.065225,-117.938282,Exact,TwoThousandTen,84200,4472,31084,90810,0,31100,3002,3,4067.02,37,6,4,ResidenceZIP
550 S. Vermont Ave,Los Angeles,CA,90020,265,USCGeocoder,111,1,4.1,,e438618e-92fb-4d05-a60b-a81b67fd588a,3,StreetSegmentInterpolation,Success,LOCATION_TYPE_STREET_ADDRESS,Meters,LinearInterpolation,4171.9091817711,LinearInterpolationAddressRange,StreetSegment,100,FeatureClassBased,ReturnAll,,AddressRangeInterpolation,,,0,34.0645351935,-118.2915562981,Exact,TwoThousandTen,44000,4472,31084,91750,0,31100,2004,2,2111.2,37,6,1,ResidenceStreetAddress
554 Workman Mill Rd.,La Puente,CA,91746,266,USCGeocoder,69,1,4.1,,87f272b4-5fc4-407a-8536-82c43126e934,3,StreetSegmentInterpolation,Success,LOCATION_TYPE_STREET_ADDRESS,Meters,LinearInterpolation,2724.9229291016,LinearInterpolationAddressRange,StreetSegment,98.9940828402,FeatureClassBased,ReturnAll,,AddressRangeInterpolation,,,0,34.039184141,-118.0007019074,Relaxed,TwoThousandTen,3344,4472,31084,90810,0,31100,1000,1,4083.03,37,6,1,ResidenceStreetAddress
5600 Rickenbacker  Rd.,City of Bell,CA,90201,267,USCGeocoder,122,1,4.1,,49b6b53a-2d1a-4ae3-acfa-183a85f2b18b,9,AddressZIPCentroid,Success,LOCATION_TYPE_STREET_ADDRESS,Meters,ArealInterpolation,0,ArealInterpolationGeometricCentroid,USPSZip,100,FeatureClassBased,ReturnAll,,USPSZipAreaCentroid,,,0,33.969157,-118.172903,Exact,TwoThousandTen,4870,4472,31084,93155,0,31100,1009,1,5338.06,37,6,4,ResidenceZIP
5607 N Barrack Ave,Azusa,CA,91702,268,USCGeocoder,126,1,4.1,,11a68268-7fab-46f2-a83b-b5216b9f20d0,9,AddressZIPCentroid,Success,LOCATION_TYPE_STREET_ADDRESS,Meters,ArealInterpolation,0,ArealInterpolationGeometricCentroid,USPSZip,100,FeatureClassBased,ReturnAll,,USPSZipAreaCentroid,,,0,34.124881,-117.903021,Exact,TwoThousandTen,3386,4472,31084,90810,0,31100,2000,2,4043.01,37,6,4,ResidenceZIP
566 S. Pedro St,Los Angeles,CA,90013,269,USCGeocoder,166,1,4.1,,f9e0d1a4-3c99-480c-a540-0033cbe8b5a1,9,AddressZIPCentroid,Success,LOCATION_TYPE_STREET_ADDRESS,Meters,ArealInterpolation,0,ArealInterpolationGeometricCentroid,USPSZip,100,FeatureClassBased,ReturnAll,,USPSZipAreaCentroid,,,0,34.046676,-118.241961,Exact,TwoThousandTen,44000,4472,31084,91750,0,31100,2014,2,2062,37,6,4,ResidenceZIP
568 E. Foothill Blvd.,Pomona,CA,97167,270,USCGeocoder,68,1,4.1,,e3a7a153-b8c2-4c89-8bb0-a7acaf07be2d,98,Unknown,Success,LOCATION_TYPE_STREET_ADDRESS,Kilometers,ArealInterpolation,423966.987,ArealInterpolationGeometricCentroid,State,100,FeatureClassBased,ReturnAll,,StateCentroid,,,0,37.2400490281,-119.5032355358,Exact,TwoThousandTen,,680,,92220,0,31460,3044,3,1.02,39,6,9,Missing
586 N. Main St.,Pomona,CA,91767,271,USCGeocoder,28,1,4.1,,ac5c583c-51bc-4879-b5d2-ddebd7ff5918,3,StreetSegmentInterpolation,Success,LOCATION_TYPE_STREET_ADDRESS,Meters,LinearInterpolation,2917.3938385826,LinearInterpolationAddressRange,StreetSegment,96.0059171598,FeatureClassBased,ReturnAll,,AddressRangeInterpolation,,,0,34.0633601198,-117.7520596029,Relaxed,TwoThousandTen,58072,4472,31084,90810,0,31100,1008,1,4023.03,37,6,1,ResidenceStreetAddress
5939 Hollywood Blvd,Los Angeles,CA,90232,272,USCGeocoder,101,1,4.1,,01529a1e-3fc4-4db8-a84b-95ba7d4d7bf0,3,StreetSegmentInterpolation,Success,LOCATION_TYPE_STREET_ADDRESS,Meters,LinearInterpolation,4294.7235111529,LinearInterpolationAddressRange,StreetSegment,88.0177514793,FeatureClassBased,ReturnAll,,AddressRangeInterpolation,,,0,34.1017620946,-118.3188153767,Relaxed,TwoThousandTen,44000,4472,31084,91750,0,31100,1009,1,1910,37,6,1,ResidenceStreetAddress
60 S East End Av.,Pomona,CA,91767,273,USCGeocoder,54,1,4.1,,e3b020b9-d5e9-4305-8c94-a3e11d5f204d,9,AddressZIPCentroid,Success,LOCATION_TYPE_STREET_ADDRESS,Meters,ArealInterpolation,0,ArealInterpolationGeometricCentroid,USPSZip,100,FeatureClassBased,ReturnAll,,USPSZipAreaCentroid,,,0,34.081648,-117.740882,Exact,TwoThousandTen,58072,4472,31084,90810,0,31100,1016,1,4021.02,37,6,4,ResidenceZIP
605 N. Park Ave.,Pomona,CA,91768,274,USCGeocoder,41,1,4.1,,16ea75ae-3e5d-46f6-9c7f-68531237b34a,3,StreetSegmentInterpolation,Success,LOCATION_TYPE_STREET_ADDRESS,Meters,LinearInterpolation,5394.3637791686,LinearInterpolationAddressRange,StreetSegment,100,FeatureClassBased,ReturnAll,,AddressRangeInterpolation,,,0,34.0634657458,-117.754795678,Exact,TwoThousandTen,58072,4472,31084,90810,0,31100,2000,2,4023.03,37,6,1,ResidenceStreetAddress
610 South Ardmore Ave,Los Angeles,CA,90005,275,USCGeocoder,46,1,4.1,,1e49062d-592e-458c-937e-58ecb888ad27,3,StreetSegmentInterpolation,Success,LOCATION_TYPE_STREET_ADDRESS,Meters,LinearInterpolation,3007.2001321348,LinearInterpolationAddressRange,StreetSegment,100,FeatureClassBased,ReturnAll,,AddressRangeInterpolation,,,0,34.0631488065,-118.3015068482,Exact,TwoThousandTen,44000,4472,31084,91750,0,31100,2005,2,2118.02,37,6,1,ResidenceStreetAddress
6267 Variel Ave,Woodland Hills,CA,91367,276,USCGeocoder,77,1,4.1,,c03e3c7d-1e6f-4aae-8338-4e2a607095b1,3,StreetSegmentInterpolation,Success,LOCATION_TYPE_STREET_ADDRESS,Meters,LinearInterpolation,12500.314799109,LinearInterpolationAddressRange,StreetSegment,98.9940828402,FeatureClassBased,ReturnAll,,AddressRangeInterpolation,,,0,34.1840804247,-118.5928747083,Relaxed,TwoThousandTen,44000,4472,31084,92785,0,31100,1003,1,1349.05,37,6,1,ResidenceStreetAddress
629 S. Glendora Ave,West Covina,CA,91790,277,USCGeocoder,136,1,4.1,,a87b2666-9872-4cb7-a284-186764f122fe,3,StreetSegmentInterpolation,Success,LOCATION_TYPE_STREET_ADDRESS,Meters,LinearInterpolation,1996.8816293865,LinearInterpolationAddressRange,StreetSegment,100,FeatureClassBased,ReturnAll,,AddressRangeInterpolation,,,0,34.0642955398,-117.9287902294,Exact,TwoThousandTen,84200,4472,31084,90810,0,31100,2013,2,4067.02,37,6,1,ResidenceStreetAddress
630 N. Park Ave.,Pomona,CA,NA,278,USCGeocoder,56,1,4.1,,2a3eb54a-83ba-4782-a32a-28c135909270,98,Unknown,Success,LOCATION_TYPE_STREET_ADDRESS,Kilometers,ArealInterpolation,423966.987,ArealInterpolationGeometricCentroid,State,100,FeatureClassBased,ReturnAll,,StateCentroid,,,0,37.2400490281,-119.5032355358,Exact,TwoThousandTen,,680,,92220,0,31460,3044,3,1.02,39,6,9,Missing
656 N Park Ave.,Pomona,CA,91767,279,USCGeocoder,47,1,4.1,,62545ba8-5960-4847-89e4-f0adceede641,3,StreetSegmentInterpolation,Success,LOCATION_TYPE_STREET_ADDRESS,Meters,LinearInterpolation,5394.3637791686,LinearInterpolationAddressRange,StreetSegment,96.0059171598,FeatureClassBased,ReturnAll,,AddressRangeInterpolation,,,0,34.0638386557,-117.7546287778,Relaxed,TwoThousandTen,58072,4472,31084,90810,0,31100,1010,1,4023.03,37,6,1,ResidenceStreetAddress
657 E. Arrow Hwy,Glendora,CA,91740,280,USCGeocoder,24,1,4.1,,284d5dc2-4350-4f1c-93bf-e5d1eb4bf2e7,3,StreetSegmentInterpolation,Success,LOCATION_TYPE_STREET_ADDRESS,Meters,LinearInterpolation,6887.4730722532,LinearInterpolationAddressRange,StreetSegment,100,FeatureClassBased,ReturnAll,,AddressRangeInterpolation,,,0,34.1064290169,-117.8707839582,Exact,TwoThousandTen,30014,4472,31084,90810,0,31100,2009,2,4039.02,37,6,1,ResidenceStreetAddress
659 E. Walnut Ave,Pasadena,CA,91101,281,USCGeocoder,29,1,4.1,,6d027da0-4c1f-42aa-8b9f-5d7ef293b4cc,3,StreetSegmentInterpolation,Success,LOCATION_TYPE_STREET_ADDRESS,Meters,LinearInterpolation,3137.8042261514,LinearInterpolationAddressRange,StreetSegment,94.0828402367,FeatureClassBased,ReturnAll,,AddressRangeInterpolation,,,0,34.1496544164,-118.1368644377,Relaxed,TwoThousandTen,56000,4472,31084,92400,0,31100,1005,1,4622.02,37,6,1,ResidenceStreetAddress
66 Hurlbut,Pasadena,CA,91105,282,USCGeocoder,16,1,4.1,,88076812-db9a-4bca-9b56-1f970d3482ad,2,Parcel,Success,LOCATION_TYPE_STREET_ADDRESS,Meters,ArealInterpolation,5067.0261245966,ArealInterpolationGeometricCentroid,Parcel,92.4852071006,FeatureClassBased,ReturnAll,,ExactParcelCentroidPoint,,,0,34.1294497307,-118.1516253746,Relaxed,TwoThousandTen,56000,4472,31084,92400,0,31100,2000,2,4639,37,6,1,ResidenceStreetAddress
660 N. Mountain Ave,Claremont,CA,91711,283,USCGeocoder,55,1,4.1,,d4b155d8-ca98-4b1b-8cc2-e14bd6339bf8,3,StreetSegmentInterpolation,Success,LOCATION_TYPE_STREET_ADDRESS,Meters,LinearInterpolation,4978.2352516493,LinearInterpolationAddressRange,StreetSegment,100,FeatureClassBased,ReturnAll,,AddressRangeInterpolation,,,0,34.0999076284,-117.7289218963,Exact,TwoThousandTen,13756,4472,31084,90810,0,31100,3023,3,4019.02,37,6,1,ResidenceStreetAddress
662 Karesh Ave.,Pomona,CA,91767,284,USCGeocoder,6,1,4.1,,d226ed36-2039-4df0-a3a4-adef10b8dccb,2,Parcel,Success,LOCATION_TYPE_STREET_ADDRESS,Meters,ArealInterpolation,674.0848455727,ArealInterpolationGeometricCentroid,Parcel,99.4082840237,FeatureClassBased,ReturnAll,,ExactParcelCentroidPoint,,,0,34.0653273944,-117.7225879642,Relaxed,TwoThousandTen,58072,4472,31084,90810,0,31100,1003,1,4027.02,37,6,1,ResidenceStreetAddress
"6666 Green Valley Cir Culver city,",Culver City,CA,90203,285,USCGeocoder,126,1,4.1,,0a964fe5-c690-44b4-b694-edd65d01ef9c,3,StreetSegmentInterpolation,Success,LOCATION_TYPE_STREET_ADDRESS,Meters,LinearInterpolation,16329.6597929555,LinearInterpolationAddressRange,StreetSegment,92.0118343195,FeatureClassBased,ReturnAll,,AddressRangeInterpolation,,,0,33.979272024,-118.3853787796,Relaxed,TwoThousandTen,17568,4472,31084,91750,0,31100,1000,1,7030.01,37,6,1,ResidenceStreetAddress
669 N. ROBLES AVE,Pasadena,CA,91101,286,USCGeocoder,106,1,4.1,,9786807f-df36-45b3-998d-ee98d42acdd7,9,AddressZIPCentroid,Success,LOCATION_TYPE_STREET_ADDRESS,Meters,ArealInterpolation,0,ArealInterpolationGeometricCentroid,USPSZip,100,FeatureClassBased,ReturnAll,,USPSZipAreaCentroid,,,0,34.147489,-118.139596,Exact,TwoThousandTen,56000,4472,31084,92400,0,31100,2006,2,4622.02,37,6,4,ResidenceZIP
675 S. White Ave.,Pomona,CA,91766,287,USCGeocoder,23,1,4.1,,8ed43e09-8b69-4d8b-a6b9-3e6fc48587c4,2,Parcel,Success,LOCATION_TYPE_STREET_ADDRESS,Meters,ArealInterpolation,13898.2771632671,ArealInterpolationGeometricCentroid,Parcel,98.4023668639,FeatureClassBased,ReturnAll,,ExactParcelCentroidPoint,,,0,34.0534939399,-117.7596414402,Relaxed,TwoThousandTen,58072,4472,31084,90810,0,31100,2003,2,4025.01,37,6,1,ResidenceStreetAddress
675 White Ave.,Pomona,CA,91766,288,USCGeocoder,2,1,4.1,,af702d7c-83ec-4ab7-ad8f-a0fd20fb049f,2,Parcel,Success,LOCATION_TYPE_STREET_ADDRESS,Meters,ArealInterpolation,13898.2771632671,ArealInterpolationGeometricCentroid,Parcel,94.2603550296,FeatureClassBased,ReturnAll,,ExactParcelCentroidPoint,,,0,34.0534939399,-117.7596414402,Relaxed,TwoThousandTen,58072,4472,31084,90810,0,31100,2003,2,4025.01,37,6,1,ResidenceStreetAddress
676 N. Gibbs St.,Pomona,CA,91767,289,USCGeocoder,38,1,4.1,,6210302e-1f7c-4635-b791-9855e7ac94a8,2,Parcel,Success,LOCATION_TYPE_STREET_ADDRESS,Meters,ArealInterpolation,6103.9802398152,ArealInterpolationGeometricCentroid,Parcel,99.4082840237,FeatureClassBased,ReturnAll,,ExactParcelCentroidPoint,,,0,34.0640206331,-117.7476776101,Relaxed,TwoThousandTen,58072,4472,31084,90810,0,31100,4015,4,4026,37,6,1,ResidenceStreetAddress
680 Fairplex Dr.,Pomona,CA,91768,290,USCGeocoder,71,1,4.1,,b22a430d-01c3-4236-ba17-40998a21ac67,3,StreetSegmentInterpolation,Success,LOCATION_TYPE_STREET_ADDRESS,Meters,LinearInterpolation,2474.883126287,LinearInterpolationAddressRange,StreetSegment,100,FeatureClassBased,ReturnAll,,AddressRangeInterpolation,,,0,34.0624948419,-117.7874618474,Exact,TwoThousandTen,58072,4472,31084,90810,0,31100,1002,1,4024.06,37,6,1,ResidenceStreetAddress
6800 Owensmouth Ave.,Canoga Park,CA,91303,291,USCGeocoder,19,1,4.1,,e5df03fc-4aca-419c-9a58-baf337d585f3,2,Parcel,Success,LOCATION_TYPE_STREET_ADDRESS,Meters,ArealInterpolation,5302.0683502707,ArealInterpolationGeometricCentroid,Parcel,98.4023668639,FeatureClassBased,ReturnAll,,ExactParcelCentroidPoint,,,0,34.1943655242,-118.601149827,Relaxed,TwoThousandTen,44000,4472,31084,92785,0,31100,1022,1,1345.2,37,6,1,ResidenceStreetAddress
6801 Coldwater Canyon,North Hollywood,CA,91605,292,USCGeocoder,94,1,4.1,,fe443ba9-4cc6-42e7-8992-f96cfc382e1c,3,StreetSegmentInterpolation,Success,LOCATION_TYPE_STREET_ADDRESS,Meters,LinearInterpolation,4416.0175725846,LinearInterpolationAddressRange,StreetSegment,93.0769230769,FeatureClassBased,ReturnAll,,AddressRangeInterpolation,,,0,34.1939551705,-118.4138781589,Relaxed;Soundex,TwoThousandTen,44000,4472,31084,92785,0,31100,1003,1,1234.2,37,6,1,ResidenceStreetAddress
6881 Brockton Ave,Riverside,CA,92508,293,USCGeocoder,46,1,4.1,,9d67144c-5a24-4c9b-a477-32b98f080592,2,Parcel,Success,LOCATION_TYPE_STREET_ADDRESS,Meters,ArealInterpolation,1328.2292422056,ArealInterpolationGeometricCentroid,Parcel,98.875739645,FeatureClassBased,ReturnAll,,ExactParcelCentroidPoint,,,0,33.9488911022,-117.3971240411,Relaxed,TwoThousandTen,62000,4472,,92640,0,40140,4005,4,311,65,6,1,ResidenceStreetAddress
691 E. Washington Blvd,Pasadena,CA,91104,294,USCGeocoder,27,1,4.1,,1d0f3403-2d19-4e49-84b4-13cecbc24438,3,StreetSegmentInterpolation,Success,LOCATION_TYPE_STREET_ADDRESS,Meters,LinearInterpolation,2550.7722820798,LinearInterpolationAddressRange,StreetSegment,100,FeatureClassBased,ReturnAll,,AddressRangeInterpolation,,,0,34.1690427613,-118.1360930129,Exact,TwoThousandTen,56000,4472,31084,92400,0,31100,2002,2,4615.01,37,6,1,ResidenceStreetAddress
7033 Milton Ave,Whittier,CA,90602,295,USCGeocoder,22,1,4.1,,9c705a5a-a196-4a48-8cf6-894bae7b8681,2,Parcel,Success,LOCATION_TYPE_STREET_ADDRESS,Meters,ArealInterpolation,639.9013087185,ArealInterpolationGeometricCentroid,Parcel,99.3076923077,FeatureClassBased,ReturnAll,,ExactParcelCentroidPoint,,,0,33.978086194,-118.0400449434,Relaxed,TwoThousandTen,85292,4472,31084,93730,0,31100,3004,3,5015.04,37,6,1,ResidenceStreetAddress
705 W 12th St.,Pomona,CA,91766,296,USCGeocoder,120,1,4.1,,04edfe82-02d9-43bd-a05f-707a3e72a079,3,StreetSegmentInterpolation,Success,LOCATION_TYPE_STREET_ADDRESS,Meters,LinearInterpolation,4360.232641577,LinearInterpolationAddressRange,StreetSegment,100,FeatureClassBased,ReturnAll,,AddressRangeInterpolation,,,0,34.0486998095,-117.7564069094,Exact,TwoThousandTen,58072,4472,31084,90810,0,31100,1009,1,4025.02,37,6,1,ResidenceStreetAddress
727 W. 12th St.,Pomona,CA,91766,297,USCGeocoder,115,1,4.1,,621e1015-0956-4620-9482-79ea65bacc2a,3,StreetSegmentInterpolation,Success,LOCATION_TYPE_STREET_ADDRESS,Meters,LinearInterpolation,4360.232641577,LinearInterpolationAddressRange,StreetSegment,100,FeatureClassBased,ReturnAll,,AddressRangeInterpolation,,,0,34.0486933974,-117.7566490199,Exact,TwoThousandTen,58072,4472,31084,90810,0,31100,1009,1,4025.02,37,6,1,ResidenceStreetAddress
733 South Hindry Ave,Inglewood,CA,90301,298,USCGeocoder,109,1,4.1,,319e9bbe-9b3e-4c37-af21-eef5ea7dd701,9,AddressZIPCentroid,Success,LOCATION_TYPE_STREET_ADDRESS,Meters,ArealInterpolation,0,ArealInterpolationGeometricCentroid,USPSZip,100,FeatureClassBased,ReturnAll,,USPSZipAreaCentroid,,,0,33.958998,-118.350254,Exact,TwoThousandTen,36546,4472,31084,91400,0,31100,2039,2,6010.01,37,6,4,ResidenceZIP
750 S. Park Ave.,Pomona,CA,91768,299,USCGeocoder,62,1,4.1,,4f7602b0-99a3-4754-b594-7ec660ba23cc,3,StreetSegmentInterpolation,Success,LOCATION_TYPE_STREET_ADDRESS,Meters,LinearInterpolation,2313.6309312088,LinearInterpolationAddressRange,StreetSegment,96.0059171598,FeatureClassBased,ReturnAll,,AddressRangeInterpolation,,,0,34.052728499,-117.7542430876,Relaxed,TwoThousandTen,58072,4472,31084,90810,0,31100,2064,2,4088,37,6,1,ResidenceStreetAddress
755 N. Palomares St.,Pomona,CA,NA,300,USCGeocoder,51,1,4.1,,61ef5969-bfae-4dab-aafe-7f1e86b7298b,98,Unknown,Success,LOCATION_TYPE_STREET_ADDRESS,Kilometers,ArealInterpolation,423966.987,ArealInterpolationGeometricCentroid,State,100,FeatureClassBased,ReturnAll,,StateCentroid,,,0,37.2400490281,-119.5032355358,Exact,TwoThousandTen,,680,,92220,0,31460,3044,3,1.02,39,6,9,Missing
760 Mountain View,Altadena,CA,91001,301,USCGeocoder,61,1,4.1,,f2860a1c-b376-49a4-ac6a-2d5cb03fa18c,9,AddressZIPCentroid,Success,LOCATION_TYPE_STREET_ADDRESS,Meters,ArealInterpolation,0,ArealInterpolationGeometricCentroid,USPSZip,100,FeatureClassBased,ReturnAll,,USPSZipAreaCentroid,,,0,34.188413,-118.140109,Exact,TwoThousandTen,1290,4472,31084,92400,0,31100,3001,3,4611,37,6,4,ResidenceZIP
7601 E. Imperial Hwy,Downey,CA,90242,302,USCGeocoder,52,1,4.1,,2a09355d-9459-4420-a896-6f667fdba377,2,Parcel,Success,LOCATION_TYPE_STREET_ADDRESS,Meters,ArealInterpolation,199038.339024276,ArealInterpolationGeometricCentroid,Parcel,94.2603550296,FeatureClassBased,ReturnAll,,ExactParcelCentroidPoint,,,0,33.9290994272,-118.1579987001,Relaxed,TwoThousandTen,19766,4472,31084,90730,0,31100,1003,1,5516,37,6,1,ResidenceStreetAddress
761 Corporate Center Dr.,Pomona,CA,91768,303,USCGeocoder,20,1,4.1,,70a6bd12-afb4-43b6-9b8b-34ea33c1b0dc,2,Parcel,Success,LOCATION_TYPE_STREET_ADDRESS,Meters,ArealInterpolation,13853.1405427866,ArealInterpolationGeometricCentroid,Parcel,98.4023668639,FeatureClassBased,ReturnAll,,ExactParcelCentroidPoint,,,0,34.0646435143,-117.8002537348,Relaxed,TwoThousandTen,58072,4472,31084,90810,0,31100,1007,1,4024.04,37,6,1,ResidenceStreetAddress
7643 Painter Ave.,Whittier,CA,90602,304,USCGeocoder,88,1,4.1,,ea160b5c-4816-4b76-af27-279f9a2bee48,3,StreetSegmentInterpolation,Success,LOCATION_TYPE_STREET_ADDRESS,Meters,LinearInterpolation,3042.9585528225,LinearInterpolationAddressRange,StreetSegment,100,FeatureClassBased,ReturnAll,,AddressRangeInterpolation,,,0,33.9727450035,-118.0327666897,Exact,TwoThousandTen,85292,4472,31084,93730,0,31100,2006,2,5018.04,37,6,1,ResidenceStreetAddress
790 E Bonita,Pomona,CA,91762,305,USCGeocoder,34,1,4.1,,19997b28-ddcf-4148-9ad0-3d1866ca6fd3,2,Parcel,Success,LOCATION_TYPE_STREET_ADDRESS,Meters,ArealInterpolation,6287.8176953686,ArealInterpolationGeometricCentroid,Parcel,92.9585798817,FeatureClassBased,ReturnAll,,ExactParcelCentroidPoint,,,0,34.0956215888,-117.737259126,Relaxed,TwoThousandTen,58072,4472,31084,90810,0,31100,3014,3,4017.04,37,6,1,ResidenceStreetAddress
7915 Hellman Ave,Rosemead,CA,91770,306,USCGeocoder,17,1,4.1,,528d2d03-873b-4d79-a7f6-009c401f5ae2,2,Parcel,Success,LOCATION_TYPE_STREET_ADDRESS,Meters,ArealInterpolation,3081.7776607275,ArealInterpolationGeometricCentroid,Parcel,99.4082840237,FeatureClassBased,ReturnAll,,ExactParcelCentroidPoint,,,0,34.0702593856,-118.0967948585,Relaxed,TwoThousandTen,62896,4472,31084,93200,0,31100,3009,3,4823.03,37,6,1,ResidenceStreetAddress
7926 Pickering Ave,Whittier,CA,90602,307,USCGeocoder,16,1,4.1,,34c078d3-c063-410e-a666-21a880b3ee16,2,Parcel,Success,LOCATION_TYPE_STREET_ADDRESS,Meters,ArealInterpolation,3712.6135503054,ArealInterpolationGeometricCentroid,Parcel,99.3076923077,FeatureClassBased,ReturnAll,,ExactParcelCentroidPoint,,,0,33.9690314083,-118.0417005314,Relaxed,TwoThousandTen,85292,4472,31084,93730,0,31100,1009,1,5018.03,37,6,1,ResidenceStreetAddress
795 E. Second St.,Pomona,CA,91766,308,USCGeocoder,193,1,4.1,,1b456a0d-fcf7-4df6-970a-9925e665364f,3,StreetSegmentInterpolation,Success,LOCATION_TYPE_STREET_ADDRESS,Meters,LinearInterpolation,836.511145914,LinearInterpolationAddressRange,StreetSegment,100,FeatureClassBased,ReturnAll,,AddressRangeInterpolation,,,0,34.058143091,-117.7414747522,Exact,TwoThousandTen,58072,4472,31084,90810,0,31100,3000,3,4088,37,6,1,ResidenceStreetAddress
800 S. Santa Anita Ave.,Arcadia,CA,91006,309,USCGeocoder,17,1,4.1,,0f7e17ae-114a-4868-bfef-7941a1b4cdf3,2,Parcel,Success,LOCATION_TYPE_STREET_ADDRESS,Meters,ArealInterpolation,1779.7081645429,ArealInterpolationGeometricCentroid,Parcel,98.4023668639,FeatureClassBased,ReturnAll,,ExactParcelCentroidPoint,,,0,34.131111681,-118.0308568863,Relaxed,TwoThousandTen,2462,4472,31084,93510,0,31100,2011,2,4308.01,37,6,1,ResidenceStreetAddress
810 S. White Ave,Pomona,CA,91766,310,USCGeocoder,26,1,4.1,,bcffd3b4-475f-4c17-ba1b-98bf2046ef4f,2,Parcel,Success,LOCATION_TYPE_STREET_ADDRESS,Meters,ArealInterpolation,609.9422842562,ArealInterpolationGeometricCentroid,Parcel,98.4023668639,FeatureClassBased,ReturnAll,,ExactParcelCentroidPoint,,,0,34.0517717902,-117.7583125707,Relaxed,TwoThousandTen,58072,4472,31084,90810,0,31100,2013,2,4025.01,37,6,1,ResidenceStreetAddress
825 Colorado Blvd.,Los Angeles,CA,90041,311,USCGeocoder,48,1,4.1,,2ab3963b-9a9d-49b2-bace-550f40f8d48d,2,Parcel,Success,LOCATION_TYPE_STREET_ADDRESS,Meters,ArealInterpolation,13131.3527941704,ArealInterpolationGeometricCentroid,Parcel,99.1568047337,FeatureClassBased,ReturnAll,,ExactParcelCentroidPoint,,,0,34.1403575878,-118.184919527,Relaxed,TwoThousandTen,44000,4472,31084,91750,0,31100,1030,1,1810,37,6,1,ResidenceStreetAddress
825 E. Orange Grove Blvd,Pasadena,CA,91104,312,USCGeocoder,12,1,4.1,,3563d955-8f75-429b-bc29-6d21ad1c0a99,2,Parcel,Success,LOCATION_TYPE_STREET_ADDRESS,Meters,ArealInterpolation,5308.7472630143,ArealInterpolationGeometricCentroid,Parcel,99.4082840237,FeatureClassBased,ReturnAll,,ExactParcelCentroidPoint,,,0,34.1584423377,-118.1334230478,Relaxed,TwoThousandTen,56000,4472,31084,92400,0,31100,2010,2,4621,37,6,1,ResidenceStreetAddress
825 Maple Ave,Torrance,CA,90503,313,USCGeocoder,28,1,4.1,,a7375383-a6d4-45e7-a07e-e06e8536760c,2,Parcel,Success,LOCATION_TYPE_STREET_ADDRESS,Meters,ArealInterpolation,16044.6638857722,ArealInterpolationGeometricCentroid,Parcel,98.4023668639,FeatureClassBased,ReturnAll,,ExactParcelCentroidPoint,,,0,33.8385358075,-118.340804356,Relaxed,TwoThousandTen,80000,4472,31084,93380,0,31100,1017,1,6504.01,37,6,1,ResidenceStreetAddress
831 E. Arrow Hwy,Pomona,CA,91767,314,USCGeocoder,15,1,4.1,,d02a8ed2-b55d-47c3-be51-ce1b376fb385,2,Parcel,Success,LOCATION_TYPE_STREET_ADDRESS,Meters,ArealInterpolation,7663.49077712,ArealInterpolationGeometricCentroid,Parcel,99.4082840237,FeatureClassBased,ReturnAll,,ExactParcelCentroidPoint,,,0,34.090796322,-117.7353181766,Relaxed,TwoThousandTen,58072,4472,31084,90810,0,31100,1014,1,4021.01,37,6,1,ResidenceStreetAddress
8332 Commonwealth Ave.,Buena Park,CA,90621,315,USCGeocoder,18,1,4.1,,475e9e98-1d05-49a6-9e37-0da6aa01bb0b,3,StreetSegmentInterpolation,Success,LOCATION_TYPE_STREET_ADDRESS,Meters,LinearInterpolation,8939.9962483116,LinearInterpolationAddressRange,StreetSegment,100,FeatureClassBased,ReturnAll,,AddressRangeInterpolation,,,0,33.8698331176,-117.9879126662,Exact,TwoThousandTen,8786,4472,42044,90050,0,31100,3000,3,1106.03,59,6,1,ResidenceStreetAddress
837 East  Arrow Hwy,Pomona,CA,91767,316,USCGeocoder,54,1,4.1,,f2ba6b4f-22ec-4618-99f2-2c8b73f18220,3,StreetSegmentInterpolation,Success,LOCATION_TYPE_STREET_ADDRESS,Meters,LinearInterpolation,3269.9836998666,LinearInterpolationAddressRange,StreetSegment,100,FeatureClassBased,ReturnAll,,AddressRangeInterpolation,,,0,34.090268893,-117.7361119824,Exact,TwoThousandTen,58072,4472,31084,90810,0,31100,1014,1,4021.01,37,6,1,ResidenceStreetAddress
837 S. Fair Oaks Ave,Pasadena,CA,91105,317,USCGeocoder,16,1,4.1,,18352b76-eb01-4611-8ac0-003aef59eab0,2,Parcel,Success,LOCATION_TYPE_STREET_ADDRESS,Meters,ArealInterpolation,1794.809283495,ArealInterpolationGeometricCentroid,Parcel,98.4023668639,FeatureClassBased,ReturnAll,,ExactParcelCentroidPoint,,,0,34.1313146136,-118.1507069192,Relaxed,TwoThousandTen,56000,4472,31084,92400,0,31100,1008,1,4639,37,6,1,ResidenceStreetAddress
8434 South Greenleaf Ave,Whittier,CA,90602,318,USCGeocoder,18,1,4.1,,28d780de-2c49-482d-879f-72573565cc5b,2,Parcel,Success,LOCATION_TYPE_STREET_ADDRESS,Meters,ArealInterpolation,9044.1345229149,ArealInterpolationGeometricCentroid,Parcel,95.1656804734,FeatureClassBased,ReturnAll,,ExactParcelCentroidPoint,,,0,33.9625186866,-118.0392818085,Relaxed,TwoThousandTen,85292,4472,31084,93730,0,31100,1018,1,5020.03,37,6,1,ResidenceStreetAddress
845 E Arrow Hwy,Pomona,CA,91767,319,USCGeocoder,18,1,4.1,,6f83c375-3d30-4305-9c55-45e00f00c1a8,2,Parcel,Success,LOCATION_TYPE_STREET_ADDRESS,Meters,ArealInterpolation,15646.9523663521,ArealInterpolationGeometricCentroid,Parcel,99.4082840237,FeatureClassBased,ReturnAll,,ExactParcelCentroidPoint,,,0,34.091356336,-117.7347301419,Relaxed,TwoThousandTen,58072,4472,31084,90810,0,31100,1014,1,4021.01,37,6,1,ResidenceStreetAddress
845 E. Bonita Ave.,Pomona,CA,91767,320,USCGeocoder,24,1,4.1,,39bba907-0579-449f-8a44-81e3cb7e4485,3,StreetSegmentInterpolation,Success,LOCATION_TYPE_STREET_ADDRESS,Meters,LinearInterpolation,8213.111027841,LinearInterpolationAddressRange,StreetSegment,100,FeatureClassBased,ReturnAll,,AddressRangeInterpolation,,,0,34.0961984737,-117.7357912568,Exact,TwoThousandTen,58072,4472,31084,90810,0,31100,3002,3,4017.04,37,6,1,ResidenceStreetAddress
851 N. Oakland Ave.,Pasadena,CA,91104,321,USCGeocoder,25,1,4.1,,c665b5e1-fae0-4044-ab09-00c528bdc31e,3,StreetSegmentInterpolation,Success,LOCATION_TYPE_STREET_ADDRESS,Meters,LinearInterpolation,4556.4130279301,LinearInterpolationAddressRange,StreetSegment,100,FeatureClassBased,ReturnAll,,AddressRangeInterpolation,,,0,34.1605674777,-118.1403867888,Exact,TwoThousandTen,56000,4472,31084,92400,0,31100,2005,2,4621,37,6,1,ResidenceStreetAddress
8514 Topanga Canyon Blvd,Canoga Park,CA,91304,322,USCGeocoder,140,1,4.1,,1a9500ce-940f-43d2-914e-c6db9e806cc7,3,StreetSegmentInterpolation,Success,LOCATION_TYPE_STREET_ADDRESS,Meters,LinearInterpolation,4440.1422201688,LinearInterpolationAddressRange,StreetSegment,98.9940828402,FeatureClassBased,ReturnAll,,AddressRangeInterpolation,,,0,34.2251575388,-118.6058204577,Relaxed,TwoThousandTen,44000,4472,31084,92785,0,31100,3004,3,1132.33,37,6,1,ResidenceStreetAddress
8768 Helms Ave,Rancho Cucamonga,CA,NA,323,USCGeocoder,93,1,4.1,,22bc11ad-d44d-4c67-b11a-14e7c4c6c581,98,Unknown,Success,LOCATION_TYPE_STREET_ADDRESS,Kilometers,ArealInterpolation,423966.987,ArealInterpolationGeometricCentroid,State,100,FeatureClassBased,ReturnAll,,StateCentroid,,,0,37.2400490281,-119.5032355358,Exact,TwoThousandTen,,680,,92220,0,31460,3044,3,1.02,39,6,9,Missing
885 S. Village Oaks Dr.,Covina,CA,91724,324,USCGeocoder,46,1,4.1,,22065ee7-d81e-403d-8fe7-a026229e9153,2,Parcel,Success,LOCATION_TYPE_STREET_ADDRESS,Meters,ArealInterpolation,6360.2167563736,ArealInterpolationGeometricCentroid,Parcel,98.4023668639,FeatureClassBased,ReturnAll,,ExactParcelCentroidPoint,,,0,34.0735634173,-117.8629330852,Relaxed,TwoThousandTen,16742,4472,31084,90810,0,31100,2004,2,4036,37,6,1,ResidenceStreetAddress
8923 E. Mission Dr.,Rosemead,CA,91770,325,USCGeocoder,28,1,4.1,,07617db3-8e99-4d81-9f3b-dc850ee7485e,3,StreetSegmentInterpolation,Success,LOCATION_TYPE_STREET_ADDRESS,Meters,LinearInterpolation,3437.0287309852,LinearInterpolationAddressRange,StreetSegment,97.9289940828,FeatureClassBased,ReturnAll,,AddressRangeInterpolation,,,0,34.0848058726,-118.0744451822,Relaxed,TwoThousandTen,62896,4472,31084,93200,0,31100,3004,3,4322.02,37,6,1,ResidenceStreetAddress
8939 S. Sepulveda Blvd.,Los Angeles,CA,90045,326,USCGeocoder,1,1,4.1,,f7240d0b-bae7-4202-92e1-4594c50c5f93,2,Parcel,Success,LOCATION_TYPE_STREET_ADDRESS,Meters,ArealInterpolation,1875.4779224172,ArealInterpolationGeometricCentroid,Parcel,99.1568047337,FeatureClassBased,ReturnAll,,ExactParcelCentroidPoint,,,0,33.9548606384,-118.3967168858,Relaxed,TwoThousandTen,44000,4472,31084,91750,0,31100,2013,2,2780.01,37,6,1,ResidenceStreetAddress
900 3rd St,San Fernando,CA,91340,327,USCGeocoder,18,1,4.1,,833fa197-47bc-4f48-bca9-914df709a925,2,Parcel,Success,LOCATION_TYPE_STREET_ADDRESS,Meters,ArealInterpolation,1392.2235414982,ArealInterpolationGeometricCentroid,Parcel,98.4023668639,FeatureClassBased,ReturnAll,,ExactParcelCentroidPoint,,,0,34.2853749624,-118.4371750193,Relaxed,TwoThousandTen,44000,4472,31084,92785,0,31100,1000,1,3202.01,37,6,1,ResidenceStreetAddress
902 S Myrtle,Monrovia,CA,91016,328,USCGeocoder,102,1,4.1,,600415f0-c0bd-43b4-99a1-c74c1b03e5c9,3,StreetSegmentInterpolation,Success,LOCATION_TYPE_STREET_ADDRESS,Meters,LinearInterpolation,1496.5535776988,LinearInterpolationAddressRange,StreetSegment,97.0414201183,FeatureClassBased,ReturnAll,,AddressRangeInterpolation,,,0,34.142585171,-118.0008263831,Relaxed,TwoThousandTen,48648,4472,31084,93510,0,31100,3015,3,4311,37,6,1,ResidenceStreetAddress
904 E. California St.,Ontario,CA,91768,329,USCGeocoder,40,1,4.1,,5de4a99b-c518-43aa-8ea6-ce55ec34a684,2,Parcel,Success,LOCATION_TYPE_STREET_ADDRESS,Meters,ArealInterpolation,1811.3804172576,ArealInterpolationGeometricCentroid,Parcel,98.875739645,FeatureClassBased,ReturnAll,,ExactParcelCentroidPoint,,,0,34.0554914112,-117.6362965417,Relaxed,TwoThousandTen,53896,4472,,92260,0,40140,2062,2,16,71,6,1,ResidenceStreetAddress
905 E. Holt Blvd.,Ontario,CA,91764,330,USCGeocoder,27,1,4.1,,cb8a119e-8e7c-41dc-ba86-f96388a5830e,2,Parcel,Success,LOCATION_TYPE_STREET_ADDRESS,Meters,ArealInterpolation,6373.6638118029,ArealInterpolationGeometricCentroid,Parcel,99.4082840237,FeatureClassBased,ReturnAll,,ExactParcelCentroidPoint,,,0,34.0642192475,-117.6364173013,Relaxed,TwoThousandTen,53896,4472,,92260,0,40140,1004,1,15.03,71,6,1,ResidenceStreetAddress
921-923 San Gabriel Blvd,San Gabriel,CA,91776,331,USCGeocoder,86,1,4.1,,642c30c4-3f57-498d-b496-3b46ce42d9a0,9,AddressZIPCentroid,Success,LOCATION_TYPE_STREET_ADDRESS,Meters,ArealInterpolation,0,ArealInterpolationGeometricCentroid,USPSZip,100,FeatureClassBased,ReturnAll,,USPSZipAreaCentroid,,,0,34.089832,-118.092812,Exact,TwoThousandTen,67042,4472,31084,93200,0,31100,4001,4,4814.02,37,6,4,ResidenceZIP
925 W. 94th St,Los Angeles,CA,90089,332,USCGeocoder,156,1,4.1,,34f4dfcc-1881-43cf-a7c4-ac0807b4a1c5,9,AddressZIPCentroid,Success,LOCATION_TYPE_STREET_ADDRESS,Meters,ArealInterpolation,0,ArealInterpolationGeometricCentroid,USPSZip,100,FeatureClassBased,ReturnAll,,USPSZipAreaCentroid,,,0,34.017658,-118.284157,Exact,TwoThousandTen,44000,4472,31084,91750,0,31100,2000,2,2312.2,37,6,4,ResidenceZIP
931 E. Kinsley Ave,Pomona,CA,91767,333,USCGeocoder,87,1,4.1,,94e27f0f-b616-4d13-a425-8c3912ff1f09,9,AddressZIPCentroid,Success,LOCATION_TYPE_STREET_ADDRESS,Meters,ArealInterpolation,0,ArealInterpolationGeometricCentroid,USPSZip,100,FeatureClassBased,ReturnAll,,USPSZipAreaCentroid,,,0,34.081648,-117.740882,Exact,TwoThousandTen,58072,4472,31084,90810,0,31100,1016,1,4021.02,37,6,4,ResidenceZIP
9353 E Valley Blvd,Rosemead,CA,91770,334,USCGeocoder,29,1,4.1,,ba4af90d-f055-4cae-85dc-1e8cb46bc3fa,2,Parcel,Success,LOCATION_TYPE_STREET_ADDRESS,Meters,ArealInterpolation,3935.1935054019,ArealInterpolationGeometricCentroid,Parcel,95.2662721893,FeatureClassBased,ReturnAll,,ExactParcelCentroidPoint,,,0,34.0815858023,-118.0651545928,Relaxed,TwoThousandTen,62896,4472,31084,93200,0,31100,1010,1,4322.02,37,6,1,ResidenceStreetAddress
9354 Telstar Ave.,El Monte,CA,91731,335,USCGeocoder,10,1,4.1,,4d9ec92f-6a6e-4e2b-941e-c4f9da5128f1,2,Parcel,Success,LOCATION_TYPE_STREET_ADDRESS,Meters,ArealInterpolation,391.0150652528,ArealInterpolationGeometricCentroid,Parcel,99.4082840237,FeatureClassBased,ReturnAll,,ExactParcelCentroidPoint,,,0,34.0682267072,-118.0652028461,Relaxed,TwoThousandTen,22230,4472,31084,93510,0,31100,2032,2,4331.01,37,6,1,ResidenceStreetAddress
936 West 9th St.,Pomona,CA,91766,336,USCGeocoder,342,1,4.1,,0ec07a1e-e34a-4a9c-88d2-eebd4c44cc35,3,StreetSegmentInterpolation,Success,LOCATION_TYPE_STREET_ADDRESS,Meters,LinearInterpolation,5699.2050578697,LinearInterpolationAddressRange,StreetSegment,100,FeatureClassBased,ReturnAll,,AddressRangeInterpolation,,,0,34.0511413294,-117.7597164961,Exact,TwoThousandTen,58072,4472,31084,90810,0,31100,2009,2,4025.02,37,6,1,ResidenceStreetAddress
941 Westwood Blvd.,Los Angeles,CA,90008,337,USCGeocoder,38,1,4.1,,0059f43b-bb2b-4eac-8e04-badaffefd3ae,3,StreetSegmentInterpolation,Success,LOCATION_TYPE_STREET_ADDRESS,Meters,LinearInterpolation,3108.0682955985,LinearInterpolationAddressRange,StreetSegment,92.0118343195,FeatureClassBased,ReturnAll,,AddressRangeInterpolation,,,0,34.0632315072,-118.4452847373,Relaxed,TwoThousandTen,44000,4472,31084,91750,0,31100,3005,3,2652.02,37,6,1,ResidenceStreetAddress
943 N. Grand Ave.,Covina,CA,91724,338,USCGeocoder,28,1,4.1,,70b34800-32c2-4791-b700-f70a607cb8e1,3,StreetSegmentInterpolation,Success,LOCATION_TYPE_STREET_ADDRESS,Meters,LinearInterpolation,1139.3536452337,LinearInterpolationAddressRange,StreetSegment,100,FeatureClassBased,ReturnAll,,AddressRangeInterpolation,,,0,34.096664213,-117.8725517874,Exact,TwoThousandTen,16742,4472,31084,90810,0,31100,2018,2,4037.21,37,6,1,ResidenceStreetAddress
943 Sunkist Ave,El Monte,CA,91746,339,USCGeocoder,99,1,4.1,,6fadd9d8-da72-4603-8af8-d070f984a9a7,3,StreetSegmentInterpolation,Success,LOCATION_TYPE_STREET_ADDRESS,Meters,LinearInterpolation,2087.647988312,LinearInterpolationAddressRange,StreetSegment,98.9940828402,FeatureClassBased,ReturnAll,,AddressRangeInterpolation,,,0,34.0512458559,-117.9696498819,Relaxed,TwoThousandTen,84774,4472,31084,90810,0,31100,2000,2,4069.02,37,6,1,ResidenceStreetAddress
945 W. Covina Blvd.,San Dimas,CA,91773,340,USCGeocoder,2,1,4.1,,10778cc8-78f8-47cb-b0d7-3533f49a8e94,2,Parcel,Success,LOCATION_TYPE_STREET_ADDRESS,Meters,ArealInterpolation,12039.8174752309,ArealInterpolationGeometricCentroid,Parcel,98.4023668639,FeatureClassBased,ReturnAll,,ExactParcelCentroidPoint,,,0,34.1003829545,-117.8257332309,Relaxed,TwoThousandTen,66070,4472,31084,90810,0,31100,1022,1,4013.12,37,6,1,ResidenceStreetAddress
954 Koleeta Dr.,Harbor City,CA,90714,341,USCGeocoder,112,1,4.1,,32309971-3a5f-42cf-b669-693206c85a18,10,POBoxZIPCentroid,Success,LOCATION_TYPE_STREET_ADDRESS,Meters,ArealInterpolation,0,ArealInterpolationGeometricCentroid,USPSZip,100,FeatureClassBased,ReturnAll,,USPSZipAreaCentroid,,,0,33.851492,-118.136024,Exact,TwoThousandTen,39892,4472,31084,91730,0,31100,5029,5,5708,37,6,5,POBoxZIP
9556 Flower,Bellflower,CA,90706,342,USCGeocoder,116,1,4.1,,29e9dad9-a9ae-4372-b165-3568d5ec8280,3,StreetSegmentInterpolation,Success,LOCATION_TYPE_STREET_ADDRESS,Meters,LinearInterpolation,3553.6244550846,LinearInterpolationAddressRange,StreetSegment,97.0414201183,FeatureClassBased,ReturnAll,,AddressRangeInterpolation,,,0,33.881981845,-118.1301775827,Relaxed,TwoThousandTen,4982,4472,31084,90730,0,31100,3002,3,5542.03,37,6,1,ResidenceStreetAddress
960 W. Mission Blvd.,Pomona,CA,91766,343,USCGeocoder,2,1,4.1,,85bbeb83-204c-4b33-9b8b-32728430d07f,2,Parcel,Success,LOCATION_TYPE_STREET_ADDRESS,Meters,ArealInterpolation,4083.6148563623,ArealInterpolationGeometricCentroid,Parcel,98.4023668639,FeatureClassBased,ReturnAll,,ExactParcelCentroidPoint,,,0,34.0543163911,-117.7603835448,Relaxed,TwoThousandTen,58072,4472,31084,90810,0,31100,2003,2,4025.01,37,6,1,ResidenceStreetAddress
9644 Hermosa Ave,Rancho Cucamonga,CA,NA,344,USCGeocoder,130,1,4.1,,0540d946-ed39-47de-ab67-769d32cb0aa2,98,Unknown,Success,LOCATION_TYPE_STREET_ADDRESS,Kilometers,ArealInterpolation,423966.987,ArealInterpolationGeometricCentroid,State,100,FeatureClassBased,ReturnAll,,StateCentroid,,,0,37.2400490281,-119.5032355358,Exact,TwoThousandTen,,680,,92220,0,31460,3044,3,1.02,39,6,9,Missing
9718 Harvard St.,Bellflower,CA,90706,345,USCGeocoder,116,1,4.1,,2cdcab5d-2183-4609-96ee-94a4b4324b2c,3,StreetSegmentInterpolation,Success,LOCATION_TYPE_STREET_ADDRESS,Meters,LinearInterpolation,4517.6195614203,LinearInterpolationAddressRange,StreetSegment,100,FeatureClassBased,ReturnAll,,AddressRangeInterpolation,,,0,33.8883523233,-118.1267630104,Exact,TwoThousandTen,4982,4472,31084,90730,0,31100,1005,1,5540.02,37,6,1,ResidenceStreetAddress
999 W. Holt Blvd.,Pomona,CA,91762,346,USCGeocoder,39,1,4.1,,53aa0b24-0ec0-4876-98cf-a2700ea6a427,3,StreetSegmentInterpolation,Success,LOCATION_TYPE_STREET_ADDRESS,Meters,LinearInterpolation,9004.9748315518,LinearInterpolationAddressRange,StreetSegment,98.9940828402,FeatureClassBased,ReturnAll,,AddressRangeInterpolation,,,0,34.0632368506,-117.6670189067,Relaxed,TwoThousandTen,53896,4472,,92260,0,40140,3001,3,16,71,6,1,ResidenceStreetAddress
999 West Holt Blvd.,Pomona,CA,91768,347,USCGeocoder,23,1,4.1,,e9fe5468-767e-4383-b889-b9e7e21f50e8,3,StreetSegmentInterpolation,Success,LOCATION_TYPE_STREET_ADDRESS,Meters,LinearInterpolation,7120.645078836,LinearInterpolationAddressRange,StreetSegment,94.0828402367,FeatureClassBased,ReturnAll,,AddressRangeInterpolation,,,0,34.06205804,-117.7670120436,Relaxed,TwoThousandTen,58072,4472,31084,90810,0,31100,1001,1,4023.04,37,6,1,ResidenceStreetAddress
Garey Ave. and Pearl St,Pomona,CA,91766,348,USCGeocoder,3,1,4.1,,af4d5b72-1f2a-4fc2-be01-a6943ea45472,9,AddressZIPCentroid,Success,LOCATION_TYPE_STREET_ADDRESS,Meters,ArealInterpolation,0,ArealInterpolationGeometricCentroid,USPSZip,100,FeatureClassBased,ReturnAll,,USPSZipAreaCentroid,,,0,34.041268,-117.761339,Exact,TwoThousandTen,58072,4472,31084,90810,0,31100,3002,3,4030,37,6,4,ResidenceZIP
San Gabriel Valley District 3352 Aerojet Ave,San Gabriel,CA,91731,349,USCGeocoder,44,1,4.1,,e2ba36a4-9dff-459a-8d44-ef95f5c43527,9,AddressZIPCentroid,Success,LOCATION_TYPE_STREET_ADDRESS,Meters,ArealInterpolation,0,ArealInterpolationGeometricCentroid,USPSZip,100,FeatureClassBased,ReturnAll,,USPSZipAreaCentroid,,,0,34.076656,-118.040904,Exact,TwoThousandTen,22230,4472,31084,93510,0,31100,3006,3,4327,37,6,4,ResidenceZIP
"West Valley Boulevard Pomona, CA 91768",Pomona,CA,NA,350,USCGeocoder,45,1,4.1,,fdacb371-6a2c-4436-b89b-0d29c55f351e,98,Unknown,Success,LOCATION_TYPE_STREET_ADDRESS,Kilometers,ArealInterpolation,423966.987,ArealInterpolationGeometricCentroid,State,100,FeatureClassBased,ReturnAll,,StateCentroid,,,0,37.2400490281,-119.5032355358,Exact,TwoThousandTen,,680,,92220,0,31460,3044,3,1.02,39,6,9,Missing
,,,,,,,,,,,,,,,,,,,,,,,,,,,,,,,,,,,,,,,,,,,,
,,,,,,,,,,,,,,,,,,,,,,,,,,,,,,,,,,,,,,,,,,,,
"<!DOCTYPE html PUBLIC ""-//W3C//DTD XHTML 1.0 Transitional//EN"" ""http://www.w3.org/TR/xhtml1/DTD/xhtml1-transitional.dtd"">",,,,,,,,,,,,,,,,,,,,,,,,,,,,,,,,,,,,,,,,,,,,
,,,,,,,,,,,,,,,,,,,,,,,,,,,,,,,,,,,,,,,,,,,,
"<html xmlns=""http://www.w3.org/1999/xhtml"">",,,,,,,,,,,,,,,,,,,,,,,,,,,,,,,,,,,,,,,,,,,,
,,,,,,,,,,,,,,,,,,,,,,,,,,,,,,,,,,,,,,,,,,,,
<body>,,,,,,,,,,,,,,,,,,,,,,,,,,,,,,,,,,,,,,,,,,,,
,,,,,,,,,,,,,,,,,,,,,,,,,,,,,,,,,,,,,,,,,,,,
    Your download should begin in a few seconds. ,,,,,,,,,,,,,,,,,,,,,,,,,,,,,,,,,,,,,,,,,,,,
    <br />,,,,,,,,,,,,,,,,,,,,,,,,,,,,,,,,,,,,,,,,,,,,
    If it's taking longer it could be due to file size or network traffic.,,,,,,,,,,,,,,,,,,,,,,,,,,,,,,,,,,,,,,,,,,,,
    <br />,,,,,,,,,,,,,,,,,,,,,,,,,,,,,,,,,,,,,,,,,,,,
    <br />,,,,,,,,,,,,,,,,,,,,,,,,,,,,,,,,,,,,,,,,,,,,
    ,,,,,,,,,,,,,,,,,,,,,,,,,,,,,,,,,,,,,,,,,,,,
"    <a id=""linkDownload"">Please be patient while your download is prepared...</a>",,,,,,,,,,,,,,,,,,,,,,,,,,,,,,,,,,,,,,,,,,,,
    ,,,,,,,,,,,,,,,,,,,,,,,,,,,,,,,,,,,,,,,,,,,,
    <br />,,,,,,,,,,,,,,,,,,,,,,,,,,,,,,,,,,,,,,,,,,,,
    <br />,,,,,,,,,,,,,,,,,,,,,,,,,,,,,,,,,,,,,,,,,,,,
    <br />,,,,,,,,,,,,,,,,,,,,,,,,,,,,,,,,,,,,,,,,,,,,
"    <a href=""javascript:window.close();"">Click here to close this window</a>",,,,,,,,,,,,,,,,,,,,,,,,,,,,,,,,,,,,,,,,,,,,
,,,,,,,,,,,,,,,,,,,,,,,,,,,,,,,,,,,,,,,,,,,,
,,,,,,,,,,,,,,,,,,,,,,,,,,,,,,,,,,,,,,,,,,,,
,,,,,,,,,,,,,,,,,,,,,,,,,,,,,,,,,,,,,,,,,,,,
,,,,,,,,,,,,,,,,,,,,,,,,,,,,,,,,,,,,,,,,,,,,
</body>,,,,,,,,,,,,,,,,,,,,,,,,,,,,,,,,,,,,,,,,,,,,
</html>,,,,,,,,,,,,,,,,,,,,,,,,,,,,,,,,,,,,,,,,,,,,
,,,,,,,,,,,,,,,,,,,,,,,,,,,,,,,,,,,,,,,,,,,,
                        ,,,,,,,,,,,,,,,,,,,,,,,,,,,,,,,,,,,,,,,,,,,,
                        ,,,,,,,,,,,,,,,,,,,,,,,,,,,,,,,,,,,,,,,,,,,,
